facility_name,postal_code,prefecture_name,city_name,address,latitude,longitude
はえばる北クリニック,901-1103,,島尻郡南風原町,字与那覇２８３, 島尻郡南風原町 字与那覇２８３
通所リハビリテーション　サクラビア,901-0314,,糸満市,沖縄県字座波371-1, 糸満市 沖縄県字座波371-1
沖縄第一病院訪問介護サービス,901-1111,,島尻郡南風原町,沖縄県字兼城642番地の1, 島尻郡南風原町 沖縄県字兼城642番地の1
沖縄県立南部医療センターこども医療センター,901-1193,,島尻郡南風原町,字新川118-1, 島尻郡南風原町 字新川118-1
勝連病院,901-0331,,糸満市,真栄平1026番地, 糸満市 真栄平1026番地
糸満晴明病院,901-0334,,糸満市,大渡520, 糸満市 大渡520
南山病院,901-0313,,糸満市,賀数406-1, 糸満市 賀数406-1
西崎病院,901-0314,,糸満市,字座波371-1, 糸満市 字座波371-1
白銀病院,901-0361,,糸満市,糸満2041-5, 糸満市 糸満2041-5
大浜第二病院,901-0215,,豊見城市,渡嘉敷150番地, 豊見城市 渡嘉敷150番地
豊見城中央病院,901-0243,,豊見城市,上田25番地, 豊見城市 上田25番地
沖縄メディカル病院,901-1414,,南城市,佐敷字津波古西原2310番地, 南城市 佐敷字津波古西原2310番地
与那原中央病院,901-1303,,島尻郡与那原町,字与那原2905番地, 島尻郡与那原町 字与那原2905番地
嬉野が丘サマリヤ人病院,901-1105,,島尻郡南風原町,新川460番地, 島尻郡南風原町 新川460番地
沖縄県立精和病院,901-1105,,島尻郡南風原町,新川260, 島尻郡南風原町 新川260
久田病院,901-1101,,島尻郡南風原町,大名275番地, 島尻郡南風原町 大名275番地
博愛病院,901-1105,,島尻郡南風原町,新川485-1, 島尻郡南風原町 新川485-1
沖縄第一病院,901-1111,,島尻郡南風原町,兼城642-1, 島尻郡南風原町 兼城642-1
南部徳洲会病院,901-0493,,島尻郡八重瀬町,字外間171-1, 島尻郡八重瀬町 字外間171-1
兼島医院,901-0361,,糸満市,糸満１５０５－２, 糸満市 糸満１５０５－２
安里眼科,901-0302,,糸満市,潮平７２２, 糸満市 潮平７２２
かみや母と子のクリニック,901-0301,,糸満市,阿波根１５５２－２, 糸満市 阿波根１５５２－２
健孝クリニック,901-0302,,糸満市,潮平７１４－２, 糸満市 潮平７１４－２
新垣小児科医院,901-0302,,糸満市,潮平７０８－２１, 糸満市 潮平７０８－２１
くでけん小児科,901-0305,,糸満市,西崎６－１１－８, 糸満市 西崎６－１１－８
南部整形外科,901-0302,,糸満市,潮平７１４－２, 糸満市 潮平７１４－２
ひめゆりクリニック,901-0344,,糸満市,伊原１０７－１, 糸満市 伊原１０７－１
かみやクリニック,901-0301,,糸満市,阿波根１５５２－２, 糸満市 阿波根１５５２－２
耳鼻咽喉科　かおる医院,901-0302,,糸満市,潮平７０５－４, 糸満市 潮平７０５－４
てるや眼科クリニック,901-0361,,糸満市,糸満１２６６－１, 糸満市 糸満１２６６－１
ａｍ皮膚科クリニック,901-0302,,糸満市,潮平７８７－５, 糸満市 潮平７８７－５
豆の木クリニック,901-0302,,糸満市,潮平７６４－１, 糸満市 潮平７６４－１
みなみしまクリニック,901-0302,,糸満市,潮平７８７－1７, 糸満市 潮平７８７－1７
たまき耳鼻咽喉科クリニック,901-0362,,糸満市,真栄里１４３２－１, 糸満市 真栄里１４３２－１
きのしたこどもクリニック,901-0362,,糸満市,真栄里２０３０－３, 糸満市 真栄里２０３０－３
みんなのクリニック,901-0362,,糸満市,真栄里２０２９－１１, 糸満市 真栄里２０２９－１１
よしかわ整形クリニック,901-0362,,糸満市,真栄里２０３１－４, 糸満市 真栄里２０３１－４
ハートフルクリニック,901-0311,,糸満市,武富１６９－２, 糸満市 武富１６９－２
いしかわ眼科クリニック,901-0242,,豊見城市,高安３１７－１, 豊見城市 高安３１７－１
かでな内科医院,901-0241,,豊見城市,豊見城７５３－２, 豊見城市 豊見城７５３－２
垣花整形外科医院,901-0241,,豊見城市,豊見城１００７－３０, 豊見城市 豊見城１００７－３０
ながみね小児科,901-0212,,豊見城市,平良１０９－１, 豊見城市 平良１０９－１
おなが眼科医院,901-0241,,豊見城市,豊見城４３７－２, 豊見城市 豊見城４３７－２
とよみクリニック,901-0201,,豊見城市,真玉橋１２３, 豊見城市 真玉橋１２３
豊見城医院,901-0235,,豊見城市,名嘉地１１２－１, 豊見城市 名嘉地１１２－１
しいな整形外科,901-0242,,豊見城市,高安３１７－１, 豊見城市 高安３１７－１
しろま小児科医院,901-0241,,豊見城市,豊見城２９４－２, 豊見城市 豊見城２９４－２
豊見城中央病院付属豊崎クリニック,901-0225,,豊見城市,豊崎１－４１２, 豊見城市 豊崎１－４１２
空と海とクリニック,901-0244,,豊見城市,宜保３７０, 豊見城市 宜保３７０
なかまクリニック,901-0241,,豊見城市,豊見城３７２－１, 豊見城市 豊見城３７２－１
なかそね整形外科リハビリクリニック,901-0241,,豊見城市,豊見城４４４－２, 豊見城市 豊見城４４４－２
ゆたか泌尿器科,901-0244,,豊見城市,宜保２８２－３, 豊見城市 宜保２８２－３
田仲医院,901-0244,,豊見城市,宜保１９０, 豊見城市 宜保１９０
とくとくクリニック,901-0241,,豊見城市,豊見城４４４－２, 豊見城市 豊見城４４４－２
高橋クリニック,901-0224,,豊見城市,与根８－１５, 豊見城市 与根８－１５
上地歯科・耳鼻咽喉科,901-0231,,豊見城市,我那覇４７６－１, 豊見城市 我那覇４７６－１
うえず内科クリニック,901-0244,,豊見城市,宜保３１０－１３, 豊見城市 宜保３１０－１３
豊見城中央病院付属健康管理センター,901-0225,,豊見城市,豊崎３－４９, 豊見城市 豊崎３－４９
渡名喜眼科,901-0235,,豊見城市,名嘉地２２０－４, 豊見城市 名嘉地２２０－４
朋友クリニック,901-0243,,豊見城市,上田１－１７, 豊見城市 上田１－１７
松岡医院,901-0213,,豊見城市,字高嶺３９５－５６, 豊見城市 字高嶺３９５－５６
伊佐内科クリニック,901-0201,,豊見城市,字真玉橋２８５－１　とよみメディカルビル４Ｆ, 豊見城市 字真玉橋２８５－１　とよみメディカルビル４Ｆ
愛ホームクリニック,901-0243,,豊見城市,字上田５６５, 豊見城市 字上田５６５
とよみ眼科,901-0201,,豊見城市,字真玉橋２８５－１, 豊見城市 字真玉橋２８５－１
さくもと泌尿器科・皮フ科,9010241,,豊見城市,豊見城５４８－１, 豊見城市 豊見城５４８－１
ぐしこどもクリニック,901-0244,,豊見城市,字宜保２９１, 豊見城市 字宜保２９１
かかず耳鼻咽喉科クリニック,901-0201,,豊見城市,字真玉橋２８５－１, 豊見城市 字真玉橋２８５－１
みなみ耳鼻咽喉科医院,901-1206,,南城市,大里仲間１１１２－５, 南城市 大里仲間１１１２－５
沖縄県立南部医療センター・こども医療センター付属久高診療所,901-1501,,南城市,知念字久高２３１－２, 南城市 知念字久高２３１－２
みなみ野クリニック,901-1208,,南城市,大里字平良２５８４－２, 南城市 大里字平良２５８４－２
大里こどもクリニック,901-1208,,南城市,大里字平良２５４５－１, 南城市 大里字平良２５４５－１
南城眼科,901-0615,,南城市,玉城堀川６９５－１, 南城市 玉城堀川６９５－１
平田内科医院,901-1204,,南城市,大里稲嶺１９９５, 南城市 大里稲嶺１９９５
ふじた眼科,901-1414,,南城市,佐敷字津波古２４９, 南城市 佐敷字津波古２４９
ゆかる医院,901-1505,,南城市,知念字久原６９３　, 南城市 知念字久原６９３　
野原整形外科,901-1302,,島尻郡与那原町,上与那原３４１－２, 島尻郡与那原町 上与那原３４１－２
知念耳鼻咽喉科,901-1302,,島尻郡与那原町,上与那原３３５－１, 島尻郡与那原町 上与那原３３５－１
又吉皮フ科,901-1303,,島尻郡与那原町,与那原１０２１, 島尻郡与那原町 与那原１０２１
あおぞら小児科,901-1302,,島尻郡与那原町,上与那原３４０－１, 島尻郡与那原町 上与那原３４０－１
ながみね内科,901-1303,,島尻郡与那原町,与那原１１２１, 島尻郡与那原町 与那原１１２１
まつだクリニック,901-1303,,島尻郡与那原町,与那原３６７８, 島尻郡与那原町 与那原３６７８
よなみね眼科,901-1304,,島尻郡与那原町,東浜９４－１, 島尻郡与那原町 東浜９４－１
上よなばるクリニック,901-1302,,島尻郡与那原町,字上与那原４６４, 島尻郡与那原町 字上与那原４６４
なかだ内科クリニック,901-1304,,島尻郡与那原町,東浜９３－３, 島尻郡与那原町 東浜９３－３
はえばる耳鼻咽喉科,901-1105,,島尻郡南風原町,新川１６３, 島尻郡南風原町 新川１６３
沖縄県立南部保健所,901-1104,,島尻郡南風原町,宮平２１２, 島尻郡南風原町 宮平２１２
沖縄県立総合精神保健福祉センター,901-1104,,島尻郡南風原町,宮平２１２, 島尻郡南風原町 宮平２１２
はえばる皮ふ科医院,901-1111,,島尻郡南風原町,兼城７２５, 島尻郡南風原町 兼城７２５
はえばる眼科医院,901-1111,,島尻郡南風原町,兼城７２５, 島尻郡南風原町 兼城７２５
のはら小児科医院,901-1111,,島尻郡南風原町,兼城２５８, 島尻郡南風原町 兼城２５８
上里整形外科,901-1111,,島尻郡南風原町,兼城４０１, 島尻郡南風原町 兼城４０１
一般社団法人沖縄県健康づくり財団付属診療所,901-1104,,島尻郡南風原町,宮平２１２, 島尻郡南風原町 宮平２１２
一日橋医院,901-1111,,島尻郡南風原町,兼城４９７－１, 島尻郡南風原町 兼城４９７－１
てるや整形外科,901-1117,,島尻郡南風原町,津嘉山１５９５, 島尻郡南風原町 津嘉山１５９５
吉クリニック,901-1114,,島尻郡南風原町,神里４９５, 島尻郡南風原町 神里４９５
ウィメンズメンタルクリニックみなみ,901-1105,,島尻郡南風原町,新川５０７－１, 島尻郡南風原町 新川５０７－１
比嘉胃腸科内科,901-1116,,島尻郡南風原町,照屋３６２, 島尻郡南風原町 照屋３６２
えびす耳鼻科,901-1103,,島尻郡南風原町,与那覇２８３, 島尻郡南風原町 与那覇２８３
心のクリニックさくら,901-1103,,島尻郡南風原町,与那覇２８３, 島尻郡南風原町 与那覇２８３
南風内科クリニック,901-1117,,島尻郡南風原町,字津嘉山１４９０　, 島尻郡南風原町 字津嘉山１４９０　
みやぐに皮フ科,901-1117,,島尻郡南風原町,字津嘉山１４９０　, 島尻郡南風原町 字津嘉山１４９０　
わんぱくクリニック,901-1117,,島尻郡南風原町,字津嘉山１４９０, 島尻郡南風原町 字津嘉山１４９０
つかやま内科,901-1117,,島尻郡南風原町,字津嘉山１６７４, 島尻郡南風原町 字津嘉山１６７４
発達・神経クリニックプロップ,901-1105,,島尻郡南風原町,字新川２１５－３, 島尻郡南風原町 字新川２１５－３
つかざん腎クリニック,901-1117,,島尻郡南風原町,字津嘉山１４９０　メディカルプラザつかざん４Ｆ, 島尻郡南風原町 字津嘉山１４９０　メディカルプラザつかざん４Ｆ
つかざんクリニック,901-1117,,島尻郡南風原町,字津嘉山１３１５－１, 島尻郡南風原町 字津嘉山１３１５－１
空の森クリニック,901-0406,,島尻郡八重瀬町,字屋宜原２２９－１, 島尻郡八重瀬町 字屋宜原２２９－１
東風平第一医院,901-0411,,島尻郡八重瀬町,友寄４２, 島尻郡八重瀬町 友寄４２
東風平クリニック,901-0405,,島尻郡八重瀬町,伊覇２５４－３　, 島尻郡八重瀬町 伊覇２５４－３　
中村内科胃腸科,901-0512,,島尻郡八重瀬町,具志１５４－９, 島尻郡八重瀬町 具志１５４－９
やえせ整形外科,901-0405,,島尻郡八重瀬町,字伊覇２５８－２, 島尻郡八重瀬町 字伊覇２５８－２
沖縄こどもおとなの整形外科,901-0401,,島尻郡八重瀬町,字東風平１２０９, 島尻郡八重瀬町 字東風平１２０９
やえせ眼科,901-0405,,島尻郡八重瀬町,字伊覇６５－２７, 島尻郡八重瀬町 字伊覇６５－２７
耳鼻咽喉科やえせクリニック,901-0405,,島尻郡八重瀬町,字伊覇３０４, 島尻郡八重瀬町 字伊覇３０４
やえせ子どもクリニック,901-0405,,島尻郡八重瀬町,字伊覇５４－3, 島尻郡八重瀬町 字伊覇５４－3
とよみ生協病院,901-0314,,糸満市,豊見城市字真玉橋593番地の1, 糸満市 豊見城市字真玉橋593番地の1
西崎病院,901-0314,,糸満市,字座波371番地1, 糸満市 字座波371番地1
南部病院,901-0362,,糸満市,字真栄里870, 糸満市 字真栄里870
県立南部医療センター・こども医療センター,901-1193,,島尻郡南風原町,字新川118-1, 島尻郡南風原町 字新川118-1
がじまる診療所,901-0305,,糸満市,西崎2丁目26番6号, 糸満市 西崎2丁目26番6号
い歯科医院,901-0302 ,,糸満市,潮平６０６－１ , 糸満市 潮平６０６－１ 
ふてんま歯科クリニック,901-0305 ,,糸満市,西崎６－１９－３西崎プラザ２Ｆ, 糸満市 西崎６－１９－３西崎プラザ２Ｆ
上原歯科クリニック,901-0305,,糸満市,西崎６－１５－２, 糸満市 西崎６－１５－２
ファミリー歯科クリニック,901-0305 ,,糸満市,西崎町３－４９３ , 糸満市 西崎町３－４９３ 
大城歯科,901-0305,,糸満市,西崎２－４３－３, 糸満市 西崎２－４３－３
しおひら歯科医院,901-0302 ,,糸満市,潮平６１９－２, 糸満市 潮平６１９－２
フレンド歯科医院,901-0305  ,,糸満市,西崎２－７－１４グランハイム西崎　１階, 糸満市 西崎２－７－１４グランハイム西崎　１階
かみや歯科クリニック,901-0302,,糸満市,潮平７９８－４オアシス當銘１Ｆ , 糸満市 潮平７９８－４オアシス當銘１Ｆ 
サンプラザ糸満歯科医院 　,901-0303 ,,糸満市,兼城４００, 糸満市 兼城４００
かしわ歯科,901-0361,,糸満市,糸満１４７３－２－１Ｆ, 糸満市 糸満１４７３－２－１Ｆ
アサヒ歯科医院,901-0361 ,,糸満市,糸満１２７８－２　１Ｆ, 糸満市 糸満１２７８－２　１Ｆ
まえざと歯科　,901-0362 ,,糸満市,真栄里２０５８－２リーブル沖縄　101号, 糸満市 真栄里２０５８－２リーブル沖縄　101号
かなばやし歯科　,901-0313 ,,糸満市,賀数４６９ニューワールド１０１, 糸満市 賀数４６９ニューワールド１０１
やすだ歯科医院,901-0361,,糸満市,糸満１９２２, 糸満市 糸満１９２２
あおば歯科医院,9010345,,糸満市,福地１６５－１, 糸満市 福地１６５－１
げんまい歯科医院,901-0335,,糸満市,米須２４８ , 糸満市 米須２４８ 
あはごん歯科,901-0302 ,,糸満市,潮平７７１－２花城アパート１Ｆ, 糸満市 潮平７７１－２花城アパート１Ｆ
上原歯科医院,901-0361 ,,糸満市,字糸満１３６７-１, 糸満市 字糸満１３６７-１
上地歯科・耳鼻咽喉科,901-0231,,豊見城市,字我那覇４７６－1, 豊見城市 字我那覇４７６－1
ざは歯科クリニック,901-0242 ,,豊見城市,高安４１３－１大漁マンション２Ｆ, 豊見城市 高安４１３－１大漁マンション２Ｆ
竹尾歯科医院,901-0213 ,,豊見城市,高嶺３９３－５ , 豊見城市 高嶺３９３－５ 
おおみ歯科医院,901-0241 ,,豊見城市,豊見城６７３－５ , 豊見城市 豊見城６７３－５ 
豊見城歯科クリニック,901-0213 ,,豊見城市,高嶺３５９－１ , 豊見城市 高嶺３５９－１ 
ハッピー歯科小児歯科,901-0241 ,,豊見城市,豊見城８０嘉数アパート２Ｆ, 豊見城市 豊見城８０嘉数アパート２Ｆ
ゆがふ歯科クリニック,901-0241 ,,豊見城市,豊見城４６９－１ , 豊見城市 豊見城４６９－１ 
みやひら歯科医院,901-0201 ,,豊見城市,真玉橋１３５, 豊見城市 真玉橋１３５
ねま歯科クリニック,901-0244,,豊見城市,宜保３１０－１１豊和マンション１Ｆ, 豊見城市 宜保３１０－１１豊和マンション１Ｆ
歯科ヨナシロ医院,901-0242,,豊見城市,高安７３４－２　２Ｆ, 豊見城市 高安７３４－２　２Ｆ
寺西歯科医院,901-0241,,豊見城市,豊見城４１９－１, 豊見城市 豊見城４１９－１
トヨミ歯科,901-0200 ,,豊見城市,根差部７１０マックスバリューとよみ店, 豊見城市 根差部７１０マックスバリューとよみ店
真玉橋歯科医院,901-0201 ,,豊見城市,真玉橋１４７ , 豊見城市 真玉橋１４７ 
きらら歯科クリニック,901-0244 ,,豊見城市,宜保３７０番地, 豊見城市 宜保３７０番地
とよみデンタルクリニック,901-0212,,豊見城市,平良９５番地の１, 豊見城市 平良９５番地の１
金城歯科クリニック,901-0205,,豊見城市,根差部４１９番地, 豊見城市 根差部４１９番地
豊崎デンタルクリニック,901-0225,,豊見城市,豊崎１－４２３, 豊見城市 豊崎１－４２３
しおはま歯科医院,901-0241 ,,豊見城市,豊見城３６８－１　１Ｆ, 豊見城市 豊見城３６８－１　１Ｆ
まこと歯科医院,901-0225 ,,豊見城市,豊崎１－３２６, 豊見城市 豊崎１－３２６
オレンジ歯科クリニック,901-0213,,豊見城市,字高嶺３６４－１　コモンズ栄Ａ－１, 豊見城市 字高嶺３６４－１　コモンズ栄Ａ－１
かめーる歯科,901-0231 ,,豊見城市,字我那覇６４３番地, 豊見城市 字我那覇６４３番地
モリヤデンタルオフィス,901-0223 ,,豊見城市,翁長８５４－２－１０１, 豊見城市 翁長８５４－２－１０１
よつば小児・矯正歯科,901-0225,,豊見城市,豊崎１－３２３ , 豊見城市 豊崎１－３２３ 
とはしな歯科クリニック,901-0222 ,,豊見城市,字渡橋名２番地１ , 豊見城市 字渡橋名２番地１ 
瀬底歯科医院,901-1414 ,,南城市,佐敷津波古２４６, 南城市 佐敷津波古２４６
松山歯科,901-1414 ,,南城市,佐敷津波古１００６ , 南城市 佐敷津波古１００６ 
おおざと歯科医院,901-1202 ,,南城市,大里字平良２５０５－１ , 南城市 大里字平良２５０５－１ 
船越歯科医院,901-0618,,南城市,玉城船越９８０城マンション１Ｆ , 南城市 玉城船越９８０城マンション１Ｆ 
トモヨセ歯科,901-1206 ,,南城市,大里仲間１１６２－２ , 南城市 大里仲間１１６２－２ 
さしき歯科,901-1412 ,,南城市,佐敷新里６０７－１ , 南城市 佐敷新里６０７－１ 
アトール歯科,901-1206 ,,南城市,大里仲間１１５５ , 南城市 大里仲間１１５５ 
ふさとデンタルクリニック,901-0611 ,,南城市,玉城富里８, 南城市 玉城富里８
南城歯科クリニック,901-0615  ,,南城市,玉城堀川７８８番地, 南城市 玉城堀川７８８番地
しんかい歯科,901-1415 ,,南城市,佐敷新開１－１１１ , 南城市 佐敷新開１－１１１ 
ふたば歯科医院,901-1415 ,,南城市,佐敷新開１－１４３ , 南城市 佐敷新開１－１４３ 
コマカ歯科クリニック,901-1511 ,,南城市,知念久手堅３２７－１, 南城市 知念久手堅３２７－１
みのり歯科　大里,901-1205 ,,南城市,大里字高平高宮城原９７番地２ , 南城市 大里字高平高宮城原９７番地２ 
ひまわり歯科医院,901-1303,,島尻郡与那原町,与那原１１０７ , 島尻郡与那原町 与那原１１０７ 
マリンタウン東浜総合歯科,901-1304 ,,島尻郡与那原町,東浜２２－４, 島尻郡与那原町 東浜２２－４
よなばる中央歯科,901-1303 ,,島尻郡与那原町,与那原７７上原ビル２Ｆ , 島尻郡与那原町 与那原７７上原ビル２Ｆ 
ｉデンタルクリニック,901-1304 ,,島尻郡与那原町,東浜８０－３ , 島尻郡与那原町 東浜８０－３ 
東浜アクア歯科,901-1304,,島尻郡与那原町,字東浜９９番３, 島尻郡与那原町 字東浜９９番３
池田歯科クリニック,901-1302 ,,島尻郡与那原町,上与那原４３５－２番地　１階, 島尻郡与那原町 上与那原４３５－２番地　１階
つかざん歯科,901-1117 ,,島尻郡南風原町,字津嘉山１５６７, 島尻郡南風原町 字津嘉山１５６７
高橋歯科医院,901-1111 ,,島尻郡南風原町,兼城５６３－１ , 島尻郡南風原町 兼城５６３－１ 
一日橋むらた歯科医院,901-1111,,島尻郡南風原町,兼城５１６－１, 島尻郡南風原町 兼城５１６－１
けん歯科クリニック,901-1117 ,,島尻郡南風原町,津嘉山１５９７－３, 島尻郡南風原町 津嘉山１５９７－３
みなみ歯科医院,901-1104 ,,島尻郡南風原町,宮平２４８－５, 島尻郡南風原町 宮平２４８－５
ムーミン歯科,901-1117,,島尻郡南風原町,津嘉山１７０９－３　フラッシュユキ１Ｆ, 島尻郡南風原町 津嘉山１７０９－３　フラッシュユキ１Ｆ
トムこども歯科クリニック,901-1111 ,,島尻郡南風原町,兼城７１０－１　１０３号 , 島尻郡南風原町 兼城７１０－１　１０３号 
よなみね歯科クリニック,901-1104 ,,島尻郡南風原町,宮平５９－２, 島尻郡南風原町 宮平５９－２
あっぷる歯科クリニック,901-1117,,島尻郡南風原町,津嘉山１４６７番地３, 島尻郡南風原町 津嘉山１４６７番地３
メディカルプラザ歯科,901-1103 ,,島尻郡南風原町,与那覇２８３　メディカルプラザはえばる３Ｆ , 島尻郡南風原町 与那覇２８３　メディカルプラザはえばる３Ｆ 
はえばる歯科医院,901-1116 ,,島尻郡南風原町,字照屋３６８サンキャッスル１０２号, 島尻郡南風原町 字照屋３６８サンキャッスル１０２号
まじきな歯科クリニック,901-1105,,島尻郡南風原町,新川２１５－３ , 島尻郡南風原町 新川２１５－３ 
オキナワ・デンタルオフィス,901-1117 ,,島尻郡南風原町,字津嘉山１３３９番地１, 島尻郡南風原町 字津嘉山１３３９番地１
つかやま歯科,901-1117,,島尻郡南風原町,字津嘉山１４０４番地２コーポＫＡＺＵ , 島尻郡南風原町 字津嘉山１４０４番地２コーポＫＡＺＵ 
みのる歯科,901-1117 ,,島尻郡南風原町,字津嘉山１３７１番地３, 島尻郡南風原町 字津嘉山１３７１番地３
上地歯科医院,901-0416,,島尻郡八重瀬町,宜次７０６－４, 島尻郡八重瀬町 宜次７０６－４
こちんだ歯科クリニック,901-0401 ,,島尻郡八重瀬町,東風平３９６－１　１０１号, 島尻郡八重瀬町 東風平３９６－１　１０１号
ナガシマ歯科医院,901-0512 ,,島尻郡八重瀬町,具志３４２－９, 島尻郡八重瀬町 具志３４２－９
なんぶ歯科医院,901-0401 ,,島尻郡八重瀬町,東風平１１番地, 島尻郡八重瀬町 東風平１１番地
ちゅら歯科,901-0405,,島尻郡八重瀬町,伊覇３０９番地, 島尻郡八重瀬町 伊覇３０９番地
やえせ歯科,901-0401 ,,島尻郡八重瀬町,字東風平921-1　コーポサンライズ１Ｆ, 島尻郡八重瀬町 字東風平921-1　コーポサンライズ１Ｆ
いちまる歯科口腔外科医院,901-0401 ,,島尻郡八重瀬町,字東風平４９３－６, 島尻郡八重瀬町 字東風平４９３－６
沖縄県口腔保健医療センター,901-1105,,島尻郡南風原町,字新川２１８番地１, 島尻郡南風原町 字新川２１８番地１
南部徳州会病院（歯科）,901-0493,,島尻郡八重瀬町,字外間１７１－１, 島尻郡八重瀬町 字外間１７１－１
新垣薬局,901-0361,,糸満市,糸満989-28, 糸満市 糸満989-28
あはごん薬局,901-0301,,糸満市,阿波根1552-5, 糸満市 阿波根1552-5
南山薬局,901-0362,,糸満市,字真栄里908, 糸満市 字真栄里908
レモン薬局,901-0302,,糸満市,字潮平706-7, 糸満市 字潮平706-7
おれんじ薬局,901-0361,,糸満市,糸満1269, 糸満市 糸満1269
有限会社　晴天堂薬局,901-0305,,糸満市,字西崎6丁目16-6, 糸満市 字西崎6丁目16-6
ゆい薬局真栄里店,901-0362,,糸満市,字真栄里2024番地の3, 糸満市 字真栄里2024番地の3
たんぽぽ薬局,901-0302,,糸満市,字潮平708番地19, 糸満市 字潮平708番地19
なかむら薬局,901-0305,,糸満市,字西崎2-7-1, 糸満市 字西崎2-7-1
ゆい潮平薬局,901-0302,,糸満市,字潮平767番地19, 糸満市 字潮平767番地19
薬志堂薬局　真栄里店,901-0362,,糸満市,字真栄里2036番地1, 糸満市 字真栄里2036番地1
ゆい西崎薬局,901-0305,,糸満市,字西崎2丁目26番11号, 糸満市 字西崎2丁目26番11号
なごみ薬局,901-0364,,糸満市,潮崎町2-1-13, 糸満市 潮崎町2-1-13
ほがらか薬局,901-0301,,糸満市,阿波根873番地-1, 糸満市 阿波根873番地-1
りんご調剤薬局　糸満店,901-0334,,糸満市,字大度515-1, 糸満市 字大度515-1
万年堂薬局　平良店,901-0212,,豊見城市,平良103-3, 豊見城市 平良103-3
豊見城薬局,901-0244,,豊見城市,宜保266-21, 豊見城市 宜保266-21
とみー薬局,901-0241,,豊見城市,豊見城445-1, 豊見城市 豊見城445-1
サンアイ薬局,901-0244,,豊見城市,宜保310-7, 豊見城市 宜保310-7
ミッキー薬局,901-0244,,豊見城市,宜保152番地　ｺｰﾎﾟﾊﾟｰｸｻｲﾄﾞ1-A, 豊見城市 宜保152番地　ｺｰﾎﾟﾊﾟｰｸｻｲﾄﾞ1-A
しんせい薬局　豊見城店,901-0244,,豊見城市,宜保306-1, 豊見城市 宜保306-1
あいらんど薬局　豊見城中央病院前店,901-0244,,豊見城市,宜保266-21番地の16, 豊見城市 宜保266-21番地の16
会営薬局　とよみ,901-0244,,豊見城市,宜保271番地1, 豊見城市 宜保271番地1
ミント薬局　豊見城店,901-0241,,豊見城市,豊見城549番地8, 豊見城市 豊見城549番地8
ハープ薬局　とみしろ店,901-0243,,豊見城市,上田1-1, 豊見城市 上田1-1
いちご薬局　真玉橋店,901-0201,,豊見城市,字真玉橋285-11F, 豊見城市 字真玉橋285-11F
そうごう薬局　豊見城店,901-0213,,豊見城市,高嶺395-103, 豊見城市 高嶺395-103
瀬底薬局,901-1414,,南城市,佐敷津波古157, 南城市 佐敷津波古157
りんりん堂薬局,901-1208,,南城市,大里字平良2568-2, 南城市 大里字平良2568-2
すこやか薬局　大里店,901-1204,,南城市,大里稲嶺2025番地2, 南城市 大里稲嶺2025番地2
ハイビスカス薬局,901-0615,,南城市,玉城堀川697-1, 南城市 玉城堀川697-1
はくあい薬局,901-1414,,南城市,佐敷津波古西原2310-2, 南城市 佐敷津波古西原2310-2
JR九州ドラッグイレブン薬局　　佐敷店,901-1414,,南城市,佐敷津波古1226番地1, 南城市 佐敷津波古1226番地1
くはら薬局,901-1505,,南城市,知念字久原693番地, 南城市 知念字久原693番地
つつじ薬局ヨナ原,901-1303,,島尻郡与那原町,与那原2918, 島尻郡与那原町 与那原2918
いじゅの木薬局,901-1303,,島尻郡与那原町,与那原1118, 島尻郡与那原町 与那原1118
いちご薬局　,901-1302,,島尻郡与那原町,上与那原340-2, 島尻郡与那原町 上与那原340-2
ヴァインドラッグあがり浜薬局,901-1304,,島尻郡与那原町,東浜681番地1-2, 島尻郡与那原町 東浜681番地1-2
みのり薬局　,901-1304,,島尻郡与那原町,東浜90-4, 島尻郡与那原町 東浜90-4
さかき薬局,901-1117,,島尻郡南風原町,字津嘉山1593, 島尻郡南風原町 字津嘉山1593
あおぞら薬局,901-1103,,島尻郡南風原町,字与那覇236-1, 島尻郡南風原町 字与那覇236-1
寿薬局,901-1104,,島尻郡南風原町,字宮平498, 島尻郡南風原町 字宮平498
クローバー薬局,901-1105,,島尻郡南風原町,字新川423-7, 島尻郡南風原町 字新川423-7
すこやか薬局　新川店,901-1105,,島尻郡南風原町,字新川101-3番地, 島尻郡南風原町 字新川101-3番地
サン薬局,901-1105,,島尻郡南風原町,字新川67-10, 島尻郡南風原町 字新川67-10
クララ薬局,901-1114,,島尻郡南風原町,字神里434番地の1, 島尻郡南風原町 字神里434番地の1
会営薬局　医療センター前,901-1105,,島尻郡南風原町,字新川218番地10, 島尻郡南風原町 字新川218番地10
とくりん薬局,901-1103,,島尻郡南風原町,字与那覇283番地, 島尻郡南風原町 字与那覇283番地
ハープ薬局　つかざん点,901-1117,,島尻郡南風原町,字津嘉山1490番地　メディカルプラザつかざん１Ｆ, 島尻郡南風原町 字津嘉山1490番地　メディカルプラザつかざん１Ｆ
ひだまり薬局,901-1105,,島尻郡南風原町,字新川214-2, 島尻郡南風原町 字新川214-2
新生堂薬局　琉球つかざん店,901-1117,,島尻郡南風原町,字津嘉山1315-1, 島尻郡南風原町 字津嘉山1315-1
あにも調剤薬局,901-0405,,島尻郡八重瀬町,字伊覇65-24, 島尻郡八重瀬町 字伊覇65-24
りんご調剤薬局　東風平店,901-0401,,島尻郡八重瀬町,字東風平1209-16, 島尻郡八重瀬町 字東風平1209-16
訪問看護ステーション　ひまわり,901-0313,,糸満市,字賀数406番地の1, 糸満市 字賀数406番地の1
訪問看護ステーション　テンタス,901-0361,,糸満市,糸満989番地の74, 糸満市 糸満989番地の74
友愛会訪問看護ステーション,901-0362,,糸満市,真栄里870番地, 糸満市 真栄里870番地
訪問看護ステーション　おもととよみの杜,901-0215,,豊見城市,渡嘉敷150番地, 豊見城市 渡嘉敷150番地
エクスプロア訪問看護ステーション,901-0241,,豊見城市,豊見城975-10, 豊見城市 豊見城975-10
ウィル訪問看護ステーション豊見城,901-0205,,豊見城市,根差部690-2, 豊見城市 根差部690-2
沖縄メディカル訪問看護ステーション,901-1415,,南城市,佐敷字新開１番地344, 南城市 佐敷字新開１番地344
信山会訪問看護ステーション南城つはこ,901-1414,,南城市,佐敷津波古432番地　, 南城市 佐敷津波古432番地　
訪問看護ステーション　ひなた,901-0608,,南城市,玉城親慶原153番地２, 南城市 玉城親慶原153番地２
訪問看護ステーション　ぶどうの木,901-1201,,南城市,大里字嶺井515番地4S-1, 南城市 大里字嶺井515番地4S-1
訪問看護ステーション　はえばる,901-1105,,島尻郡南風原町,新川272番地17, 島尻郡南風原町 新川272番地17
ふれあい老人訪問看護ステーション,901-1111,,島尻郡南風原町,字兼城642番地の１　, 島尻郡南風原町 字兼城642番地の１　
ふたば 訪問看護ステーション,901-1111,,島尻郡南風原町,字兼城274番地の1, 島尻郡南風原町 字兼城274番地の1
訪問看護ステーション　はっぴー,901-1116,,島尻郡南風原町,照屋299番地１, 島尻郡南風原町 照屋299番地１
訪問看護ステーション　いこい,901-0417,,島尻郡八重瀬町,外間80番地　, 島尻郡八重瀬町 外間80番地　
訪問看護ステーションゆいゆい,901-0411,,島尻郡八重瀬町,友寄901番地１　コーポラス大城102号, 島尻郡八重瀬町 友寄901番地１　コーポラス大城102号
南部病院　訪問リハビリテーション,901-0362,,糸満市,真栄里870番地, 糸満市 真栄里870番地
とよみ生協病院訪問リハビリテーション,901-0201,,豊見城市,字真玉橋５９３番地の１, 豊見城市 字真玉橋５９３番地の１
豊見城中央病院　訪問リハビリテーション,901-0243,,豊見城市,字上田25番地, 豊見城市 字上田25番地
医療法人おもと会大浜第二病院,901-0215,,豊見城市,字渡嘉敷150番地, 豊見城市 字渡嘉敷150番地
沖縄第一病院　訪問リハビリテーション事業所,901-1111,,島尻郡南風原町,字兼城642-1, 島尻郡南風原町 字兼城642-1
南部徳洲会病院　訪問リハビリテーション,901-0493,,島尻郡八重瀬町,字外間171番地1, 島尻郡八重瀬町 字外間171番地1
ホームヘルパーステーション友愛,901-0362,,糸満市,真栄里870, 糸満市 真栄里870
いとまんシャトー訪問介護センター,901-0325,,糸満市,大里927-2, 糸満市 大里927-2
ヘルパーステーション西崎,901-0306,,糸満市,西崎町三丁目379番地　1F, 糸満市 西崎町三丁目379番地　1F
ヘルパーステーションかがやき,901-0315,,糸満市,照屋129番地, 糸満市 照屋129番地
訪問介護事業所　珊瑚,901-0364,,糸満市,潮崎町4丁目8-13, 糸満市 潮崎町4丁目8-13
ヘルパーステーションみなみ,901-0361,,糸満市,糸満1796-2, 糸満市 糸満1796-2
ヘルパーステーション里のガーデン,901-0325,,糸満市,字大里623番地７, 糸満市 字大里623番地７
訪問介護ステーション　おもととよみの杜,901-0215,,豊見城市,渡嘉敷150番地, 豊見城市 渡嘉敷150番地
桜山荘介護支援ｾﾝﾀｰ豊見城,901-0212,,豊見城市,字平良188-23, 豊見城市 字平良188-23
ヘルパーステーションみのり,901-0241,,豊見城市,豊見城600-1, 豊見城市 豊見城600-1
沖縄偕生会ホームヘルパーステーション,901-0244,,豊見城市,宜保148番地　仲元マンション101号室, 豊見城市 宜保148番地　仲元マンション101号室
ヘルパーステーションＨＯＰＥ,901-0243,,豊見城市,上田315番地　１Ｆ, 豊見城市 上田315番地　１Ｆ
ケアステーション　愛あい,901-0241,,豊見城市,豊見城20番地　コーポおおた101号室, 豊見城市 豊見城20番地　コーポおおた101号室
ヘルパーステーションちばる,901-0203,,豊見城市,長堂180-29, 豊見城市 長堂180-29
小谷園指定訪問介護センター,901-1413,,南城市,佐敷小谷238番地の１, 南城市 佐敷小谷238番地の１
訪問介護事業所　栞,901-0606,,南城市,玉城糸数672-1, 南城市 玉城糸数672-1
南城市社協ヘルパーステーション,901-1206,,南城市,大里仲間918, 南城市 大里仲間918
訪問介護 百十,901-1414,,南城市,佐敷字津波古81番地, 南城市 佐敷字津波古81番地
訪問介護　ようき,901-1414,,南城市,佐敷津波古1354番地1, 南城市 佐敷津波古1354番地1
しらゆりの園訪問介護ステーション,901-1207,,南城市,大里古堅820-1, 南城市 大里古堅820-1
訪問介護ステーション　うりずん,901-1301,,島尻郡与那原町,板良敷1281番地１, 島尻郡与那原町 板良敷1281番地１
ファミリー訪問介護事業所,901-1303,,島尻郡与那原町,字与那原3585番地, 島尻郡与那原町 字与那原3585番地
ケアネット　ひかり,901-1303,,島尻郡与那原町,与那原1145番地2, 島尻郡与那原町 与那原1145番地2
琉球ライフ　ヘルパーステーション,901-1303,,島尻郡与那原町,与那原70番地　峰アパート102号, 島尻郡与那原町 与那原70番地　峰アパート102号
与那原日の出園ホームヘルパーステーション,901-1303,,島尻郡与那原町,与那原3782番地の1, 島尻郡与那原町 与那原3782番地の1
ヘルパーステーションひまわり,901-1304,,島尻郡与那原町,字東浜78番地5　ディアフラッツ東浜105号, 島尻郡与那原町 字東浜78番地5　ディアフラッツ東浜105号
ケアセンター　ちゅらら,901-1303,,島尻郡与那原町,字与那原3861, 島尻郡与那原町 字与那原3861
沖縄第一病院　訪問介護サービス,901-1111,,島尻郡南風原町,兼城642-1, 島尻郡南風原町 兼城642-1
南風原町社協指定訪問介護事業所,901-1104,,島尻郡南風原町,宮平697番地10　　南風原町社会福祉センター, 島尻郡南風原町 宮平697番地10　　南風原町社会福祉センター
訪問介護はっぴー,901-1104,,島尻郡南風原町,字照屋299-1　桃テラス102号, 島尻郡南風原町 字照屋299-1　桃テラス102号
ケアセンター　野の花,901-1111,,島尻郡南風原町,兼城263番地の23, 島尻郡南風原町 兼城263番地の23
ヘルパーステーション かなさ,901-1116,,島尻郡南風原町,照屋253番地の6東宝ビル19　102号, 島尻郡南風原町 照屋253番地の6東宝ビル19　102号
ヘルパーステーション　ひかり,901-1117,,島尻郡南風原町,津嘉山1613番地の5与座アパート102号, 島尻郡南風原町 津嘉山1613番地の5与座アパート102号
訪問介護事業所ことぶき,901-1103,,島尻郡南風原町,与那覇390番地6､1階, 島尻郡南風原町 与那覇390番地6､1階
ヘルパーステーション　いこい,901-0417,,島尻郡八重瀬町,外間80, 島尻郡八重瀬町 外間80
ときわ苑訪問介護ステーション,901-0414,,島尻郡八重瀬町,当銘378-1, 島尻郡八重瀬町 当銘378-1
じーなの会訪問介護ステーション,901-0416,,島尻郡八重瀬町,字宜次664番地の1, 島尻郡八重瀬町 字宜次664番地の1
転生園指定訪問介護事業所,901-0514,,島尻郡八重瀬町,字安里670, 島尻郡八重瀬町 字安里670
訪問介護サービス　あしみじ,901-0512,,島尻郡八重瀬町,字具志1099-1, 島尻郡八重瀬町 字具志1099-1
訪問介護　寿々,901-0406,,島尻郡八重瀬町,屋宜原110番地の3　アイニティ（2－Ｄ号室）, 島尻郡八重瀬町 屋宜原110番地の3　アイニティ（2－Ｄ号室）
イリーゼ八重瀬訪問介護センター,901-0501,,島尻郡八重瀬町,長毛159-1, 島尻郡八重瀬町 長毛159-1
ヘルパーステーション新緑の里,901-0401,,島尻郡八重瀬町,東風平192番地８, 島尻郡八重瀬町 東風平192番地８
指定居宅介護支援事業所白寿園,901-0311,,糸満市,字武富175番地の1, 糸満市 字武富175番地の1
居宅支援センター勝連,901-0331,,糸満市,字真栄平1026番地, 糸満市 字真栄平1026番地
ひめゆりクリニック指定居宅介護支援事業所,901-0344,,糸満市,伊原107番地の１, 糸満市 伊原107番地の１
特別養護老人ﾎｰﾑ沖縄偕生園,901-0341,,糸満市,字小波蔵321番地, 糸満市 字小波蔵321番地
居宅介護支援センター寿,901-0362,,糸満市,真栄里323番地, 糸満市 真栄里323番地
居宅介護支援事業所あかり,901-0361,,糸満市,糸満１５０５番地の３, 糸満市 糸満１５０５番地の３
友愛会ケアプランセンター南部,901-0362,,糸満市,真栄里８７０番地, 糸満市 真栄里８７０番地
居宅介護支援西崎,901-0306,,糸満市,西崎町三丁目379番地　1F, 糸満市 西崎町三丁目379番地　1F
居宅介護支援　ピンク,901-0302,,糸満市,字潮平６３２番地の３, 糸満市 字潮平６３２番地の３
居宅介護支援センター　てぃんがーら,901-0315,,糸満市,照屋807番地コーポカトレア1階, 糸満市 照屋807番地コーポカトレア1階
いとまんシャトー指定居宅介護支援センター,901-0325,,糸満市,大里927番地の２, 糸満市 大里927番地の２
まつの木ケアプランセンター,901-0303,,糸満市,兼城618番地, 糸満市 兼城618番地
居宅介護支援事業所　珊瑚,901-0364,,糸満市,潮崎町四丁目8-13, 糸満市 潮崎町四丁目8-13
ケアプランセンター　いずみ,901-0315,,糸満市,照屋1258番地１, 糸満市 照屋1258番地１
居宅介護支援事業所みなみ,901-0361,,糸満市,糸満1796番地の２, 糸満市 糸満1796番地の２
居宅介護支援事業所いちまん,901-0362,,糸満市,真栄里2045番地２, 糸満市 真栄里2045番地２
うの花　居宅介護支援事業所,901-0361,,糸満市,糸満989-11, 糸満市 糸満989-11
沖縄医療生活協同組合　とよみ生協病院指定居宅介護支援事業所,901-0201,,豊見城市,字真玉橋５９３番地の1, 豊見城市 字真玉橋５９３番地の1
ケアプランサービス養生の里,901-0231,,豊見城市,字我那覇291番地の25B-1, 豊見城市 字我那覇291番地の25B-1
平成苑居宅介護支援事業所,901-0235,,豊見城市,字名嘉地217番地の2, 豊見城市 字名嘉地217番地の2
居宅介護支援事業所おもととよみの杜,901-0215,,豊見城市,字渡嘉敷150番地, 豊見城市 字渡嘉敷150番地
良長園指定居宅介護支援事業所,901-0204,,豊見城市,字金良88番地, 豊見城市 字金良88番地
合資会社ひかり指定居宅介護支援事業所,901-0212,,豊見城市,字平良145番地の3102号, 豊見城市 字平良145番地の3102号
桜山荘介護支援専門員センター,901-0212,,豊見城市,平良188番地23, 豊見城市 平良188番地23
居宅介護支援サービス　かがやき,901-0213,,豊見城市,高嶺３２２番地, 豊見城市 高嶺３２２番地
わかば居宅介護支援事業所,901-0241,,豊見城市,豊見城６００番地１, 豊見城市 豊見城６００番地１
居宅介護支援事業所とよさき,901-0223,,豊見城市,字翁長８６９番地　１階, 豊見城市 字翁長８６９番地　１階
豊見城偕生園ケアプランセンター,901-0244,,豊見城市,宜保148番地　仲元ﾏﾝｼｮﾝ101号室, 豊見城市 宜保148番地　仲元ﾏﾝｼｮﾝ101号室
居宅介護支援事業所　華々,901-0242,,豊見城市,高安600-4番地ヒルコート101号室, 豊見城市 高安600-4番地ヒルコート101号室
ケアプランセンターゆたか,901-0213,,豊見城市,字高嶺326番地1, 豊見城市 字高嶺326番地1
居宅介護支援事業所　ねね,901-0203,,豊見城市,長堂402番地2サンガーデン101号, 豊見城市 長堂402番地2サンガーデン101号
居宅介護支援事業所　まごころ,901-0242,,豊見城市,高安385番地　大城アパート108号, 豊見城市 高安385番地　大城アパート108号
居宅介護支援事業所　うえた,901-0243,,豊見城市,上田１番地１７, 豊見城市 上田１番地１７
指定居宅介護支援事業所　ファミリーサポート,901-0211,,豊見城市,饒波1118番地, 豊見城市 饒波1118番地
友愛会ケアプランセンター　豊見城,901-0244,,豊見城市,宜保266番地４寛マンション101号, 豊見城市 宜保266番地４寛マンション101号
居宅介護支援事業所　みんなの介護相談所,901-0241,,豊見城市,豊見城64, 豊見城市 豊見城64
介護保険相談所リリーフ,901-0241,,豊見城市,豊見城437番地11.１ビル2-Ａ号室, 豊見城市 豊見城437番地11.１ビル2-Ａ号室
みなみ野居宅介護支援事務所,901-1208,,南城市,大里平良2584番地の２　２F, 南城市 大里平良2584番地の２　２F
おおざと信和苑指定居宅介護支援事業所,901-1204,,南城市,大里字稲嶺1014番地, 南城市 大里字稲嶺1014番地
居宅介護支援朝日,901-0607,,南城市,玉城字喜良原526番地, 南城市 玉城字喜良原526番地
小谷園指定居宅介護支援センター,901-1413,,南城市,佐敷字小谷238番地の1, 南城市 佐敷字小谷238番地の1
東雲の丘指定居宅介護支援事業所,901-1203,,南城市,大里字大城1392番地, 南城市 大里字大城1392番地
居宅介護支援事業所　彩,901-0606,,南城市,玉城糸数６７２－１, 南城市 玉城糸数６７２－１
南城市社協ケアプランセンター,901-1206,,南城市,大里仲間９１８番地, 南城市 大里仲間９１８番地
指定居宅介護支援事業所　ケアプラン青の空,901-0612,,南城市,玉城當山8番地1, 南城市 玉城當山8番地1
こころ居宅介護支援事業所,901-0611,,南城市,玉城字富里173-2(1Ｆ), 南城市 玉城字富里173-2(1Ｆ)
沖縄メディカル居宅介護支援事業所,901-1415,,南城市,佐敷新開1番地344, 南城市 佐敷新開1番地344
花あかり　居宅介護支援事業所,901-0617,,南城市,玉城愛地361番地, 南城市 玉城愛地361番地
居宅介護支援　ようき,901-1414,,南城市,佐敷津波古1354番地1, 南城市 佐敷津波古1354番地1
えがおケアセンター,901-1204,,南城市,大里稲嶺１３１７番１, 南城市 大里稲嶺１３１７番１
居宅介護支援事業所　里のうさぎ,901-1204,,南城市,大里稲嶺2101-83コーポ呉屋103, 南城市 大里稲嶺2101-83コーポ呉屋103
しらゆりの園指定居宅介護支援事業所,901-1207,,南城市,大里古堅820番地1, 南城市 大里古堅820番地1
介護支援センター　あまね,901-0619,,南城市,玉城屋嘉部455番１, 南城市 玉城屋嘉部455番１
ケアサポートセンターすまいる南城,901-1407,,南城市,字つきしろ１６７８番地２２５, 南城市 字つきしろ１６７８番地２２５
ケアプランセンターほっ会期,901-1407,,南城市,つきしろ1232番地137, 南城市 つきしろ1232番地137
居宅介護支援センターうりずん,901-1301,,島尻郡与那原町,板良敷1281番地の１, 島尻郡与那原町 板良敷1281番地の１
有限会社ファミリー看護婦家政婦紹介所,901-1303,,島尻郡与那原町,与那原3585番地, 島尻郡与那原町 与那原3585番地
居宅介護支援サービス　ふくよか,901-1303,,島尻郡与那原町,与那原431番地, 島尻郡与那原町 与那原431番地
与那原在宅ケアセンター居宅介護支援事業所,901-1303,,島尻郡与那原町,与那原１７９２番地１, 島尻郡与那原町 与那原１７９２番地１
ケアプランひかり,901-1303,,島尻郡与那原町,与那原１１４５番地２, 島尻郡与那原町 与那原１１４５番地２
与那原日の出園指定居宅介護支援事業所,901-1303,,島尻郡与那原町,字与那原3782番地の1, 島尻郡与那原町 字与那原3782番地の1
居宅介護支援事業所 さらばんじぃ,901-1303,,島尻郡与那原町,字与那原3687番2, 島尻郡与那原町 字与那原3687番2
ほがらか居宅介護支援事業所,901-1303,,島尻郡与那原町,与那原1122番地　, 島尻郡与那原町 与那原1122番地　
ケアプランセンター　うみちか,901-1304,,島尻郡与那原町,東浜17番地の16, 島尻郡与那原町 東浜17番地の16
沖縄第一病院指定居宅介護支援事業所,901-1111,,島尻郡南風原町,兼城642番地の１, 島尻郡南風原町 兼城642番地の１
居宅介護支援事業所はえばる,901-1105,,島尻郡南風原町,新川272番地17, 島尻郡南風原町 新川272番地17
ふたば　ケアプランセンター,901-1111,,島尻郡南風原町,字兼城274番地の1, 島尻郡南風原町 字兼城274番地の1
嬉の里指定居宅介護支援事業所,901-1105,,島尻郡南風原町,字新川538番地, 島尻郡南風原町 字新川538番地
あい　介護センター,901-1117,,島尻郡南風原町,津嘉山１１１４－１, 島尻郡南風原町 津嘉山１１１４－１
居宅介護支援はっぴー,901-1104,,島尻郡南風原町,字照屋299番地1　桃テラス102号室, 島尻郡南風原町 字照屋299番地1　桃テラス102号室
ケアセンター　野の花,901-1111,,島尻郡南風原町,兼城263番地の23, 島尻郡南風原町 兼城263番地の23
居宅介護支援ｾﾝﾀｰ　「とき」,901-1104,,島尻郡南風原町,宮平４２６番地１９, 島尻郡南風原町 宮平４２６番地１９
はえばる日の出園居宅介護支援事業所,901-1103,,島尻郡南風原町,字与那覇４４８番地の１, 島尻郡南風原町 字与那覇４４８番地の１
居宅介護支援センター　ベストかねぐすく,901-1111,,島尻郡南風原町,兼城２６５－１０, 島尻郡南風原町 兼城２６５－１０
居宅支援事業所　縁,901-1111,,島尻郡南風原町,兼城132番地ｱﾊﾟｰﾄﾒﾝﾄあかみね103, 島尻郡南風原町 兼城132番地ｱﾊﾟｰﾄﾒﾝﾄあかみね103
あいけい 居宅介護支援事業所,901-1111,,島尻郡南風原町,字兼城214番地の2, 島尻郡南風原町 字兼城214番地の2
ケアプランあい,901-1116,,島尻郡南風原町,照屋253番地の６東宝19　１０３号室, 島尻郡南風原町 照屋253番地の６東宝19　１０３号室
南部徳洲会病院　指定居宅介護支援事業所,901-0493,,島尻郡八重瀬町,字外間８０番地　（１階）, 島尻郡八重瀬町 字外間８０番地　（１階）
指定居宅介護支援事業所東風の里,901-0411,,島尻郡八重瀬町,字友寄891番地の1, 島尻郡八重瀬町 字友寄891番地の1
指定居宅介護支援事業所　東風平第一,901-0411,,島尻郡八重瀬町,友寄42, 島尻郡八重瀬町 友寄42
ときわ苑指定居宅介護支援センター,901-0414,,島尻郡八重瀬町,字当銘378番の1, 島尻郡八重瀬町 字当銘378番の1
転生園指定居宅介護支援事業所,901-0514,,島尻郡八重瀬町,字安里670番地, 島尻郡八重瀬町 字安里670番地
居宅介護支援事業所 ぐしちゃん,901-0512,,島尻郡八重瀬町,字具志1241番地1, 島尻郡八重瀬町 字具志1241番地1
有限会社　ちゅら島介護支援ｻｰﾋﾞｽセンター,901-0401,,島尻郡八重瀬町,東風平1348番地の1, 島尻郡八重瀬町 東風平1348番地の1
イリーゼ八重瀬居宅介護支援事業所,901-0501,,島尻郡八重瀬町,長毛159-1, 島尻郡八重瀬町 長毛159-1
糸満市地域包括支援センター,901-0364,,糸満市,潮崎町１丁目１番地, 糸満市 潮崎町１丁目１番地
豊見城市地域包括支援センター,901-0292,,豊見城市,翁長８５４番地１１階, 豊見城市 翁長８５４番地１１階
南城市地域包括支援センター,901-1206,,南城市,大里仲間８０７番地, 南城市 大里仲間８０７番地
与那原町地域包括支援センター,901-1392,,島尻郡与那原町,上与那原１６番地, 島尻郡与那原町 上与那原１６番地
南風原町地域包括支援センター,901-1111,,島尻郡南風原町,兼城６８６, 島尻郡南風原町 兼城６８６
八重瀬町地域包括支援センター,901-0401,,島尻郡八重瀬町,東風平1188番地, 島尻郡八重瀬町 東風平1188番地
ひめゆりデイサービスセンター,901-0344,,糸満市,字伊原107番地の１, 糸満市 字伊原107番地の１
沖縄偕生園デイサービスセンター,901-0341,,糸満市,字小波蔵321番地, 糸満市 字小波蔵321番地
いとまんシャトー指定通所介護センター,901-0325,,糸満市,字大里927番地の２, 糸満市 字大里927番地の２
老人デイサービスセンター　ソフィア,901-0301,,糸満市,字阿波根1029番地10, 糸満市 字阿波根1029番地10
デイサービス　あいまーる,901-0302,,糸満市,字潮平797番地の6　2階, 糸満市 字潮平797番地の6　2階
デイサービスステーション　あい愛・ぴ～す館,901-0315,,糸満市,照屋808-1番地, 糸満市 照屋808-1番地
デイサービスセンター あいさぽーと,901-0305,,糸満市,字西崎三丁目21, 糸満市 字西崎三丁目21
デイサービスセンター西崎,901-0306,,糸満市,西崎町三丁目379番地, 糸満市 西崎町三丁目379番地
デイサービスステーション　てぃんがーら,901-0315,,糸満市,字照屋1203番地の1, 糸満市 字照屋1203番地の1
デイサービス　南部整形外科,901-0303,,糸満市,字兼城618番地, 糸満市 字兼城618番地
デイサービスセンターさつきの城,901-0334,,糸満市,大度255番地の62, 糸満市 大度255番地の62
デイサービスいちまん,901-0361,,糸満市,字糸満1413番地2, 糸満市 字糸満1413番地2
デイサービスセンターありがとう,901-0361,,糸満市,字糸満603-1　浜元ビル103, 糸満市 字糸満603-1　浜元ビル103
デイサービスいさら,901-0344,,糸満市,字伊原574番地３, 糸満市 字伊原574番地３
デイサービス糸満てぃんさぐの家,901-0315,,糸満市,字照屋1258番地1, 糸満市 字照屋1258番地1
デイサービスセンターみなみ,901-0361,,糸満市,字糸満1796番地2, 糸満市 字糸満1796番地2
デイサービス めぇざと,901-0362,,糸満市,字真栄里2045番地2, 糸満市 字真栄里2045番地2
かねぐすくデイサービスセンター,901-0303,,糸満市,兼城871番地１, 糸満市 兼城871番地１
デイサービスとみしろ,901-0235,,豊見城市,字名嘉地112番地の1, 豊見城市 字名嘉地112番地の1
桜山荘通所介護事業所,901-0213,,豊見城市,高嶺111番地, 豊見城市 高嶺111番地
デイサービスセンター　とよみの杜,901-0215,,豊見城市,字渡嘉敷150番地, 豊見城市 字渡嘉敷150番地
良長園指定通所介護事業所,901-0204,,豊見城市,金良88番地, 豊見城市 金良88番地
通所介護事業所　ゆいホーム空,901-0212,,豊見城市,平良116-1番地　ハイム大城101号, 豊見城市 平良116-1番地　ハイム大城101号
ハートフルケア　デイサービス,901-0203,,豊見城市,長堂146番地, 豊見城市 長堂146番地
ﾃﾞｲｻｰﾋﾞｽｾﾝﾀｰ　養生の里,901-0231,,豊見城市,我那覇291番地25　2階, 豊見城市 我那覇291番地25　2階
デイサービス　ふたば,901-0241,,豊見城市,豊見城600番地１, 豊見城市 豊見城600番地１
デイサービスセンターとよさき,901-0223,,豊見城市,字翁長869番地　, 豊見城市 字翁長869番地　
豊見城偕生園総合ケアセンター,901-0244,,豊見城市,字宜保148番地仲元ﾏﾝｼｮﾝ101号室, 豊見城市 字宜保148番地仲元ﾏﾝｼｮﾝ101号室
デイサービスセンター　海凪,901-0225,,豊見城市,字豊崎1番地の1184, 豊見城市 字豊崎1番地の1184
デイサービスかがやき,901-0213,,豊見城市,字高嶺323番地, 豊見城市 字高嶺323番地
デイサービスセンター 太陽と海,901-0231,,豊見城市,字我那覇200-4番地, 豊見城市 字我那覇200-4番地
デイサービスセンター 華々,901-0213,,豊見城市,字高嶺554番1, 豊見城市 字高嶺554番1
デイサービス ねさぶ,901-0205,,豊見城市,字根差部588番地3, 豊見城市 字根差部588番地3
通所介護 デイサービス ゆうらく,901-0241,,豊見城市,豊見城1007番地の24, 豊見城市 豊見城1007番地の24
デイサービス　笑い福い,901-0213,,豊見城市,高嶺326番地１, 豊見城市 高嶺326番地１
デイサービスうえた,901-0243,,豊見城市,字上田１番地１７, 豊見城市 字上田１番地１７
デイサービスセンターうらら,901-0201,,豊見城市,真玉橋36番地, 豊見城市 真玉橋36番地
デイサービスゆず,901-0235,,豊見城市,字名嘉地283番地, 豊見城市 字名嘉地283番地
指定通所介護ファミリーサポート,901-0211,,豊見城市,饒波1118番地, 豊見城市 饒波1118番地
通所介護事業所　みんなの倶楽部,901-0241,,豊見城市,豊見城64, 豊見城市 豊見城64
デイサービスセンターよね,901-0224,,豊見城市,字与根323番地1階, 豊見城市 字与根323番地1階
デイサービス　クルチ,901-0223,,豊見城市,翁長87番地, 豊見城市 翁長87番地
デイサービス華々２号館,901-0242,,豊見城市,字高安882番地12, 豊見城市 字高安882番地12
老人デイサービスセンター朝日,901-0607,,南城市,玉城喜良原526, 南城市 玉城喜良原526
小谷園デイサービスセンター,901-1413,,南城市,佐敷小谷238番地の１, 南城市 佐敷小谷238番地の１
東雲の丘指定通所介護事業所,901-1203,,南城市,大里大城1392番地, 南城市 大里大城1392番地
南城市社協知念デイサービスセンターゆいゆい,901-1511,,南城市,知念久手堅453, 南城市 知念久手堅453
南城市社協大里いきいきデイサービスセンター,901-1206,,南城市,大里仲間918, 南城市 大里仲間918
ﾃﾞｲｻｰﾋﾞｽ　一番座,901-1406,,南城市,佐敷屋比久65番地, 南城市 佐敷屋比久65番地
デイサービス　はいさい,901-1414,,南城市,佐敷字津波古1354の1, 南城市 佐敷字津波古1354の1
あいけい大里デイサービス,901-1204,,南城市,大里字稲嶺1995番地の1-2階, 南城市 大里字稲嶺1995番地の1-2階
沖縄メディカルデイサービスセンター,901-1415,,南城市,佐敷新開1番地344　沖縄ﾒﾃﾞｨｶﾙ福祉総合ｾﾝﾀｰ1階, 南城市 佐敷新開1番地344　沖縄ﾒﾃﾞｨｶﾙ福祉総合ｾﾝﾀｰ1階
デイサービス陽だまりの丘,901-0612,,南城市,玉城當山8-1, 南城市 玉城當山8-1
えがおデイサービス,901-1204,,南城市,大里稲嶺1317番１, 南城市 大里稲嶺1317番１
デイサービスセンターオリーブ,901-1414,,南城市,佐敷津波古1755番地, 南城市 佐敷津波古1755番地
しらゆりの園デイサービスおおざと,901-1207,,南城市,大里字古堅820-1, 南城市 大里字古堅820-1
デイサービスセンター　かな杜,901-1403,,南城市,佐敷字佐敷1204－1, 南城市 佐敷字佐敷1204－1
デイサービスなんじょう苑,901-1203,,南城市,大里大城2005-1, 南城市 大里大城2005-1
しらゆりの園デイサービスちねん,901-1511,,南城市,知念字久手堅275-3, 南城市 知念字久手堅275-3
デイサービスにふぇーでーびる,901-1412,,南城市,佐敷字新里518番地, 南城市 佐敷字新里518番地
通所介護　うりずん,901-1301,,島尻郡与那原町,板良敷1281番地の１, 島尻郡与那原町 板良敷1281番地の１
与那原日の出園デイサービスセンター,901-1303,,島尻郡与那原町,与那原3782番地の１, 島尻郡与那原町 与那原3782番地の１
通所介護サービス　ふくよか,901-1303,,島尻郡与那原町,字字与那原431番地, 島尻郡与那原町 字字与那原431番地
デイサービスセンター東浜,901-1304,,島尻郡与那原町,東浜22番地5, 島尻郡与那原町 東浜22番地5
デイサービスセンターほがらか,901-1303,,島尻郡与那原町,与那原1122番地ほがらか苑　与原１階, 島尻郡与那原町 与那原1122番地ほがらか苑　与原１階
与那原在宅ケアセンター　デイサービスがじゅまるの花,901-1303,,島尻郡与那原町,与那原1792番地１, 島尻郡与那原町 与那原1792番地１
デイサービスほがらか　おおみたけ,901-1303,,島尻郡与那原町,字与那原2916番地－１, 島尻郡与那原町 字与那原2916番地－１
しらゆりの園デイサービスうえよなばる,901-1302,,島尻郡与那原町,上与那原464番地, 島尻郡与那原町 上与那原464番地
沖縄第一病院通所介護センター,901-1111,,島尻郡南風原町,字兼城642番地の１, 島尻郡南風原町 字兼城642番地の１
嬉の里デイサービスセンター,901-1105,,島尻郡南風原町,字新川538番地, 島尻郡南風原町 字新川538番地
デイサービスセンター　はくあい,901-1105,,島尻郡南風原町,字新川452番地－１, 島尻郡南風原町 字新川452番地－１
デイサービス　せせらぎ,901-1105,,島尻郡南風原町,新川164－1, 島尻郡南風原町 新川164－1
通所介護事業所　寿デイサービス,901-1104,,島尻郡南風原町,宮平490番地の1, 島尻郡南風原町 宮平490番地の1
ﾃﾞｲｻｰﾋﾞｽ　「とき」,901-1104,,島尻郡南風原町,宮平426番地19, 島尻郡南風原町 宮平426番地19
はえばる日の出園デイサービスセンター,901-1103,,島尻郡南風原町,字新川501番地, 島尻郡南風原町 字新川501番地
デイサービスはっぴー,901-1111,,島尻郡南風原町,字兼城270-1, 島尻郡南風原町 字兼城270-1
デイサービス　フェアネス城,901-1103,,島尻郡南風原町,与那覇531番地, 島尻郡南風原町 与那覇531番地
デイサービスセンター　ベストかねぐすく,901-1111,,島尻郡南風原町,兼城265-10, 島尻郡南風原町 兼城265-10
デイサービスフェアネス津嘉山,901-1117,,島尻郡南風原町,津嘉山1311番地2　１階, 島尻郡南風原町 津嘉山1311番地2　１階
デイサービスはっぴー喜屋武,901-1113,,島尻郡南風原町,喜屋武182－1, 島尻郡南風原町 喜屋武182－1
あいけい兼城デイサービス,901-1111,,島尻郡南風原町,字兼城214番地の2, 島尻郡南風原町 字兼城214番地の2
デイサービス　カインド,901-1117,,島尻郡南風原町,津嘉山1315番地１　カノンビル, 島尻郡南風原町 津嘉山1315番地１　カノンビル
医療法人助和の会　東風平第一医院,901-0411,,島尻郡八重瀬町,字友寄42番地, 島尻郡八重瀬町 字友寄42番地
南部徳洲会病院　通所介護事業所,901-0493,,島尻郡八重瀬町,字外間80番地　１階(1単位目）　6階(2単位目）, 島尻郡八重瀬町 字外間80番地　１階(1単位目）　6階(2単位目）
通所介護事業所　東風の里,901-0411,,島尻郡八重瀬町,友寄891番地の１, 島尻郡八重瀬町 友寄891番地の１
ときわ苑デイサービスセンター,901-0414,,島尻郡八重瀬町,字当銘378番の１, 島尻郡八重瀬町 字当銘378番の１
転生園指定通所介護事業所,901-0514,,島尻郡八重瀬町,安里670番地, 島尻郡八重瀬町 安里670番地
デイサービスセンター愛の郷,901-0516,,島尻郡八重瀬町,仲座1074番地２, 島尻郡八重瀬町 仲座1074番地２
あしみじ　デイサービスセンター,901-0512,,島尻郡八重瀬町,字具志1099-1番地, 島尻郡八重瀬町 字具志1099-1番地
デイサービス　やえせ,901-0406,,島尻郡八重瀬町,字屋宜原167番１　ちぶみ　やえせ１階, 島尻郡八重瀬町 字屋宜原167番１　ちぶみ　やえせ１階
指定通所介護事業所えーじ,901-0405,,島尻郡八重瀬町,字伊覇60番地７丸栄マンション１階, 島尻郡八重瀬町 字伊覇60番地７丸栄マンション１階
デイサービス ぐしちゃん,901-0512,,島尻郡八重瀬町,字具志1241番地1, 島尻郡八重瀬町 字具志1241番地1
デイサービスセンター花庭,901-0516,,島尻郡八重瀬町,仲座420番地１, 島尻郡八重瀬町 仲座420番地１
デイサービス　新緑の里,901-0401,,島尻郡八重瀬町,東風平192番地8, 島尻郡八重瀬町 東風平192番地8
デイサービス でいご,901-0361,,糸満市,字糸満1505番地3, 糸満市 字糸満1505番地3
東西 デイサービスセンター,901-0335,,糸満市,米須249番地, 糸満市 米須249番地
デイサービス日々草,901-0311,,糸満市,武富595番地の272, 糸満市 武富595番地の272
デイサービスセンター珊瑚,901-0364,,糸満市,潮崎町4丁目8-13, 糸満市 潮崎町4丁目8-13
デイフィットあいのわ糸満,901-0364,,糸満市,潮崎町4-28-20　１階, 糸満市 潮崎町4-28-20　１階
デイサービスわっしょい,901-0312,,糸満市,北波平320番地, 糸満市 北波平320番地
デイサービス里のガーデン,901-0325,,糸満市,大里623番地７, 糸満市 大里623番地７
デイサービス　ちむぐくる,901-0201,,豊見城市,真玉橋190-3　友アパート101号, 豊見城市 真玉橋190-3　友アパート101号
いちゃりばちょうでぃー豊見城,901-0212,,豊見城市,平良151番地の2, 豊見城市 平良151番地の2
桜山荘ﾃﾞｲｻｰﾋﾞｽｾﾝﾀｰ未来館,901-0212,,豊見城市,平良188番地23, 豊見城市 平良188番地23
リハビリデイサービスぴたさぽ豊見城,901-0244,,豊見城市,宜保310番地１　コーポＴＯＫＩ　１階101号, 豊見城市 宜保310番地１　コーポＴＯＫＩ　１階101号
デイサービス　なかゆくい処,901-0213,,豊見城市,高嶺173-1　１Ｆ, 豊見城市 高嶺173-1　１Ｆ
しらゆりの園デイサービスつはこ,901-1414,,南城市,佐敷津波古937-1, 南城市 佐敷津波古937-1
かふぇてりあ　愛日和　デイサービス,901-0617,,南城市,玉城愛地361番地, 南城市 玉城愛地361番地
デイサービス　愛里寿,901-0607,,南城市,玉城喜良原113番地1, 南城市 玉城喜良原113番地1
デイサービス　まんぐろーぶ,901-1513,,南城市,知念字知念614番地, 南城市 知念字知念614番地
デイサービスすまいる南城,901-1407,,南城市,字つきしろ1739番地43, 南城市 字つきしろ1739番地43
リハビリ特化型デイサービス　カラダラボ南城船越,901-0618,,南城市,玉城船越773-１, 南城市 玉城船越773-１
デイサービスすまいるLife,901-1415,,南城市,佐敷字新開1番地114, 南城市 佐敷字新開1番地114
ハピネス百名,901-0603,,南城市,玉城字百名7番地, 南城市 玉城字百名7番地
ファミリー通所介護事業所,901-1303,,島尻郡与那原町,与那原3585番地, 島尻郡与那原町 与那原3585番地
ディサービスセンター和ごころ,901-1303,,島尻郡与那原町,字与那原1771番地, 島尻郡与那原町 字与那原1771番地
デイサービス フェアネス,901-1112,,島尻郡南風原町,字本部490番地6, 島尻郡南風原町 字本部490番地6
デイサービス くばの葉,901-1105,,島尻郡南風原町,字新川522番地　１Ｆ, 島尻郡南風原町 字新川522番地　１Ｆ
デイサービスつどい,901-1105,,島尻郡南風原町,字新川12番地6、１Ｆ, 島尻郡南風原町 字新川12番地6、１Ｆ
デイサービスともに,901-1117,,島尻郡南風原町,津嘉山1279番地１, 島尻郡南風原町 津嘉山1279番地１
デイサービスくばごころ,901-1113,,島尻郡南風原町,喜屋武422-1　１階, 島尻郡南風原町 喜屋武422-1　１階
デイサービスフォスタ津嘉山,901-1117,,島尻郡南風原町,津嘉山1535番地, 島尻郡南風原町 津嘉山1535番地
デイサービスきらり,901-0406,,島尻郡八重瀬町,屋宜原229-3, 島尻郡八重瀬町 屋宜原229-3
ディサービス　寿々　　,901-0406,,島尻郡八重瀬町,屋宜原110番地の3　アイニテイ　2-Ｄ号室, 島尻郡八重瀬町 屋宜原110番地の3　アイニテイ　2-Ｄ号室
デイサービス　愛ランド,901-0416,,島尻郡八重瀬町,字宜次712番地, 島尻郡八重瀬町 字宜次712番地
デイサービスセンター寿（共用型通所介護）,901-0362,,糸満市,沖縄県真栄里323番地, 糸満市 沖縄県真栄里323番地
デイサービスステーション　ひめゆり,901-0344,,糸満市,沖縄県伊原107-1, 糸満市 沖縄県伊原107-1
こもれび　デイサービス,901-0213,,豊見城市,沖縄県字高嶺111番地, 豊見城市 沖縄県字高嶺111番地
デイホーム　光風の家,901-0213,,豊見城市,沖縄県高嶺299番地１, 豊見城市 沖縄県高嶺299番地１
デイサービスセンターすみれ,901-0215,,豊見城市,沖縄県渡嘉敷150番地　おもととよみの杜2階, 豊見城市 沖縄県渡嘉敷150番地　おもととよみの杜2階
デイサービスしんかい,901-1415,,南城市,沖縄県佐敷新開1-114, 南城市 沖縄県佐敷新開1-114
東雲の丘指定認知症対応型共同生活介護事業所,901-1203,,南城市,沖縄県大里大城1392番地, 南城市 沖縄県大里大城1392番地
指定通所介護事業所デイサービス青の空,901-0603,,南城市,沖縄県玉城百名7番地, 南城市 沖縄県玉城百名7番地
デイサービス　あまね,901-0619,,南城市,沖縄県玉城屋嘉部455番１, 南城市 沖縄県玉城屋嘉部455番１
デイサービス事業所　とことん,901-1302,,島尻郡与那原町,沖縄県字上与那原431番5, 島尻郡与那原町 沖縄県字上与那原431番5
グループホームときわ苑認知症対応型通所介護,901-0414,,島尻郡八重瀬町,沖縄県当銘370-1, 島尻郡八重瀬町 沖縄県当銘370-1
デイホーム　くしばる,901-0504,,島尻郡八重瀬町,沖縄県後原268番地3, 島尻郡八重瀬町 沖縄県後原268番地3
デイケア　勝連,901-0331,,糸満市,真栄平1026番地, 糸満市 真栄平1026番地
南部病院　通所リハビリテーション,901-0243,,豊見城市,糸満市真栄里870番地, 豊見城市 糸満市真栄里870番地
糸満協同診療所　通所リハビリテーション,901-0364,,糸満市,字潮崎町2丁目1番地10, 糸満市 字潮崎町2丁目1番地10
通所リハビリテーション事業所　白寿園,901-0311,,糸満市,字武富175-1, 糸満市 字武富175-1
とよみ生協病院　通所リハビリテーション,9010201,,豊見城市,真玉橋593-1, 豊見城市 真玉橋593-1
松岡通所リハビリテーション,901-0213,,豊見城市,高嶺395-56, 豊見城市 高嶺395-56
桜山荘通所リハビリテーションセンター,901-0213,,豊見城市,字高嶺111, 豊見城市 字高嶺111
通所リハビリテーション　養生の里,901-0241,,豊見城市,我那覇291-25, 豊見城市 我那覇291-25
通所リハビリテーション　友愛園,901-0243,,豊見城市,字上田25, 豊見城市 字上田25
平成苑通所リハビリテーション,901-0235,,豊見城市,名嘉地217-2, 豊見城市 名嘉地217-2
通所リハビリテーション　はまゆう,901-0215,,豊見城市,字渡嘉敷150　４階, 豊見城市 字渡嘉敷150　４階
デイケアみなみ野,901-1202,,南城市,大里平良2584-2　2F, 南城市 大里平良2584-2　2F
デイケア南城,901-0618,,南城市,玉城字船越949-4, 南城市 玉城字船越949-4
医療法人信和会　おおざと信和苑　通所リハビリテーション事業所,901-1204,,南城市,大里字稲嶺1014, 南城市 大里字稲嶺1014
通所リハビリテーション真徳苑,901-1414,,南城市,佐敷字津波古西原2309, 南城市 佐敷字津波古西原2309
デイケアのはら,901-1302,,島尻郡与那原町,上与那原341-2, 島尻郡与那原町 上与那原341-2
通所リハビリテーション　さらばんじぃ,901-1303,,島尻郡与那原町,字与那原3678, 島尻郡与那原町 字与那原3678
通所リハビリテーションうりずん,901-1301,,島尻郡与那原町,板良敷1281-1, 島尻郡与那原町 板良敷1281-1
沖縄第一病院通所リハビリテーション,901-1111,,島尻郡南風原町,兼城642-１, 島尻郡南風原町 兼城642-１
嬉野の園通所リハビリテーション,901-1105,,島尻郡南風原町,字新川458-1, 島尻郡南風原町 字新川458-1
介護老人保健施設かりゆしの里　通所リハビリテーション,901-1115,,島尻郡南風原町,字山川256-2, 島尻郡南風原町 字山川256-2
南部徳洲会病院　通所リハビリテーション事業所,901-0493,,島尻郡八重瀬町,字外間80, 島尻郡八重瀬町 字外間80
通所リハビリテーション　東風の里,901-0411,,島尻郡八重瀬町,字友寄891-1, 島尻郡八重瀬町 字友寄891-1
小規模多機能型居宅介護事業所　かじまやぁぬ花,901-0361,,糸満市,字糸満１４４９－３, 糸満市 字糸満１４４９－３
沖縄偕生園指定短期入所生活介護事業所,901-0341,,糸満市,小波蔵321番地, 糸満市 小波蔵321番地
いとまんシャトーショートステイ,901-0325,,糸満市,大里927番地の２, 糸満市 大里927番地の２
良長園短期入所生活介護事業所,901-0204,,豊見城市,金良88番地, 豊見城市 金良88番地
短期入所生活介護施設すみれ,901-0215,,豊見城市,渡嘉敷150番地　おもと　とよみの杜, 豊見城市 渡嘉敷150番地　おもと　とよみの杜
短期入所生活介護事業所　はぁとあいらんど豊崎,901-0225,,豊見城市,豊崎１－677, 豊見城市 豊崎１－677
短期入所生活介護事業所　朝日の家,901-0607,,南城市,玉城喜良原526番地, 南城市 玉城喜良原526番地
しらゆりの園指定短期入所生活介護事業所,901-1511,,南城市,知念久手堅275番地の１, 南城市 知念久手堅275番地の１
小谷園ショートステイ,901-1413,,南城市,佐敷小谷238番地の１, 南城市 佐敷小谷238番地の１
東雲の丘指定短期入所生活介護事業所,901-1203,,南城市,大里大城1392番地, 南城市 大里大城1392番地
しらゆりの園　地域密着型特別養護老人ホーム　おおざと,901-1207,,南城市,大里古堅820番地1, 南城市 大里古堅820番地1
社会福祉法人南島会与那原日の出園ショートステイセンター,901-1303,,島尻郡与那原町,与那原3782番地の１, 島尻郡与那原町 与那原3782番地の１
嬉の里短期入所生活介護,901-1105,,島尻郡南風原町,新川５３８番地, 島尻郡南風原町 新川５３８番地
ときわ苑短期入所ホーム,901-0414,,島尻郡八重瀬町,当銘378番地の１, 島尻郡八重瀬町 当銘378番地の１
転生園ユニット型指定地域密着型介護老人福祉施設,901-0514,,島尻郡八重瀬町,安里670番地, 島尻郡八重瀬町 安里670番地
介護老人保健施設サクラビア　,901-0314,,糸満市,字座波371-1, 糸満市 字座波371-1
介護老人保健施設　白寿園,901-0311,,糸満市,字武富175番地１, 糸満市 字武富175番地１
介護老人保健施設　養生の里,901-0241,,豊見城市,沖縄県字豊見城344番地の5, 豊見城市 沖縄県字豊見城344番地の5
介護老人保健施設　友愛園　,901-0243,,豊見城市,字上田25番地, 豊見城市 字上田25番地
介護老人保健施設　平成苑,901-0235,,豊見城市,名嘉地217-2, 豊見城市 名嘉地217-2
短期入所療養介護　はまゆう,901-0215,,豊見城市,字渡嘉敷150, 豊見城市 字渡嘉敷150
介護老人保健施設　おおざと信和苑,901-1204,,南城市,大里字稲嶺1014, 南城市 大里字稲嶺1014
介護老人保健施設　真徳苑,901-1414,,南城市,佐敷字津波古西原2309番地, 南城市 佐敷字津波古西原2309番地
介護老人保健施設　うりずん,901-1301,,島尻郡与那原町,板良敷1281-1, 島尻郡与那原町 板良敷1281-1
介護老人保健施設　嬉野の園,901-1105,,島尻郡南風原町,新川458番地の１, 島尻郡南風原町 新川458番地の１
介護老人保健施設　かりゆしの里,901-1115,,島尻郡南風原町,字山川256-2, 島尻郡南風原町 字山川256-2
介護老人保健施設　東風の里,901-0411,,島尻郡八重瀬町,友寄891番地の１, 島尻郡八重瀬町 友寄891番地の１
介護老人保健施設　喜代の里,901-0411,,島尻郡八重瀬町,友寄42, 島尻郡八重瀬町 友寄42
グループホーム　ひめゆり,901-0344,,糸満市,伊原107-1, 糸満市 伊原107-1
グループホーム　かねぐすく,901-0303,,糸満市,兼城８７１－１, 糸満市 兼城８７１－１
グループホーム　寿,901-0362,,糸満市,真栄里323番地, 糸満市 真栄里323番地
グループホーム　こもれび,901-0213,,豊見城市,高嶺111番地, 豊見城市 高嶺111番地
グループホーム　光風の家,901-0213,,豊見城市,高嶺299番地１, 豊見城市 高嶺299番地１
グループホーム　良長園,901-0204,,豊見城市,字金良88番地, 豊見城市 字金良88番地
グループホームちゃ～がんじゅう,901-0224,,豊見城市,与根217番地2, 豊見城市 与根217番地2
グループホームしらゆり,901-1511,,南城市,知念久手堅275番地の3, 南城市 知念久手堅275番地の3
グループホーム　美ら里さしき,901-1406,,南城市,佐敷屋比久４４番地, 南城市 佐敷屋比久４４番地
東雲の丘指定認知症対応型共同生活介護事業所,901-1203,,南城市,大里大城1392番地, 南城市 大里大城1392番地
グループホーム　あまね,901-0619,,南城市,玉城屋嘉部４５５番１, 南城市 玉城屋嘉部４５５番１
医療法人和の会　与那原在宅ケアセンター　　グループホームかなち,901-1303,,島尻郡与那原町,与那原1792番地1, 島尻郡与那原町 与那原1792番地1
グループホーム　オアシス,901-1105,,島尻郡南風原町,新川452番地－１, 島尻郡南風原町 新川452番地－１
社会福祉法人　伸芽福祉会　グループホーム　マイフレンズ,901-1113,,島尻郡南風原町,喜屋武202番2, 島尻郡南風原町 喜屋武202番2
グループホームときわ苑,901-0414,,島尻郡八重瀬町,当銘370-1, 島尻郡八重瀬町 当銘370-1
グループホーム　くしばる,901-0504,,島尻郡八重瀬町,後原２６８番地３, 島尻郡八重瀬町 後原２６８番地３
医療法人フェニックス　博愛病院,901-1105,,島尻郡南風原町,字新川485-1, 島尻郡南風原町 字新川485-1
介護老人福祉施設　沖縄偕生園,901-0341,,糸満市,小波蔵321番地, 糸満市 小波蔵321番地
介護老人福祉施設　いとまんシャトー,901-0325,,糸満市,大里927番地の２, 糸満市 大里927番地の２
介護老人福祉施設　良長園,901-0204,,豊見城市,字金良88番地, 豊見城市 字金良88番地
介護老人福祉施設　すみれ,901-0215,,豊見城市,渡嘉敷150番地, 豊見城市 渡嘉敷150番地
地域密着型　特別養護老人ホーム　はぁとあいらんど豊崎,901-0225,,豊見城市,豊崎１－６７７, 豊見城市 豊崎１－６７７
介護老人福祉施設　朝日の家,901-0607,,南城市,玉城喜良原526番地, 南城市 玉城喜良原526番地
介護老人福祉施設　しらゆりの園,901-1511,,南城市,知念久手堅275番地の１, 南城市 知念久手堅275番地の１
介護老人福祉施設　小谷園,901-1413,,南城市,佐敷小谷238番地の１, 南城市 佐敷小谷238番地の１
介護老人福祉施設　東雲の丘,901-1203,,南城市,大里大城1392番地, 南城市 大里大城1392番地
しらゆりの園地域密着型　特別養護老人ホームおおざと,901-1207,,南城市,大里字古堅820番地１, 南城市 大里字古堅820番地１
介護老人福祉施設　与那原日の出園,901-1303,,島尻郡与那原町,与那原3782番地の１, 島尻郡与那原町 与那原3782番地の１
介護老人福祉施設　嬉の里,901-1105,,島尻郡南風原町,新川５３８番地, 島尻郡南風原町 新川５３８番地
介護老人福祉施設　ときわ苑,901-0414,,島尻郡八重瀬町,当銘378番地の１, 島尻郡八重瀬町 当銘378番地の１
介護老人福祉施設　転生園,901-0514,,島尻郡八重瀬町,字安里670番地, 島尻郡八重瀬町 字安里670番地
転生園ユニット型指定地域密着型介護老人福祉施設,901-0514,,島尻郡八重瀬町,字安里670番地, 島尻郡八重瀬町 字安里670番地
介護老人保健施設サクラビア,901-0314,,糸満市,字座波371-1, 糸満市 字座波371-1
介護老人保健施設白寿園,901-0311,,糸満市,字武富175番地１, 糸満市 字武富175番地１
介護老人保健施設桜山荘,901-0213,,豊見城市,字高嶺111番地, 豊見城市 字高嶺111番地
介護老人保健施設友愛園,901-0243,,豊見城市,字上田25番地, 豊見城市 字上田25番地
介護老人保健施設平成苑,901-0235,,豊見城市,名嘉地217-2, 豊見城市 名嘉地217-2
介護老人保健施設はまゆう,901-0215,,豊見城市,字渡嘉敷150, 豊見城市 字渡嘉敷150
介護老人保健施設おおざと信和苑,901-1204,,南城市,大里字稲嶺1014, 南城市 大里字稲嶺1014
介護老人保健施設　真徳苑,901-1414,,南城市,佐敷字津波古西原2309番地, 南城市 佐敷字津波古西原2309番地
介護老人保健施設うりずん,901-1301,,島尻郡与那原町,板良敷1281-1, 島尻郡与那原町 板良敷1281-1
介護老人保健施設嬉野の園,901-1105,,島尻郡南風原町,字新川458-1, 島尻郡南風原町 字新川458-1
介護老人保健施設かりゆしの里,901-1115,,島尻郡南風原町,字山川256-2, 島尻郡南風原町 字山川256-2
介護老人保健施設　喜代の里,901-0411,,島尻郡八重瀬町,友寄42, 島尻郡八重瀬町 友寄42
サービス付き高齢者向け住宅シャングリラ糸満,901-0303,,糸満市,兼城618番地, 糸満市 兼城618番地
サービス付き高齢者向け住宅あい愛,9010315,,糸満市,照屋808-1, 糸満市 照屋808-1
サービス付高齢者専用賃貸住宅ファミリーサポート,9010200,,豊見城市,字饒波1118, 豊見城市 字饒波1118
サービス付き高齢者向け住宅　みんなの家,9010200,,豊見城市,字豊見城６４, 豊見城市 字豊見城６４
サービス付き高齢者住宅とよさき２号館,901-0224,,豊見城市,字与根３２３番地, 豊見城市 字与根３２３番地
サービス付き高齢者向け住宅　華々,901-0242,,豊見城市,字高安882番１2, 豊見城市 字高安882番１2
住宅型有料老人ホームうえた２号館,901-0243,,豊見城市,上田1番地17, 豊見城市 上田1番地17
サービス付き高齢者住宅ハナミズキ,901-1203,,南城市,大里字大城１３９２, 南城市 大里字大城１３９２
ケアビレッジ　えがお,901-1204,,南城市,大里稲嶺1317-1, 南城市 大里稲嶺1317-1
オリーブ佐敷,9011414,,南城市,佐敷津波古加那原1755, 南城市 佐敷津波古加那原1755
サービス付き高齢者向け住宅　しらゆりの園うえよなばる,9011302,,島尻郡与那原町,上与那原464番地, 島尻郡与那原町 上与那原464番地
サービス付高齢者向け住宅フェアネス津嘉山,9011117,,島尻郡南風原町,津嘉山1311番, 島尻郡南風原町 津嘉山1311番
サービス付き高齢者向け住宅　カノンなは,901-1117,,島尻郡南風原町,字津嘉山1315番地1, 島尻郡南風原町 字津嘉山1315番地1
ファミリーホームくくる,9011111,,島尻郡南風原町,兼城２１４番地２, 島尻郡南風原町 兼城２１４番地２
サービス付き高齢者向け住宅 花庭,901-0516,,島尻郡八重瀬町,字仲座４２０番地1, 島尻郡八重瀬町 字仲座４２０番地1
介護付有料老人ホームうえた,901-0243,,豊見城市,字上田１番地１, 豊見城市 字上田１番地１
介護付有料老人ホームとよさき,901-0223,,豊見城市,字翁長８６９番地, 豊見城市 字翁長８６９番地
介護付有料老人ホーム徳州苑かふう,901-0417,,島尻郡八重瀬町,字外間８０番地, 島尻郡八重瀬町 字外間８０番地
特定有料老人ホームむつみ寮,901-1105,,島尻郡南風原町,字新川５３８番地　, 島尻郡南風原町 字新川５３８番地　
介護付き有料老人ホーム福寿苑,901-1415,,南城市,佐敷新開1番地344　沖縄ﾒﾃﾞｨｶﾙ福祉総合ｾﾝﾀｰ　4階～6階, 南城市 佐敷新開1番地344　沖縄ﾒﾃﾞｨｶﾙ福祉総合ｾﾝﾀｰ　4階～6階
有料ホームありがとう,901-0361,,糸満市,字糸満９６７番地, 糸満市 字糸満９６７番地
高齢者賃貸住宅　でいご,901-0361,,糸満市,糸満１６９０－２, 糸満市 糸満１６９０－２
住宅型有料老人ホーム　めぇざと,901-0362,,糸満市,字真栄里2045番地2、2階・3階, 糸満市 字真栄里2045番地2、2階・3階
高齢者賃貸住宅　東西 （あがりいり）,901-0335,,糸満市,字米須２５３番地, 糸満市 字米須２５３番地
住宅型有料老人ホーム　かじまやぁぬ花,901-0361,,糸満市,字糸満1449-3　, 糸満市 字糸満1449-3　
住宅型　有料老人ホーム　ゆたか,901-0311,,糸満市,字武富98番地, 糸満市 字武富98番地
有料老人ホームでいご,901-0361,,糸満市,字糸満1458番地, 糸満市 字糸満1458番地
住宅型有料老人ホームしおひら,901-0302,,糸満市,字潮平523番地, 糸満市 字潮平523番地
住宅型有料老人ホーム　ハートフルケア,901-0203,,豊見城市,字長堂146番地, 豊見城市 字長堂146番地
有料老人ホームゆいホーム花　渡嘉敷,901-0215,,豊見城市,字渡嘉敷13番地, 豊見城市 字渡嘉敷13番地
有料老人ホームゆいホーム花　宜保,901-0244,,豊見城市,字宜保141番地　マンション純101 102, 豊見城市 字宜保141番地　マンション純101 102
住宅型有料老人ホーム　ゆうらく寿,901-0241,,豊見城市,豊見城1007-24, 豊見城市 豊見城1007-24
シルバーハウス愛心館,901-0204,,豊見城市,字金良243-6, 豊見城市 字金良243-6
住宅型有料老人ホーム　太陽と海,901-0231,,豊見城市,我那覇200番地4, 豊見城市 我那覇200番地4
有料老人ホーム　いちゃりばちょうでぃー豊見城,901-0212,,豊見城市,平良１５１-２, 豊見城市 平良１５１-２
糸満協同診療所　有料老人ホーム,901-0201,,豊見城市,糸満市潮崎町2丁目１番１０　２階　３階, 豊見城市 糸満市潮崎町2丁目１番１０　２階　３階
有料老人ホーム　 はぁと　あいらんど豊崎,901-0225,,豊見城市,字豊崎１－６７７　２階, 豊見城市 字豊崎１－６７７　２階
有料老人ホーム　てぃみぐすく,901-0223,,豊見城市,翁長87番地　, 豊見城市 翁長87番地　
有料老人ホーム　どんぐり,901-0241,,豊見城市,字豊見城600番地1　ケアテラス梢, 豊見城市 字豊見城600番地1　ケアテラス梢
住宅型有料老人ホーム　かがやきの城,901-0213,,豊見城市,字高嶺321番地1, 豊見城市 字高嶺321番地1
住宅型有料老人ホーム　マチュピチュ,901-1203,,南城市,大里字大城1385番地1, 南城市 大里字大城1385番地1
高齢者共同住宅　青の空,901-0612,,南城市,玉城字當山10番地, 南城市 玉城字當山10番地
有料老人ホームとうやまの家,901-0612,,南城市,玉城字當山８番地１, 南城市 玉城字當山８番地１
高齢者共同住宅　里安,901-0607,,南城市,玉城字喜良原113－1　, 南城市 玉城字喜良原113－1　
住宅型有料老人ホーム　かな杜,901-1403,,南城市,佐敷１２０４－１, 南城市 佐敷１２０４－１
らくらく荘,901-1415,,南城市,佐敷新開１－８７, 南城市 佐敷新開１－８７
住宅型有料老人ホームなんじょう苑,901-0612,,南城市,大里字大城2005番地１, 南城市 大里字大城2005番地１
ひなぎく荘,901-1403,,南城市,佐敷字佐敷612番地, 南城市 佐敷字佐敷612番地
マイハウスゆーゆーとぅ,901-1402,,南城市,佐敷字手登根３１７番地, 南城市 佐敷字手登根３１７番地
有料老人ホーム　はっぴー,901-0616,,南城市,玉城字前川５９３番地１, 南城市 玉城字前川５９３番地１
有料老人ホーム　ほがらか苑おおみたけ,901-1303,,島尻郡与那原町,字与那原２９１６－１, 島尻郡与那原町 字与那原２９１６－１
高齢者専用共同住宅オリーブ,901-1303,,島尻郡与那原町,字与那原615，616番地　　1階、2階, 島尻郡与那原町 字与那原615，616番地　　1階、2階
宅老所　サンセル,901-1303,,島尻郡与那原町,字与那原1771番地, 島尻郡与那原町 字与那原1771番地
住宅型有料老人ホーム　さんはーと東浜,901-1304,,島尻郡与那原町,字東浜２２番地５, 島尻郡与那原町 字東浜２２番地５
有料老人ホーム　ほがらか苑与原,901-1303,,島尻郡与那原町,字与那原1122番地, 島尻郡与那原町 字与那原1122番地
有料老人ホームユートピア,901-1105,,島尻郡南風原町,字新川452-1, 島尻郡南風原町 字新川452-1
介護支援センターとき,901-1104,,島尻郡南風原町,字宮平426-19, 島尻郡南風原町 字宮平426-19
有料老人ホーム　ふぇーぬ風,901-1105,,島尻郡南風原町,新川6番地の３, 島尻郡南風原町 新川6番地の３
有料老人ホーム「ベストかねぐすく」,901-1111,,島尻郡南風原町,字兼城265-10, 島尻郡南風原町 字兼城265-10
有料老人ホームそよかぜ,901-1111,,島尻郡南風原町,字兼城644-2, 島尻郡南風原町 字兼城644-2
住宅型有料老人ホーム　はえばる日の出園,901-1105,,島尻郡南風原町,字新川501, 島尻郡南風原町 字新川501
有料老人ホーム　琉新の風,901-1105,,島尻郡南風原町,字新川217-4　　メディカルプラザあらかわ　3階、４階, 島尻郡南風原町 字新川217-4　　メディカルプラザあらかわ　3階、４階
住宅型有料老人ホーム・ぐしちゃん,901-0512,,島尻郡八重瀬町,字具志１２４１-1, 島尻郡八重瀬町 字具志１２４１-1
住宅型有料老人ホーム　ちぶみやえせ,901-0406,,島尻郡八重瀬町,"字屋宜原167番地１　2,3階"," 島尻郡八重瀬町 字屋宜原167番地１　2,3階"
イリーゼ八重瀬,901-0501,,島尻郡八重瀬町,字長毛１５９－１, 島尻郡八重瀬町 字長毛１５９－１
有料老人ホーム　新緑の里,901-0401,,島尻郡八重瀬町,東風平192-8, 島尻郡八重瀬町 東風平192-8
高齢者有料老人ホーム  港川の家,901-0511,,島尻郡八重瀬町,港川３３８, 島尻郡八重瀬町 港川３３８
有料老人ホームたけとみ,901-0311,,糸満市,字武富343番地1, 糸満市 字武富343番地1
宅老所　輝,901-0315,,糸満市,字照屋129番地　1階, 糸満市 字照屋129番地　1階
住宅型有料老人ホーム　糸満てぃんさぐの家,901-0315,,糸満市,字照屋1258番地1, 糸満市 字照屋1258番地1
有料老人ホーム　みなみ,901-0361,,糸満市,字糸満1421番地1, 糸満市 字糸満1421番地1
有料老人ホーム　てるや,901-0315,,糸満市,字照屋798番地 　ホームズ幸1階, 糸満市 字照屋798番地 　ホームズ幸1階
有料老人ホームさつき高齢者共同住宅,901-0334,,糸満市,大度255番地22, 糸満市 大度255番地22
有料老人ホーム日々草,901-0311,,糸満市,字武富595番地272　2階, 糸満市 字武富595番地272　2階
有料老人ホーム　あから３号館,901-0201,,豊見城市,字真玉橋183番地1, 豊見城市 字真玉橋183番地1
有料老人ホーム　のどか,901-0201,,豊見城市,字真玉橋36番地, 豊見城市 字真玉橋36番地
高齢者生活支援住宅　あから根差部,901-0205,,豊見城市,根差部422番地, 豊見城市 根差部422番地
コミュニティーハウスねさぶ,901-0205,,豊見城市,根差部588番地3, 豊見城市 根差部588番地3
コミュニティーハウスぎぼ,901-0244,,豊見城市,宜保150番地　　ラ・フォーレチャイムⅡ　1階, 豊見城市 宜保150番地　　ラ・フォーレチャイムⅡ　1階
HOME　いこい,901-1414,,南城市,佐敷字津波古1354番地1, 南城市 佐敷字津波古1354番地1
高齢者共同生活支援住宅　東,901-0606,,南城市,玉城字糸数672番地1, 南城市 玉城字糸数672番地1
有料老人ホーム　あがり,901-0606,,南城市,玉城字糸数17番地, 南城市 玉城字糸数17番地
有料老人ホーム　フェアネス,901-1112,,島尻郡南風原町,字本部490-6, 島尻郡南風原町 字本部490-6
有料高齢者ホーム寿々,901-0406,,島尻郡八重瀬町,字屋宜原110番地3　アイ二ティ１階, 島尻郡八重瀬町 字屋宜原110番地3　アイ二ティ１階
高齢者共同住宅  きらり,901-0406,,島尻郡八重瀬町,字屋宜原229番地3, 島尻郡八重瀬町 字屋宜原229番地3
有料老人ホーム結ホームこちんだ,901-0401,,島尻郡八重瀬町,字東風平9番地, 島尻郡八重瀬町 字東風平9番地
高齢者共同住宅ふくよか家族,901-1301,,島尻郡与那原町,字板良敷1411番地, 島尻郡与那原町 字板良敷1411番地
国頭村地域包括支援センター,905-1411,,国頭郡国頭村,辺土名1437　, 国頭郡国頭村 辺土名1437　
東村地域包括支援センター,905-1204,,国頭郡東村,平良804, 国頭郡東村 平良804
大宜味村地域包括支援センター,905-1305,,国頭郡大宜味村,大兼久157, 国頭郡大宜味村 大兼久157
今帰仁村地域包括支援センター,905-0401,,国頭郡今帰仁村,仲宗根219（今帰仁村役場内）, 国頭郡今帰仁村 仲宗根219（今帰仁村役場内）
本部町地域包括支援センター,905-0211,,国頭郡本部町,東５, 国頭郡本部町 東５
名護市地域包括支援センター,905-0017,,名護市,大2-12-1, 名護市 大2-12-1
北斗園　指定居宅介護支援事業所,905-1411,,国頭郡国頭村,辺士名1692, 国頭郡国頭村 辺士名1692
介護支援センター　やんばる,905-1318,,国頭郡大宜味村,津波1971-35, 国頭郡大宜味村 津波1971-35
おおぎみ居宅介護支援事業所,905-1318,,国頭郡大宜味村,津波588, 国頭郡大宜味村 津波588
なきじん指定居宅介護支援事業所,905-0428,,国頭郡今帰仁村,今泊280, 国頭郡今帰仁村 今泊280
今帰仁村社協　指定居宅介護支援事業所,905-0411,,国頭郡今帰仁村,天底62, 国頭郡今帰仁村 天底62
乙羽園　指定居宅介護支援事業所,905-0411,,国頭郡今帰仁村,天底222, 国頭郡今帰仁村 天底222
イリーゼ今帰仁　居宅介護支援事業所,905-0412,,国頭郡今帰仁村,湧川571-1, 国頭郡今帰仁村 湧川571-1
博寿会　居宅介護支援事業所,905-0206,,国頭郡本部町,石川988, 国頭郡本部町 石川988
本部町社協　居宅介護支援事業所,905-0212,,国頭郡本部町,大浜881-４, 国頭郡本部町 大浜881-４
居宅介護支援事業所　本部園,905-0213,,国頭郡本部町,谷茶301, 国頭郡本部町 谷茶301
エイジングけあ　居宅介護支援事業所,905-0228,,国頭郡本部町,伊野波278-５　105号, 国頭郡本部町 伊野波278-５　105号
りゅうしん指定居宅介護支援事業所,905-0007,,名護市,屋部468-1　りゅうしん地域医療包括ケアセンター内, 名護市 屋部468-1　りゅうしん地域医療包括ケアセンター内
うりずん居宅介護支援事業所,905-0011,,名護市,宮里1004, 名護市 宮里1004
桃源の郷居宅介護支援事業所,905-0018,,名護市,大西3-19-25, 名護市 大西3-19-25
ちゅらケアプランセンター名護,905-0022,,名護市,世冨慶505-2, 名護市 世冨慶505-2
かりゆしぬ村　指定居宅介護支援事業所,9050006,,名護市,宇茂佐1873-1, 名護市 宇茂佐1873-1
二見の里居宅介護支援事業所,905-2269,,名護市,二見241-7, 名護市 二見241-7
北部ケア居宅介護支援事業所,905-0006,,名護市,宇茂佐915-10, 名護市 宇茂佐915-10
羽地苑居宅介護支援事業所,905-1155,,名護市,我部祖河829, 名護市 我部祖河829
わかば居宅介護支援事業所,905-1145,,名護市,川上45, 名護市 川上45
トータルリハビリ・ケアサービス　居宅介護支援事業所ゆらぎ,905-1145,,名護市,川上424-1　1F, 名護市 川上424-1　1F
浅茅の里　居宅介護支援事業所　,905-0011,,名護市,宮里1-6-23, 名護市 宮里1-6-23
名護厚生園指定居宅介護支援事業所,905-0011,,名護市,宮里5-4-29, 名護市 宮里5-4-29
三つ葉のクローバー居宅介護支援事業所,905-0007,,名護市,屋部211, 名護市 屋部211
沖縄県農業協同組合　北部居宅介護支援事業所,905-0007,,名護市,屋部1698-1, 名護市 屋部1698-1
あかり居宅介護支援事業所,905-0019,,名護市,大北3-3-18, 名護市 大北3-3-18
なまからどー居宅介護支援事業所,905-0016,,名護市,大東1-15-16, 名護市 大東1-15-16
指定居宅介護支援事業所　瑞穂の郷,905-1146,,名護市,親川571, 名護市 親川571
居宅介護支援事業所がゆまーる,905-0009,,名護市,宇茂佐の森4-3-2　305号, 名護市 宇茂佐の森4-3-2　305号
沖縄ケアサポートセンターやんばる,905-0006,,名護市,宇茂佐1737　1F, 名護市 宇茂佐1737　1F
ケアプランセンター　なぐ交じり,905-0011,,名護市,為又856-11, 名護市 為又856-11
名護居宅介護支援事業所,905-1152,,名護市,伊差川123-3, 名護市 伊差川123-3
アップルライフ居宅介護支援事業所,905-0016,,名護市,大東1-14-12　103号, 名護市 大東1-14-12　103号
ケアプランセンターみやび,905-1146,,名護市,親川430, 名護市 親川430
指定居宅介護支援事業所　ふたば,905-0006,,名護市,宇茂佐1746-6, 名護市 宇茂佐1746-6
ライフ居宅介護支援事業所,905-0009,,名護市,宇茂佐の森4-19-7　101号, 名護市 宇茂佐の森4-19-7　101号
ケアプランセンターほくざん,905-0011,,名護市,宮里883, 名護市 宮里883
北山病院,905-0428,,国頭郡今帰仁村,今泊280, 国頭郡今帰仁村 今泊280
訪問看護ステーション桃源の郷,905-0018,,名護市,大西3-19-25, 名護市 大西3-19-25
かりゆしぬ村　指定訪問看護ステーション,905-0006,,名護市,宇茂佐1873-1, 名護市 宇茂佐1873-1
ちゅら訪問看護ステーション,905-0022,,名護市,世冨慶505-2　1F, 名護市 世冨慶505-2　1F
こもれ陽訪問看護ステーション,905-1152,,名護市,伊差川244　103号, 名護市 伊差川244　103号
りゅうしん訪問看護ステーション,905-0007,,名護市,屋部468-1, 名護市 屋部468-1
はぴねす訪問看護ステーション,905-0019,,名護市,大北4-3-7　1F, 名護市 大北4-3-7　1F
涼風訪問看護ステーション,905-0018,,名護市,大西1-1-1　101号, 名護市 大西1-1-1　101号
北山病院,905-0428,,国頭郡今帰仁村,今泊280, 国頭郡今帰仁村 今泊280
スポーク・クリニック　訪問リハビリテーション,905-0007,,名護市,字屋部117, 名護市 字屋部117
北斗園　ホームヘルプサービス事業所,905-1411,,国頭郡国頭村,辺土名1692, 国頭郡国頭村 辺土名1692
ヘルパーセンター　くがに,905-1303,,国頭郡大宜味村,喜如嘉320, 国頭郡大宜味村 喜如嘉320
なきじん指定訪問介護事業所,905-0428,,国頭郡今帰仁村,今泊280, 国頭郡今帰仁村 今泊280
今帰仁村社協　指定訪問介護事業所,905-0428,,国頭郡今帰仁村,天底62, 国頭郡今帰仁村 天底62
訪問介護ステーション　山宗,905-0428,,国頭郡今帰仁村,天底222, 国頭郡今帰仁村 天底222
イリーゼ今帰仁　訪問介護センター,905-0412,,国頭郡今帰仁村,湧川571-1, 国頭郡今帰仁村 湧川571-1
本部町社協　指定訪問介護事業所,905-0212,,国頭郡本部町,大浜881-４, 国頭郡本部町 大浜881-４
指定訪問介護事業所　本部園,905-0213,,国頭郡本部町,谷茶301, 国頭郡本部町 谷茶301
きずなエイジングけあ　訪問介護事業所,905-0228,,国頭郡本部町,伊野波278-５　105号, 国頭郡本部町 伊野波278-５　105号
りゅうしん指定訪問介護事業所,905-0007,,名護市,屋部468-1, 名護市 屋部468-1
桃源の郷ヘルパーステーション,905-0018,,名護市,大西3-19-25, 名護市 大西3-19-25
かりゆしぬ村　指定訪問介護事業所,905-0006,,名護市,宇茂佐1873-1, 名護市 宇茂佐1873-1
北部ケアサービス,905-0006,,名護市,宇茂佐915-10, 名護市 宇茂佐915-10
ヘルパーステーション　浅茅の里,905-0011,,名護市,宮里1-6-23, 名護市 宮里1-6-23
居宅介護サービス事業所　まごころ,905-1151,,名護市,振慶名213-1, 名護市 振慶名213-1
わかば訪問介護支援事業所,905-1145,,名護市,川上45, 名護市 川上45
トータルリハビリ・ケアサービス　ゆらぎ訪問介護事業所,905-1145,,名護市,川上424-1　1F, 名護市 川上424-1　1F
ケアパートナー　こころ,905-1152,,名護市,伊差川488-4, 名護市 伊差川488-4
名護厚生園指定訪問介護事業所,905-0011,,名護市,宮里5-4-29, 名護市 宮里5-4-29
たんぽぽ訪問介護サービス,905-0005,,名護市,為又1219-277, 名護市 為又1219-277
沖縄県農業協同組合　北部訪問介護事業所,905-0007,,名護市,屋部1698-1, 名護市 屋部1698-1
ヘルパーステーション　ひびき,905-1146,,名護市,親川121, 名護市 親川121
あかりヘルパーステーション,905-0019,,名護市,大北3-3-18, 名護市 大北3-3-18
訪問介護ふくらしゃ,905-2172,,名護市,豊原224-49, 名護市 豊原224-49
やんばるヘルパーステーション,905-0006,,名護市,宇茂佐1737, 名護市 宇茂佐1737
訪問介護日廻り,905-0014,,名護市,港2-7-1, 名護市 港2-7-1
ヘルパーステーションふたみ,905-2269,,名護市,二見241-7, 名護市 二見241-7
ヘルパーステーションみやび,905-1146,,名護市,親川430, 名護市 親川430
ケアパートナーおきなわ,905-0006,,名護市,宇茂佐1709-110, 名護市 宇茂佐1709-110
訪問介護センター彩風の杜なご,905-0015,,名護市,大南2-8-2　102号, 名護市 大南2-8-2　102号
ヘルパーステーションあかがーら,905-0012,,名護市,名護4558-48　2F, 名護市 名護4558-48　2F
ヘルパーステーションゆいゆい,905-0015,,名護市,大南2-9-3　101号, 名護市 大南2-9-3　101号
北斗園　デイサービスセンター,905-1411,,国頭郡国頭村,辺土名1692, 国頭郡国頭村 辺土名1692
楚洲あさひの丘　デイサービスセンター,905-1502,,国頭郡国頭村,楚洲517, 国頭郡国頭村 楚洲517
デイサービス　浜の家,905-1415,,国頭郡国頭村,浜96, 国頭郡国頭村 浜96
デイサービスセンター　やんばる,905-1318,,国頭郡大宜味村,津波1971-35, 国頭郡大宜味村 津波1971-35
デイサービス　おおぎみ,905-1318,,国頭郡大宜味村,津波419-9, 国頭郡大宜味村 津波419-9
デイサービス　おおぎみ　トレーニングリハビリ,905-1318,,国頭郡大宜味村,津波588, 国頭郡大宜味村 津波588
乙羽園デイサービスセンター,905-0411,,国頭郡今帰仁村,天底222, 国頭郡今帰仁村 天底222
今帰仁村社協　指定通所介護事業所,905-0411,,国頭郡今帰仁村,天底62, 国頭郡今帰仁村 天底62
デイサービス　ほしくぼ,905-0405,,国頭郡今帰仁村,勢理客243-7, 国頭郡今帰仁村 勢理客243-7
さくらの里　デイサービス,905-0428,,国頭郡今帰仁村,今泊344-1, 国頭郡今帰仁村 今泊344-1
デイサービス　ハイビスカス,905-0428,,国頭郡今帰仁村,今泊3933, 国頭郡今帰仁村 今泊3933
デイサービス　わら美,905-0422,,国頭郡今帰仁村,崎山1263, 国頭郡今帰仁村 崎山1263
本部町社協　デイサービスセンター,905-0212,,国頭郡本部町,大浜881-４, 国頭郡本部町 大浜881-４
老人デイサービスセンター　本部園,905-0213,,国頭郡本部町,谷茶301　, 国頭郡本部町 谷茶301　
通所介護事業所　大空,9050219,,国頭郡本部町,山里427, 国頭郡本部町 山里427
通所介護事業所　あづま家,905-0211,,国頭郡本部町,東446-1, 国頭郡本部町 東446-1
通所介護事業所　とうばる,905-0204,,国頭郡本部町,豊原11-1, 国頭郡本部町 豊原11-1
糸　通所介護事業所,905-0209,,国頭郡本部町,北里1309, 国頭郡本部町 北里1309
デイサービス　美らさ,905-0213,,国頭郡本部町,谷茶452-1, 国頭郡本部町 谷茶452-1
きずなエイジングけあ　通所介護事業所,905-0205,,国頭郡本部町,山川1033-1, 国頭郡本部町 山川1033-1
デイサービス　ローズホーム,905-0215,,国頭郡本部町,野原482-1, 国頭郡本部町 野原482-1
中央外科通所介護事業所,905-0013,,名護市,城1-1-12, 名護市 城1-1-12
桃源の郷　デイサービスセンター,905-0018,,名護市,大西3-19-25, 名護市 大西3-19-25
特別養護老人ホームかりゆしぬ村　デイサービスセンター,905-0006,,名護市,宇茂佐1873-1, 名護市 宇茂佐1873-1
デイサービスセンター二見の里,905-2269,,名護市,二見241-7, 名護市 二見241-7
ケア付き宅老所　浅茅の里,905-0011,,名護市,宮里1-6-23, 名護市 宮里1-6-23
通所介護事業所　羽地苑,905-1155,,名護市,我部祖河829, 名護市 我部祖河829
かりゆしぬ村　デイサービス大南,905-0015,,名護市,大南2-4-5　1F, 名護市 大南2-4-5　1F
指定通所介護事業所　まごころのデイサービス,905-1145,,名護市,川上831, 名護市 川上831
名護リハビリケアセンター,905-1145,,名護市,川上424-1　1F, 名護市 川上424-1　1F
JAおきなわ北部デイサービスセンター,905-0007,,名護市,屋部1698-1, 名護市 屋部1698-1
りゅうしん大東指定通所介護事業所,905-0016,,名護市,大東3-20-14, 名護市 大東3-20-14
デイサービス　うむさの森,905-0009,,名護市,宇茂佐の森1-4-2, 名護市 宇茂佐の森1-4-2
デイサービス稲田,905-1155,,名護市,我部祖河91-1, 名護市 我部祖河91-1
デイサービス手水の園,905-0024,,名護市,許田201-11, 名護市 許田201-11
リハビリ特化型デイサービス　カラダラボ名護為又,905-0005,,名護市,為又856-10, 名護市 為又856-10
デイサービス宙伸みやざと,905-0011,,名護市,宮里448-6　1F, 名護市 宮里448-6　1F
デイサービス　シャローム名護,905-0003,,名護市,旭川778-3, 名護市 旭川778-3
北部ケア通所介護事業所,905-0006,,名護市,宇茂佐915-10, 名護市 宇茂佐915-10
地域密着型介護事業所　さくらの郷,905-0019,,名護市,大北3-6-8　1F, 名護市 大北3-6-8　1F
デイサービス　海山郷,905-0019,,名護市,大北5-17-21, 名護市 大北5-17-21
指定通所介護事業所　瑞穂の郷,905-1146,,名護市,親川571, 名護市 親川571
らいふデイサービス,905-0015,,名護市,大南1-10-18　103号, 名護市 大南1-10-18　103号
医療法人タピック　デイサービスやんばる,905-0006,,名護市,宇茂佐1737, 名護市 宇茂佐1737
デイサービス　ささえ,905-0021,,名護市,東江4-8-7　103号, 名護市 東江4-8-7　103号
デイサービス久志交じり,905-2264,,名護市,三原252-5, 名護市 三原252-5
デイサービスてぃださん,905-0005,,名護市,為又507-64, 名護市 為又507-64
デイサービス　Cee Port（シーポート）,905-0023,,名護市,数久田295-5, 名護市 数久田295-5
ハッスル・マッスル　デイサービス,905-0021,,名護市,東江1-25-14　102号, 名護市 東江1-25-14　102号
デイサービスやがじ,905-1632,,名護市,饒平名737-2, 名護市 饒平名737-2
デイサービスなまからどー,905-0016,,名護市,大東1-15-16, 名護市 大東1-15-16
通所介護　ほしくぼ,905-0412,,国頭郡今帰仁村,湧川1578-3　, 国頭郡今帰仁村 湧川1578-3　
デイサービス　かるすと,905-0204,,国頭郡本部町,豊原262-4, 国頭郡本部町 豊原262-4
認知症通所介護ひだまり,905-0018,,名護市,大西3-19-42, 名護市 大西3-19-42
和光園　通所リハビリテーション事業所,905-0428,,国頭郡今帰仁村,今泊280, 国頭郡今帰仁村 今泊280
博寿会通所リハビリテーション事業所,905-0206,,国頭郡本部町,石川988, 国頭郡本部町 石川988
うりずんでいけあ,905-0011,,名護市,宮里1004, 名護市 宮里1004
大北内科通所リハビリテーション,905-0019,,名護市,大北3-1-48, 名護市 大北3-1-48
スポーク・クリニック,905-0007,,名護市,字屋部117, 名護市 字屋部117
医療法人　詠山会　デイケアふたば,905-0006,,名護市,宇茂佐1746-6, 名護市 宇茂佐1746-6
桃源の郷通所リハビリテーション　,905-0018,,名護市,大西3-19-25, 名護市 大西3-19-25
勝山病院　短時間通所リハビリテーション,905-0007,,名護市,屋部468-1, 名護市 屋部468-1
介護老人保健施設あけみおの里　通所リハビリテーション,905-0007,,名護市,屋部468-1, 名護市 屋部468-1
もとぶ記念病院　ニライ会,905-0206,,国頭郡本部町,石川972, 国頭郡本部町 石川972
宮里病院　重度認知症患者デイケア,905-0006,,名護市,宇茂佐1763-2, 名護市 宇茂佐1763-2
小規模多機能型居宅介護事業所　あがり,905-1205,,国頭郡東村,慶佐次727-8, 国頭郡東村 慶佐次727-8
小規模多機能ホーム　いっしん,905-1318,,国頭郡大宜味村,津波418, 国頭郡大宜味村 津波418
シゲルハスウス　SHIGERU・HOUSE,905-0428,,国頭郡今帰仁村,天底334-1, 国頭郡今帰仁村 天底334-1
どりーむはうす,905-0212,,国頭郡本部町,大浜850-5, 国頭郡本部町 大浜850-5
小規模多機能型居宅介護事業所さざなみ,905-2266,,名護市,瀬嵩12-2, 名護市 瀬嵩12-2
グループホーム　きじょか,905-1303,,国頭郡大宜味村,喜如嘉2087, 国頭郡大宜味村 喜如嘉2087
グループホーム　ほしくぼ,905-0412,,国頭郡今帰仁村,湧川1578-3　, 国頭郡今帰仁村 湧川1578-3　
グループホーム　わくがわ,905-0412,,国頭郡今帰仁村,湧川1578-2, 国頭郡今帰仁村 湧川1578-2
グループホーム　らんらん,905-0422,,国頭郡今帰仁村,崎山128-4, 国頭郡今帰仁村 崎山128-4
グループホーム　かるすと,905-0204,,国頭郡本部町,豊原262-4, 国頭郡本部町 豊原262-4
グループホーム　もとぶ,905-0204,,国頭郡本部町,豊原262-1, 国頭郡本部町 豊原262-1
かりゆしぬ村　グループホーム　くつろぎ,905-0006,,名護市,宇茂佐1873-1, 名護市 宇茂佐1873-1
グループホーム　ひだまり,905-0018,,名護市,大西3-19-42, 名護市 大西3-19-42
グループホーム　こころの里,905-1152,,名護市,伊差川1054, 名護市 伊差川1054
グループホーム　いがしま,905-2173,,名護市,久志192, 名護市 久志192
介護老人保健施設　和光園,905-0428,,国頭郡今帰仁村,今泊280, 国頭郡今帰仁村 今泊280
介護老人保健施設　もとぶふくぎの里,905-0206,,国頭郡本部町,石川988, 国頭郡本部町 石川988
介護老人保健施設　あけみおの里,905-0007,,名護市,字屋部468-1, 名護市 字屋部468-1
介護老人保健施設　桃源の郷,905-0018,,名護市,大西3-19-25, 名護市 大西3-19-25
北斗園　特別養護老人ホーム,905-1411,,国頭郡国頭村,辺士名1692, 国頭郡国頭村 辺士名1692
特別養護老人ホーム　やんばるの家,905-1318,,国頭郡大宜味村,津波1971-35, 国頭郡大宜味村 津波1971-35
特別養護老人ホーム　本部園,905-0213,,国頭郡本部町,谷茶310, 国頭郡本部町 谷茶310
在宅複合型施設　羽地苑,905-1155,,名護市,我部祖河829, 名護市 我部祖河829
特別養護老人ホーム　乙羽園,905-0411,,国頭郡今帰仁村,天底222, 国頭郡今帰仁村 天底222
介護老人福祉施設　かりゆしぬ村,905-0006,,名護市,宇茂佐1873-1, 名護市 宇茂佐1873-1
名護厚生園指定介護老人福祉施設,905-0011,,名護市,宮里5-4-29, 名護市 宮里5-4-29
指定地域密着型介護老人福祉施設　瑞穂の郷,905-1146,,名護市,親川571, 名護市 親川571
北山病院,905-0428,,国頭郡今帰仁村,今泊280, 国頭郡今帰仁村 今泊280
医療法人タピック　宮里病院,905-0006,,名護市,宇茂佐1763-2, 名護市 宇茂佐1763-2
有限会社ハイール　有料老人ホーム第一きんせいハウス,905-1415,,国頭郡国頭村,浜96　2F, 国頭郡国頭村 浜96　2F
宅老所ひがし,905-1203,,国頭郡東村,川田789, 国頭郡東村 川田789
宅老所しまなさけ,905-1318,,国頭郡大宜味村,津波1971-487, 国頭郡大宜味村 津波1971-487
有料老人ホーム　おおぎみ,905-1318,,国頭郡大宜味村,津波419-9　2F, 国頭郡大宜味村 津波419-9　2F
有料老人ホーム　セイブ,905-1318,,国頭郡大宜味村,津波1475-1, 国頭郡大宜味村 津波1475-1
有料老人ホーム　湧川,905-0412,,国頭郡今帰仁村,湧川1578-2, 国頭郡今帰仁村 湧川1578-2
宅老所　ハイビスカス,905-0428,,国頭郡今帰仁村,今泊3933, 国頭郡今帰仁村 今泊3933
イリーゼ今帰仁,905-0412,,国頭郡今帰仁村,湧川571-1, 国頭郡今帰仁村 湧川571-1
有料老人ホーム　とうばるの里,905-0204,,国頭郡本部町,豊原11-1, 国頭郡本部町 豊原11-1
有料老人ホーム　ときわ,905-0213,,国頭郡本部町,谷茶366-1, 国頭郡本部町 谷茶366-1
かりゆしぬ村　シルバーハウス　ゆりのさと,905-0016,,名護市,大東1-16-17, 名護市 大東1-16-17
かりゆしぬ村　居宅支援ハウス　のぞみ,905-0011,,名護市,宮里518-2, 名護市 宮里518-2
かりゆしぬ村　シルバーハウス　アンジェラ,905-0006,,名護市,宇茂佐1705-1, 名護市 宇茂佐1705-1
生活支援ハウス　前ぬ浜,905-2266,,名護市,瀬嵩12-1, 名護市 瀬嵩12-1
コミュニティケアハウスたから,905-0009,,名護市,宇茂佐の森1-15-8, 名護市 宇茂佐の森1-15-8
有料老人ホーム　手水の園,905-0024,,名護市,許田201-11, 名護市 許田201-11
高齢者ハウス　りゅうしん,905-0016,,名護市,大東3-20-14, 名護市 大東3-20-14
グループハウス　たんぽぽ,905-0006,,名護市,宇茂佐919-7　2F, 名護市 宇茂佐919-7　2F
ライフサポートこころの家,905-1152,,名護市,伊差川1056-3, 名護市 伊差川1056-3
有料老人ホーム　てぃだかん館,905-0005,,名護市,為又507-64, 名護市 為又507-64
有料老人ホーム　なまからどー,905-1155,,名護市,我部祖河214-1, 名護市 我部祖河214-1
宅老所ひるぎ,905-1632,,名護市,饒平名131-2, 名護市 饒平名131-2
有料老人ホーム　響の家,905-1145,,名護市,川上254-1, 名護市 川上254-1
宅老所　さくら,905-0019,,名護市,大北3-6-10, 名護市 大北3-6-10
有料老人ホーム　ふれ愛,905-0022,,名護市,世冨慶536-1　1F, 名護市 世冨慶536-1　1F
有料老人ホーム　華みやび,905-1146,,名護市,親川120-1, 名護市 親川120-1
シェアハウス　ゆくり,905-0016,,名護市,大東1-5-21, 名護市 大東1-5-21
有料老人ホーム　 城の里,905-0013,,名護市,城2-16-12, 名護市 城2-16-12
ケア付シェアハウス楽笑家,905-0016,,名護市,大東2-9-12　101号, 名護市 大東2-9-12　101号
ケア付シェアハウス楽笑家・新館,905-0016,,名護市,大東2-10-2, 名護市 大東2-10-2
ケア付シェアハウス楽笑家・別館,905-0016,,名護市,大東2-9-16, 名護市 大東2-9-16
有料老人ホーム　ニライカナイ,905-0006,,名護市,宇茂佐1763-2, 名護市 宇茂佐1763-2
住宅型有料老人ホーム　シャローム名護,905-0003,,名護市,旭川778-3, 名護市 旭川778-3
さくらの里,905-0428,,国頭郡今帰仁村,今泊344-1, 国頭郡今帰仁村 今泊344-1
グリーンハウス　天底,905-0411,,国頭郡今帰仁村,天底335, 国頭郡今帰仁村 天底335
有料老人ホーム　大地,905-0219,,国頭郡本部町,山里427, 国頭郡本部町 山里427
あかがーら,905-0012,,名護市,名護4558-48, 名護市 名護4558-48
ラ・ペジーブル名護,905-0006,,名護市,宇茂佐1737, 名護市 宇茂佐1737
ケアリゾートうむさの森,905-0009,,名護市,宇茂佐の森1-4-2, 名護市 宇茂佐の森1-4-2
国頭村立診療所,905-1411,,国頭郡国頭村,辺土名1437, 国頭郡国頭村 辺土名1437
東村立診療所,905-1204,,国頭郡東村,平良804, 国頭郡東村 平良804
大宜味村立診療所,905-1311,,国頭郡大宜味村,塩屋1306-62, 国頭郡大宜味村 塩屋1306-62
今帰仁診療所,905-0414,,国頭郡今帰仁村,謝名139, 国頭郡今帰仁村 謝名139
北山病院,905-0428,,国頭郡今帰仁村,今泊280, 国頭郡今帰仁村 今泊280
もとぶ記念病院,905-0206,,国頭郡本部町,石川972, 国頭郡本部町 石川972
もとぶ野毛病院,905-0212,,国頭郡本部町,大浜880-1, 国頭郡本部町 大浜880-1
やまだクリニック,905-0212,,国頭郡本部町,大浜874-15, 国頭郡本部町 大浜874-15
アイクリニック敬愛,905-0011,,名護市,宮里6-4-21, 名護市 宮里6-4-21
赤嶺内科,905-0019,,名護市,大北1-5-11, 名護市 大北1-5-11
あがりえクリニック,905-0016,,名護市,大東1-5-34, 名護市 大東1-5-34
あき内科クリニック,905-0006,,名護市,宇茂佐919-7　1F, 名護市 宇茂佐919-7　1F
新垣耳鼻咽喉科,905-0011,,名護市,宮里453-7, 名護市 宮里453-7
伊差川整形外科,905-1152,,名護市,伊差川309-1, 名護市 伊差川309-1
うりずん診療所,905-0011,,名護市,宮里1004, 名護市 宮里1004
運天産婦人科医院,905-0017,,名護市,大3-1-5, 名護市 大3-1-5
大北内科･胃腸科クリニック,905-0019,,名護市,大北3-1-48, 名護市 大北3-1-48
おおにし医院,905-0013,,名護市,城2-10-16, 名護市 城2-10-16
大宮医院,905-0011,,名護市,宮里3-1-20, 名護市 宮里3-1-20
かじまやリゾートクリニック,905-0011,,名護市,宮里518-2, 名護市 宮里518-2
勝山病院,905-0007,,名護市,屋部468-1, 名護市 屋部468-1
儀保小児科･内科医院,905-0018,,名護市,大西2-4-32, 名護市 大西2-4-32
久志診療所,905-2264,,名護市,三原64-7, 名護市 三原64-7
クリニック和睦,905-0012,,名護市,名護4558-48, 名護市 名護4558-48
さくら眼科,905-1152,,名護市,伊差川310-1, 名護市 伊差川310-1
スポーク・クリニック,905-0007,,名護市,屋部117, 名護市 屋部117
名護療育医療センター附属　育ちのクリニック,905-0016,,名護市,大東2-23-30, 名護市 大東2-23-30
たいようのクリニック,905-0018,,名護市,大西3-15-1, 名護市 大西3-15-1
たいら内科クリニック,905-0011,,名護市,宮里6-8-7, 名護市 宮里6-8-7
たまき産婦人科,905-0019,,名護市,大北5-3-4, 名護市 大北5-3-4
ちはる眼科,905-0011,,名護市,宮里6-8-7, 名護市 宮里6-8-7
中央外科,905-0013,,名護市,城1-1-12, 名護市 城1-1-12
ちゅら海クリニック　(腎臓病医療センター),905-0006,,名護市,宇茂佐1710-25, 名護市 宇茂佐1710-25
辻眼科,905-0011,,名護市,宮里1-26-11, 名護市 宮里1-26-11
なかち泌尿器科クリニック,905-0017,,名護市,大5-4-50, 名護市 大5-4-50
名嘉眞皮膚科,905-0016,,名護市,大東1-10-13, 名護市 大東1-10-13
名護記念クリニック,905-0011,,名護市,宮里7-22-35, 名護市 宮里7-22-35
名護市屋我地診療所,905-1632,,名護市,饒平名460-1, 名護市 饒平名460-1
名護皮ふ科,905-0019,,名護市,大北1-2-34, 名護市 大北1-2-34
なごみ医院,905-0016,,名護市,大東1-15-6, 名護市 大東1-15-6
名護療育医療センター,905-0006,,名護市,宇茂佐1765, 名護市 宇茂佐1765
ひだか脳神経外科,905-0006,,名護市,宇茂佐1746-6, 名護市 宇茂佐1746-6
平安山医院,905-0006,,名護市,宇茂佐1702-1, 名護市 宇茂佐1702-1
北部皮フ科クリニック,905-0019,,名護市,大北3-9-7, 名護市 大北3-9-7
北部山里クリニック,905-0015,,名護市,大南2-12-26, 名護市 大南2-12-26
宮里病院,905-0006,,名護市,宇茂佐1763-2, 名護市 宇茂佐1763-2
みみ・はな・のど　ゆいクリニック,905-0019,,名護市,大北5-22-25, 名護市 大北5-22-25
メンタルクリニックやんばる,905-0009,,名護市,宇茂佐の森1-2-9, 名護市 宇茂佐の森1-2-9
やんばる協同クリニック,905-0019,,名護市,大北5-3-2, 名護市 大北5-3-2
ゆうクリニック,905-0009,,名護市,宇茂佐の森1-1-5, 名護市 宇茂佐の森1-1-5
よなみね内科クリニック,905-0006,,名護市,宇茂佐1705-25, 名護市 宇茂佐1705-25
北部地区医師会病院　,905-0006,,名護市,宇茂佐1712-3, 名護市 宇茂佐1712-3
北部地区医師会附属病院,905-0006,,名護市,宇茂佐1710-9, 名護市 宇茂佐1710-9
国頭村立東部へき地診療所,905-1503,,国頭郡国頭村,安田170, 国頭郡国頭村 安田170
沖縄県立北部病院,905-0017,,名護市,大2-12-3, 名護市 大2-12-3
小堂小児科内科医院,905-1152,,名護市,伊佐川125-1, 名護市 伊佐川125-1
大兼久医院,905-0013,,名護市,城1-1-13, 名護市 城1-1-13
シーサークリニック,905-0011,,名護市,宮里5-15-15　1F, 名護市 宮里5-15-15　1F
琉球未来クリニック,905-0009,,名護市,宇茂佐の森5-5-8, 名護市 宇茂佐の森5-5-8
上原薬局,905-1411,,国頭郡国頭村,辺土名215-1, 国頭郡国頭村 辺土名215-1
くにがみ薬局,905-1411,,国頭郡国頭村,辺土名139, 国頭郡国頭村 辺土名139
ふる里薬局,905-1311,,国頭郡大宜味村,塩屋1306-63, 国頭郡大宜味村 塩屋1306-63
謝名薬局,905-0414,,国頭郡今帰仁村,謝名443-3, 国頭郡今帰仁村 謝名443-3
大見薬局　大浜店,905-0212,,国頭郡本部町,大浜874-2, 国頭郡本部町 大浜874-2
ふく薬局　もとぶ店,905-0212,,国頭郡本部町,大浜880-4, 国頭郡本部町 大浜880-4
もとぶ薬局,905-0212,,国頭郡本部町,大浜880-3, 国頭郡本部町 大浜880-3
名護薬局,905-0013,,名護市,城1-1-3, 名護市 城1-1-3
なかむら薬局,905-0016,,名護市,大東2-23-27, 名護市 大東2-23-27
辺土名薬局,905-0011,,名護市,宮里1-21-11, 名護市 宮里1-21-11
オギドウ薬局,905-0011,,名護市,宮里453-6, 名護市 宮里453-6
池宮薬局,905-1152,,名護市,伊差川67, 名護市 伊差川67
伊差川薬局,905-1152,,名護市,伊佐川274, 名護市 伊佐川274
ハーモニー薬局,905-0011,,名護市,宮里6-2-9, 名護市 宮里6-2-9
しろがね薬局,905-0011,,名護市,宮里1006-1, 名護市 宮里1006-1
まるよし薬局,905-0019,,名護市,大北1-5-6, 名護市 大北1-5-6
ふく薬局　うむさ店,905-0006,,名護市,宇茂佐1760-1, 名護市 宇茂佐1760-1
すこやか薬局　大北店,905-0019,,名護市,大北1-2-36, 名護市 大北1-2-36
北部地区薬剤師会会営薬局,905-0006,,名護市,宇茂佐1712-17, 名護市 宇茂佐1712-17
ナゴラン薬局,905-0009,,名護市,宇茂佐の森1-1-7, 名護市 宇茂佐の森1-1-7
サンキュウファーマシー　うむさ店,905-0006,,名護市,宇茂佐1758-1, 名護市 宇茂佐1758-1
ハーモニー薬局　大宮店,905-0011,,名護市,宮里3-1-9　1F, 名護市 宮里3-1-9　1F
さくら薬局　ICHI,905-0019,,名護市,大北3-5-2　101号, 名護市 大北3-5-2　101号
クイック調剤薬局　名護店,905-0019,,名護市,大北5-22-26, 名護市 大北5-22-26
大北健康堂薬局,905-0019,,名護市,大北3-1-63, 名護市 大北3-1-63
健康堂薬局,905-0013,,名護市,城1-2-24, 名護市 城1-2-24
たまき薬局,905-0018,,名護市,大西3-15-4, 名護市 大西3-15-4
ゆい大東薬局,905-0016,,名護市,大東1-15-7, 名護市 大東1-15-7
ふく薬局　なご店,905-0011,,名護市,宮里6-8-36, 名護市 宮里6-8-36
屋嘉比薬局,905-0013,,名護市,城2-1-28, 名護市 城2-1-28
ぱいん薬局　おおひがし店,905-0016,,名護市,大東1-5-26, 名護市 大東1-5-26
病院前薬局,905-0016,,名護市,大東3-21-22, 名護市 大東3-21-22
クイック調剤薬局　名護バスターミナル前店,905-0006,,名護市,宇茂佐919-7, 名護市 宇茂佐919-7
名護中央薬局　城店,905-0013,,名護市,城2-10-14, 名護市 城2-10-14
名護中央薬局　大中店,905-0017,,名護市,大5-4-47, 名護市 大5-4-47
屋我地薬局,905-1632,,名護市,饒平名465-1, 名護市 饒平名465-1
神山薬局名護,905-0016,,名護市,大東1-1-8, 名護市 大東1-1-8
サンキュウファーマシー　名護店,905-0019,,名護市,大北5-3-6, 名護市 大北5-3-6
国頭村立辺土名歯科診療所,905-1411,,国頭郡国頭村,辺土名1458, 国頭郡国頭村 辺土名1458
のと歯科,905-1411,,国頭郡国頭村,辺土名2141-1, 国頭郡国頭村 辺土名2141-1
東村歯科診療所,905-1204,,国頭郡東村,平良550, 国頭郡東村 平良550
大宜味村立歯科診療所,905-1311,,国頭郡大宜味村,塩屋987-3, 国頭郡大宜味村 塩屋987-3
おっぱ歯科医院,905-0414,,国頭郡今帰仁村,謝名621-1, 国頭郡今帰仁村 謝名621-1
北山歯科医院,905-0401,,国頭郡今帰仁村,仲宗根279-4, 国頭郡今帰仁村 仲宗根279-4
美ら海デンタルクリニック,905-0414,,国頭郡今帰仁村,謝名159, 国頭郡今帰仁村 謝名159
金城歯科医院,905-0214,,国頭郡本部町,渡久地142-1, 国頭郡本部町 渡久地142-1
もとぶ歯科医院,905-0212,,国頭郡本部町,大浜858-8, 国頭郡本部町 大浜858-8
本部マリン歯科,905-0214,,国頭郡本部町,渡久地799-1, 国頭郡本部町 渡久地799-1
らいおん歯科,905-0214,,国頭郡本部町,渡久地231, 国頭郡本部町 渡久地231
あさと歯科医院,905-0011,,名護市,宮里7-4-14, 名護市 宮里7-4-14
あらさき歯科クリニック,905-0019,,名護市,大北5-22-25, 名護市 大北5-22-25
オアシス歯科医院,905-0021,,名護市,東江1-25-14　1F, 名護市 東江1-25-14　1F
おおきた歯科,905-0019,,名護市,大北1-1-34　1F, 名護市 大北1-1-34　1F
がなは歯科,905-0018,,名護市,大西1-1-1　2F, 名護市 大西1-1-1　2F
キラリ・デンタルケアクリニック,905-0013,,名護市,城2-10-20　1F, 名護市 城2-10-20　1F
くまがい歯科クリニック,905-0009,,名護市,宇茂佐の森4-7-10, 名護市 宇茂佐の森4-7-10
グリーンデンタルクリニック,905-0018,,名護市,大西4-4-14, 名護市 大西4-4-14
こうげん歯科医院,905-0011,,名護市,宮里1-1-52, 名護市 宮里1-1-52
歯科口腔外科クリニック,905-0013,,名護市,城1-1-19, 名護市 城1-1-19
とおる歯科,905-0015,,名護市,大南1-10-12　南進ビル2F, 名護市 大南1-10-12　南進ビル2F
とよはら歯科医院,905-2172,,名護市,豊原169-1, 名護市 豊原169-1
名嘉真歯科医院,905-0016,,名護市,大東1-11-15, 名護市 大東1-11-15
ながた歯科医院,905-0011,,名護市,宮里1-28-8　3F, 名護市 宮里1-28-8　3F
名護カムカム歯科医院,905-1152,,名護市,伊差川7, 名護市 伊差川7
なごみの森歯科,905-0012,,名護市,名護4558-53, 名護市 名護4558-53
ハート歯科,905-0019,,名護市,大北5-2-3　2F, 名護市 大北5-2-3　2F
パール歯科クリニック,905-0021,,名護市,東江4-6-17, 名護市 東江4-6-17
羽地歯科医院,905-1152,,名護市,伊差川313-1, 名護市 伊差川313-1
ひで歯科クリニック,905-1152,,名護市,伊差川514　1F, 名護市 伊差川514　1F
まきや歯科医院,905-0016,,名護市,大東1-18-11　1F, 名護市 大東1-18-11　1F
正和歯科,905-0016,,名護市,大東1-14-17, 名護市 大東1-14-17
宮里歯科医院,905-0016,,名護市,大東3-21-22, 名護市 大東3-21-22
役所前歯科医院,905-0011,,名護市,宮里445-6　101号, 名護市 宮里445-6　101号
やんばる歯科医院,905-0019,,名護市,大北1-23-2, 名護市 大北1-23-2
よなみね歯科,905-0011,,名護市,宮里6-1-8　１F, 名護市 宮里6-1-8　１F
住宅型有料老人ホーム　ゆたか,901-0311,,糸満市,字武富98番地, 糸満市 字武富98番地
サンテラス西崎,901-0306,,糸満市,西崎町3丁目379番地, 糸満市 西崎町3丁目379番地
住宅型有料老人ホーム　フェアネス城,9011103,,島尻郡南風原町,与那覇531番地　2階、3階, 島尻郡南風原町 与那覇531番地　2階、3階
住宅型有料老人ホーム　ゆうらく寿,901-0241,,豊見城市,豊見城1007番地24, 豊見城市 豊見城1007番地24
住宅型有料老人ホーム　上田てぃんさぐの丘,901-0243,,豊見城市,字上田234番地1, 豊見城市 字上田234番地1
サービス付き高齢者向け住宅ゆいまーるの丘,901-0504,,島尻郡八重瀬町,後原1194, 島尻郡八重瀬町 後原1194
はえばる北クリニック,901-1103,,島尻郡南風原町,字与那覇２８３番地, 島尻郡南風原町 字与那覇２８３番地
比嘉胃腸科内科,901-1116,,島尻郡南風原町,照屋３６２番地3, 島尻郡南風原町 照屋３６２番地3
ロコモクリニック南城,901-0618,,南城市,玉城字船越９４９ー４, 南城市 玉城字船越９４９ー４
みやぎ内科,901-0223,,豊見城市,翁長８６９, 豊見城市 翁長８６９
南城つはこクリニック,901-1414,,南城市,佐敷字津波古４３３番地, 南城市 佐敷字津波古４３３番地
もりクリニック,901-0244,,豊見城市,宜保２９３番地1　201号, 豊見城市 宜保２９３番地1　201号
糸満協同診療所,901-0364,,糸満市,潮崎２丁目１番地１０, 糸満市 潮崎２丁目１番地１０
中村内科胃腸科,901-0512,,島尻郡八重瀬町,字具志１５４－９, 島尻郡八重瀬町 字具志１５４－９
スマイル歯科※会員施設,904-2242,,うるま市,高江洲１０８０－１スマイルビル　２Ｆ, うるま市 高江洲１０８０－１スマイルビル　２Ｆ
米須歯科医院※会員施設,904-2151,,沖縄市,松本４－１８－２, 沖縄市 松本４－１８－２
松川歯科医院※会員施設,904-2172,,沖縄市,泡瀬４－３９－５松川コミュニティビル１Ｆ, 沖縄市 泡瀬４－３９－５松川コミュニティビル１Ｆ
エンゼル歯科※会員施設,901-2227,,宜野湾市,字宇地泊２６５－１, 宜野湾市 字宇地泊２６５－１
まつしま歯科医院※会員施設,904-0115,,中頭郡北谷町,美浜１－１－１０, 中頭郡北谷町 美浜１－１－１０
伊熊歯科,903-0124,,中頭郡西原町,字呉屋１０８－２, 中頭郡西原町 字呉屋１０８－２
パーク歯科※会員施設,904-2215,,うるま市,みどり町１－１－６, うるま市 みどり町１－１－６
かわい歯科医院,904-2215,,うるま市,みどり町４－１２－２５, うるま市 みどり町４－１２－２５
医療法人仁陽会　ファミリー歯科クリニック※会員施設,904-2215,,うるま市,みどり町５－３－１１, うるま市 みどり町５－３－１１
みどり町さくら歯科医院,904-2215,,うるま市,みどり町６－２－１６, うるま市 みどり町６－２－１６
あおば歯科クリニック※会員施設,904-2214,,うるま市,安慶名３８５－２, うるま市 安慶名３８５－２
医療法人社団秋桜会ファーストデンタルクリニックうるま,904-2214,,うるま市,安慶名1-2-18, うるま市 安慶名1-2-18
レーヴ歯科クリニック,904-2214,,うるま市,安慶名二丁目２０番９号　新垣第一ビル１Ｆ, うるま市 安慶名二丁目２０番９号　新垣第一ビル１Ｆ
つばさ歯科クリニック※会員施設,904-2225,,うるま市,喜屋武５６５, うるま市 喜屋武５６５
仲真歯科医院※会員施設,904-2225,,うるま市,喜屋武６９４－３, うるま市 喜屋武６９４－３
金城歯科医院※会員施設,904-2236,,うるま市,喜仲１－７－１９, うるま市 喜仲１－７－１９
うるまデンタルクリニック,904-2244,,うるま市,江洲４５７－１－３Ｆ, うるま市 江洲４５７－１－３Ｆ
医療法人　花の城会　愛の里歯科診療所※会員施設,904-2244,,うるま市,江洲５２２番地１９, うるま市 江洲５２２番地１９
なかま歯科室,904-2244,,うるま市,江洲５９８－４おきなわ未病ケアセンター　１Ｆ, うるま市 江洲５９８－４おきなわ未病ケアセンター　１Ｆ
ふたば歯科クリニック,904-2242,,うるま市,高江洲１０２９番地３　上原マートビル２Ｆ, うるま市 高江洲１０２９番地３　上原マートビル２Ｆ
スマイル歯科※会員施設,904-2242,,うるま市,高江洲１０８０－１スマイルビル　２Ｆ, うるま市 高江洲１０８０－１スマイルビル　２Ｆ
スマート歯科クリニック,904-2223,,うるま市,字具志川３００８－１, うるま市 字具志川３００８－１
うるま中央歯科医院※会員施設,904-2235,,うるま市,字前原３０３ジャスコ具志川店　１Ｆ, うるま市 字前原３０３ジャスコ具志川店　１Ｆ
スター歯科クリニック,904-2233,,うるま市,字豊原下口原７５０, うるま市 字豊原下口原７５０
与勝ホワイト歯科医院,904-2311,,うるま市,勝連南風原４０２５－１, うるま市 勝連南風原４０２５－１
藏當歯科医院※会員施設,904-2312,,うるま市,勝連平安名１４９８－１, うるま市 勝連平安名１４９８－１
幸一デンタルオフィス※会員施設,904-1106,,うるま市,石川１－４７－２６, うるま市 石川１－４７－２６
銀座歯科医院 ※会員施設,904-1106,,うるま市,石川一丁目４番２号, うるま市 石川一丁目４番２号
当山歯科医院※会員施設,904-1106,,うるま市,石川曙２－２－１５, うるま市 石川曙２－２－１５
エース歯科クリニック,904-1111,,うるま市,石川東恩納６２の２, うるま市 石川東恩納６２の２
わかば歯科医院,904-1111,,うるま市,石川東恩納７３３, うるま市 石川東恩納７３３
なごみ歯科クリニック,904-1102,,うるま市,石川東山１－２１－１３, うるま市 石川東山１－２１－１３
医療法人社団健耕会　ゆいまーる歯科,904-1106,,うるま市,石川二丁目１０番１７号１階Ｂ号室, うるま市 石川二丁目１０番１７号１階Ｂ号室
石川歯科医院※会員施設,904-1106,,うるま市,石川二丁目２１－５, うるま市 石川二丁目２１－５
のは歯科クリニック ※会員施設,904-1105,,うるま市,石川白浜１－２－３, うるま市 石川白浜１－２－３
福岡歯科医院※会員施設,904-1105,,うるま市,石川白浜２－９－１２, うるま市 石川白浜２－９－１２
医療法人　右納の会　ちねん歯科医院※会員施設,904-2224,,うるま市,大田８６７－１０, うるま市 大田８６７－１０
たなか歯科医院,904-2213,,うるま市,田場１８１７－１, うるま市 田場１８１７－１
野原歯科医院※会員施設,904-2221,,うるま市,平良川９７－８, うるま市 平良川９７－８
しおみ歯科医院※会員施設,904-2303,,うるま市,与那城１２２－１, うるま市 与那城１２２－１
ほんだ歯科,904-2303,,うるま市,与那城９４－１－２Ｆ, うるま市 与那城９４－１－２Ｆ
屋慶名歯科医院,904-2304,,うるま市,与那城屋慶名１１０３, うるま市 与那城屋慶名１１０３
かりゆし歯科,904-0012,,沖縄市,安慶田２－２４－５２, 沖縄市 安慶田２－２４－５２
ふくち歯科医院,904-0022,,沖縄市,園田１－１５－２４, 沖縄市 園田１－１５－２４
金城歯科医院※会員施設,904-2162,,沖縄市,海邦２－１－２９, 沖縄市 海邦２－１－２９
照屋歯科医院※会員施設,904-0023,,沖縄市,久保田３－１－１２, 沖縄市 久保田３－１－１２
東歯科医院,904-2165,,沖縄市,宮里１－１５－８, 沖縄市 宮里１－１５－８
とぐち歯科 ※会員施設,904-2165,,沖縄市,宮里四丁目２番１０号, 沖縄市 宮里四丁目２番１０号
あきの歯科医院,904-2165,,沖縄市,宮里二丁目２５番３号, 沖縄市 宮里二丁目２５番３号
Ｋデンタルオフィス,904-2161,,沖縄市,古謝２丁目２０番１号, 沖縄市 古謝２丁目２０番１号
クリスタル　デンタル　クリニック,904-2161,,沖縄市,古謝９７７－１１　メゾン美希１Ｆ, 沖縄市 古謝９７７－１１　メゾン美希１Ｆ
なかわか歯科医院※会員施設,904-2166,,沖縄市,古謝津嘉山町２８番７号, 沖縄市 古謝津嘉山町２８番７号
室川ファミリー歯科※会員施設,904-0021,,沖縄市,胡屋１－２－１, 沖縄市 胡屋１－２－１
みんなの歯医者さん※会員施設,904-0021,,沖縄市,胡屋２－１６－２, 沖縄市 胡屋２－１６－２
比嘉デンタルクリニック※会員施設,904-0021,,沖縄市,胡屋４－６－１１, 沖縄市 胡屋４－６－１１
のぞみ歯科クリニック,904-0021,,沖縄市,胡屋４丁目１４番２８号, 沖縄市 胡屋４丁目１４番２８号
あさと歯科クリニック ※会員施設,904-2171,,沖縄市,高原1-11-9　名嘉真ﾏﾝｼｮﾝ1F, 沖縄市 高原1-11-9　名嘉真ﾏﾝｼｮﾝ1F
村山歯科クリニック※会員施設,904-2171,,沖縄市,高原４－２０－３７, 沖縄市 高原４－２０－３７
ちむわざ歯科※会員施設,904-2171,,沖縄市,高原５－３－７高江第３ビル１Ｆ, 沖縄市 高原５－３－７高江第３ビル１Ｆ
ヒロ歯科クリニック※会員施設,904-2171,,沖縄市,高原５－９－３２, 沖縄市 高原５－９－３２
玉城歯科医院 ※会員施設,904-2171,,沖縄市,高原５丁目１番１８号, 沖縄市 高原５丁目１番１８号
カントリー歯科クリニック※会員施設,904-2171,,沖縄市,高原６丁目１３番６号, 沖縄市 高原６丁目１３番６号
おおにし歯科医院 ※会員施設,904-0034,,沖縄市,山内２－７－１９, 沖縄市 山内２－７－１９
ももやま歯科クリニック,904-0034,,沖縄市,山内３－９－１０, 沖縄市 山内３－９－１０
コザ歯科クリニック※会員施設,904-0034,,沖縄市,山内４丁目１４番７号, 沖縄市 山内４丁目１４番７号
いしみね歯科クリニック ※会員施設,904-0033,,沖縄市,山里２－２－９, 沖縄市 山里２－２－９
宮城歯科クリニック※会員施設,904-0033,,沖縄市,山里２－７－２おおやまビル　２Ｆ, 沖縄市 山里２－７－２おおやまビル　２Ｆ
なかむら歯科※会員施設,904-0013,,沖縄市,室川２－３３－２０, 沖縄市 室川２－３３－２０
こうち歯科医院※会員施設,904-0003,,沖縄市,住吉１－２－２６住吉ビル　２Ｆ, 沖縄市 住吉１－２－２６住吉ビル　２Ｆ
諸見歯科医院※会員施設,904-0032,,沖縄市,諸見里３－４７－２６, 沖縄市 諸見里３－４７－２６
ともよせ歯科※会員施設,904-2151,,沖縄市,松本１－４－９, 沖縄市 松本１－４－９
うしお歯科クリニック,904-2151,,沖縄市,松本２－１４－３０, 沖縄市 松本２－１４－３０
米須歯科医院,,,"","",  
そら歯科クリニック※会員施設,904-2151,,沖縄市,松本８８７－２　１Ｆ, 沖縄市 松本８８７－２　１Ｆ
みやくに歯科,904-0011,,沖縄市,照屋２－２２－２７, 沖縄市 照屋２－２２－２７
医療法人　敬真会　大城歯科医院 ※会員施設,904-0011,,沖縄市,照屋５－１９－６　2階, 沖縄市 照屋５－１９－６　2階
中の町ホワイト歯科医院※会員施設,904-0031,,沖縄市,上地二丁目９番１号２Ｆ, 沖縄市 上地二丁目９番１号２Ｆ
大田歯科クリニック,904-0002,,沖縄市,城前町１５－３, 沖縄市 城前町１５－３
まぁる歯科医院 ※会員施設,904-2143,,沖縄市,知花１丁目２７－２０, 沖縄市 知花１丁目２７－２０
ひまわり歯科,904-2143,,沖縄市,知花６－１－３６, 沖縄市 知花６－１－３６
中頭歯科診療室※会員施設,904-2143,,沖縄市,知花６－２５－１５コンシュル知花２Ｆ, 沖縄市 知花６－２５－１５コンシュル知花２Ｆ
Ｔａｋｅｓｈｉｍａ　Ｄｅｎｔａｌ　Ｏｆｆｉｃｅ,904-2143,,沖縄市,知花６丁目８番２１号, 沖縄市 知花６丁目８番２１号
くろしま歯科クリニック ※会員施設,904-0004,,沖縄市,央１－２４－８, 沖縄市 央１－２４－８
げんき歯科矯正クリニック,904-0004,,沖縄市,央１－３６－１３－２Ｆ, 沖縄市 央１－３６－１３－２Ｆ
みきお歯科医院 ※会員施設,904-2142,,沖縄市,登川１－１３－１９, 沖縄市 登川１－１３－１９
北美歯科クリニック,904-2142,,沖縄市,登川７０１－１, 沖縄市 登川７０１－１
医療法人福木会　カムカム歯科医院,904-2154,,沖縄市,東二丁目２５番５号, 沖縄市 東二丁目２５番５号
へしき歯科　小児歯科,904-2173,,沖縄市,比屋根２－８－１２, 沖縄市 比屋根２－８－１２
歯のお医者さん ※会員施設,904-2155,,沖縄市,美原１－２０－１１, 沖縄市 美原１－２０－１１
とけし歯科クリニック ※会員施設,904-2155,,沖縄市,美原２－１８－１, 沖縄市 美原２－１８－１
ＳＭＩＬＥ　ＤＥＳＩＧＮ　美里歯科医院 ※会員施設,904-2155,,沖縄市,美原４－４－２, 沖縄市 美原４－４－２
サクラ　デンタルクリニック,904-2155,,沖縄市,美原４－７－９, 沖縄市 美原４－７－９
まえかわ歯科医院 ※会員施設,904-2155,,沖縄市,美原４丁目２番２号, 沖縄市 美原４丁目２番２号
ひらた歯科クリニック,904-2155,,沖縄市,美原一丁目１１番２８号, 沖縄市 美原一丁目１１番２８号
くでけん歯科 ※会員施設,904-2153,,沖縄市,美里５丁目８番２８号, 沖縄市 美里５丁目８番２８号
しょきた歯科医院,904-2172,,沖縄市,泡瀬４－２３－１０, 沖縄市 泡瀬４－２３－１０
グリーン歯科医院,904-2172,,沖縄市,泡瀬４－２４－２２, 沖縄市 泡瀬４－２４－２２
松川歯科医院※会員施設,904-2172,,沖縄市,泡瀬４－３９－５松川コミュニティビル１Ｆ, 沖縄市 泡瀬４－３９－５松川コミュニティビル１Ｆ
ハート歯科※会員施設,904-2172,,沖縄市,泡瀬４－４－１　２Ｆ, 沖縄市 泡瀬４－４－１　２Ｆ
イオンタウンあわせ歯科,904-2172,,沖縄市,泡瀬４－５－７泡瀬店１階, 沖縄市 泡瀬４－５－７泡瀬店１階
たけしま歯科・小児歯科※会員施設,904-2143,,沖縄市,沖繩市知花１丁目２５番１１号, 沖縄市 沖繩市知花１丁目２５番１１号
あいち歯科クリニック,901-2206,,宜野湾市,愛知一丁目２番１５号登川ビル２Ｆ, 宜野湾市 愛知一丁目２番１５号登川ビル２Ｆ
ラッキーデンタ・ランド歯科クリニック※会員施設,901-2206,,宜野湾市,愛知一丁目５番１５号比嘉ファッションビル　２Ｆ, 宜野湾市 愛知一丁目５番１５号比嘉ファッションビル　２Ｆ
花城歯科※会員施設,901-2221,,宜野湾市,伊佐３－２－１, 宜野湾市 伊佐３－２－１
なかざと歯科医院 ※会員施設,901-2227,,宜野湾市,宇地泊７０１番地ＮＤビル２階, 宜野湾市 宇地泊７０１番地ＮＤビル２階
山川歯科医院,901-2226,,宜野湾市,嘉数４－２６－１０ヤマカワビルアネックス, 宜野湾市 嘉数４－２６－１０ヤマカワビルアネックス
セルージュデンタルクリニック※会員施設,901-2214,,宜野湾市,我如古１丁目３４－５, 宜野湾市 我如古１丁目３４－５
あさひ歯科医院,901-2214,,宜野湾市,我如古２－３２－１８, 宜野湾市 我如古２－３２－１８
中澤歯科医院,901-2214,,宜野湾市,我如古２－３－７, 宜野湾市 我如古２－３－７
パワー２″・歯科,901-2214,,宜野湾市,我如古３－１２－１７シティーライツ我如古１０３号, 宜野湾市 我如古３－１２－１７シティーライツ我如古１０３号
仲村歯科※会員施設,901-2214,,宜野湾市,我如古４－５－６, 宜野湾市 我如古４－５－６
おさむファミリー歯科クリニック ※会員施設,901-2222,,宜野湾市,喜友名１丁目３１－２番地, 宜野湾市 喜友名１丁目３１－２番地
ホワイト歯科,901-2211,,宜野湾市,宜野湾３丁目２番２６号, 宜野湾市 宜野湾３丁目２番２６号
しらゆり歯科,901-2213,,宜野湾市,志真志１－１－２, 宜野湾市 志真志１－１－２
もりや歯科医院,901-2213,,宜野湾市,志真志１－６－５朝孝ビル１階, 宜野湾市 志真志１－６－５朝孝ビル１階
エンゼル歯科※会員施設,901-2227,,宜野湾市,字宇地泊２６５－１, 宜野湾市 字宇地泊２６５－１
医療法人翔志会　なかむら歯科医院 ※会員施設,901-2204,,宜野湾市,上原１－６－５, 宜野湾市 上原１－６－５
比嘉歯科医院※会員施設,901-2201,,宜野湾市,新城１－３６－１, 宜野湾市 新城１－３６－１
いすの木デンタルクリニック,901-2201,,宜野湾市,新城１－５－１２, 宜野湾市 新城１－５－１２
仲尾歯科医院※会員施設,901-2215,,宜野湾市,真栄原１－１０－５, 宜野湾市 真栄原１－１０－５
生田歯科医院,901-2215,,宜野湾市,真栄原３－３５－３, 宜野湾市 真栄原３－３５－３
渡瀬歯科,901-2224,,宜野湾市,真志喜２－１－１, 宜野湾市 真志喜２－１－１
太陽歯科医院,901-2224,,宜野湾市,真志喜２－１１－１, 宜野湾市 真志喜２－１１－１
はごろもファミリー歯科※会員施設,901-2224,,宜野湾市,真志喜２－１３－１３，１Ｆ, 宜野湾市 真志喜２－１３－１３，１Ｆ
ハート歯科,901-2207,,宜野湾市,神山一丁目５番６５号, 宜野湾市 神山一丁目５番６５号
医療法人　健歯会　わかばの森歯科医院 ※会員施設,901-2205,,宜野湾市,赤道１－１－１, 宜野湾市 赤道１－１－１
パール歯科,901-2205,,宜野湾市,赤道１－３－１, 宜野湾市 赤道１－３－１
大山歯科クリニック,901-2223,,宜野湾市,大山４－２－５, 宜野湾市 大山４－２－５
ライフデンタルクリニック,901-2223,,宜野湾市,大山６－２４－９, 宜野湾市 大山６－２４－９
ともえ歯科クリニック,901-2225,,宜野湾市,大謝名１－１７－３３ＢＡＲＮビル, 宜野湾市 大謝名１－１７－３３ＢＡＲＮビル
医療法人照道会　オリーブ歯科医院,901-2225,,宜野湾市,大謝名１－２－２, 宜野湾市 大謝名１－２－２
じのん矯正歯科クリニック,901-2225,,宜野湾市,大謝名１７２番地, 宜野湾市 大謝名１７２番地
あつみ歯科医院※会員施設,901-2225,,宜野湾市,大謝名１丁目１５番１４号, 宜野湾市 大謝名１丁目１５番１４号
マリーナ歯科クリニック,901-2225,,宜野湾市,大謝名２２２番地　ルビア１Ｆ, 宜野湾市 大謝名２２２番地　ルビア１Ｆ
優和デンタルクリニック,901-2212,,宜野湾市,長田１－１９－１０, 宜野湾市 長田１－１９－１０
長田歯科医院※会員施設,901-2212,,宜野湾市,長田３－３５－９, 宜野湾市 長田３－３５－９
中原歯科医院※会員施設,901-2202,,宜野湾市,普天間１－１０－１４, 宜野湾市 普天間１－１０－１４
高橋歯科医院※会員施設,901-2202,,宜野湾市,普天間１－２６－８, 宜野湾市 普天間１－２６－８
てぃーだ歯科,901-2202,,宜野湾市,普天間２丁目１４－１　サンフティーマ, 宜野湾市 普天間２丁目１４－１　サンフティーマ
のだけ歯科クリニック ※会員施設,901-2203,,宜野湾市,野嵩１－９－１５メゾン松川１０１号, 宜野湾市 野嵩１－９－１５メゾン松川１０１号
あらかき歯科クリニック ※会員施設,901-2203,,宜野湾市,野嵩２－３４－９, 宜野湾市 野嵩２－３４－９
あら歯科医院 ※会員施設,901-2203,,宜野湾市,野嵩２丁目２番３号, 宜野湾市 野嵩２丁目２番３号
デイゴ歯科医院,901-2203,,宜野湾市,野嵩４－１－１３, 宜野湾市 野嵩４－１－１３
大久保歯科,904-0404,,国頭郡恩納村,瀬良垣４６９番地, 国頭郡恩納村 瀬良垣４６９番地
和歯科,904-0413,,国頭郡恩納村,冨着５７６－１－２Ｆ, 国頭郡恩納村 冨着５７６－１－２Ｆ
まつだ歯科医院,904-1301,,国頭郡宜野座村,字松田６３６－１, 国頭郡宜野座村 字松田６３６－１
あすなろ歯科医院,904-1303,,国頭郡宜野座村,字惣慶１８２７－２, 国頭郡宜野座村 字惣慶１８２７－２
ピッコロ歯科,904-1202,,国頭郡金武町,伊芸８５－１メゾン伊芸１Ｆ, 国頭郡金武町 伊芸８５－１メゾン伊芸１Ｆ
ひまわり歯科クリニック,904-1201,,国頭郡金武町,金武３９９－１, 国頭郡金武町 金武３９９－１
エンゼル歯科,904-1201,,国頭郡金武町,金武５７, 国頭郡金武町 金武５７
医療法人山内矯正歯科クリニック※会員施設,904-0203,,中頭郡嘉手納町,嘉手納２７０－１９, 中頭郡嘉手納町 嘉手納２７０－１９
知花歯科医院※会員施設,904-0203,,中頭郡嘉手納町,嘉手納２８１, 中頭郡嘉手納町 嘉手納２８１
上運天歯科矯正歯科※会員施設,904-0203,,中頭郡嘉手納町,嘉手納２９０－４　２Ｆ, 中頭郡嘉手納町 嘉手納２９０－４　２Ｆ
みずがま歯科※会員施設,904-0204,,中頭郡嘉手納町,水釜３７３－２５５, 中頭郡嘉手納町 水釜３７３－２５５
なかお歯科クリニック※会員施設,904-0204,,中頭郡嘉手納町,水釜３７９－１２, 中頭郡嘉手納町 水釜３７９－１２
南歯科医院,903-0117,,中頭郡西原町,翁長２４０－５, 中頭郡西原町 翁長２４０－５
まちだ歯科クリニック,903-0117,,中頭郡西原町,翁長５０４, 中頭郡西原町 翁長５０４
城北歯科医院,903-0117,,中頭郡西原町,翁長５２３－１山善ビル１Ｆ, 中頭郡西原町 翁長５２３－１山善ビル１Ｆ
石川歯科医院※会員施設,903-0102,,中頭郡西原町,嘉手苅７８－１, 中頭郡西原町 嘉手苅７８－１
あらかわ歯科※会員施設,903-0112,,中頭郡西原町,我謝２４１－６６, 中頭郡西原町 我謝２４１－６６
備瀬歯科医院,903-0104,,中頭郡西原町,兼久４－２, 中頭郡西原町 兼久４－２
さわふじ歯科※会員施設,903-0124,,中頭郡西原町,呉屋９３－１, 中頭郡西原町 呉屋９３－１
サンユー歯科,903-0122,,中頭郡西原町,小橋川１５４－５玉那覇ビル１Ｆ, 中頭郡西原町 小橋川１５４－５玉那覇ビル１Ｆ
平良歯科クリニック※会員施設,903-0103,,中頭郡西原町,小那覇６３９, 中頭郡西原町 小那覇６３９
幡歯科医院,903-0126,,中頭郡西原町,棚原３５０－１, 中頭郡西原町 棚原３５０－１
中城みなみ歯科,901-2424,,中頭郡中城村,字南上原８３５－１サンヴェスタ１０２号, 中頭郡中城村 字南上原８３５－１サンヴェスタ１０２号
医療法人社団　恵仁会　エンジェル歯科,901-2413,,中頭郡中城村,津覇６４０番地２, 中頭郡中城村 津覇６４０番地２
うえばる歯科医院,901-2424,,中頭郡中城村,南上原１０５８－４, 中頭郡中城村 南上原１０５８－４
グレイスデンタルクリニック※会員施設,901-2424,,中頭郡中城村,南上原３６４－１, 中頭郡中城村 南上原３６４－１
さおり歯科クリニック,901-2424,,中頭郡中城村,南上原５５６番地, 中頭郡中城村 南上原５５６番地
しもデンタルクリニック,901-2424,,中頭郡中城村,南上原７７０－２　ハピネスハイツ１０２, 中頭郡中城村 南上原７７０－２　ハピネスハイツ１０２
つばさデンタルクリニック,901-2424,,中頭郡中城村,南上原９６７，１Ｆ, 中頭郡中城村 南上原９６７，１Ｆ
ながはま歯科 ※会員施設,904-0303,,中頭郡読谷村,伊良皆２６７－３, 中頭郡読谷村 伊良皆２６７－３
グリーン歯科医院 ※会員施設,904-0302,,中頭郡読谷村,喜名４７７－１, 中頭郡読谷村 喜名４７７－１
サンセット歯科クリニック,904-0314,,中頭郡読谷村,古堅６３７番地３, 中頭郡読谷村 古堅６３７番地３
医療法人　健歯会　ふるげん歯科クリニック,904-0314,,中頭郡読谷村,古堅６５６－４, 中頭郡読谷村 古堅６５６－４
医療法人健歯会　珀美歯科,904-0314,,中頭郡読谷村,古堅６７５, 中頭郡読谷村 古堅６７５
読谷歯科医院,904-0323,,中頭郡読谷村,高志保１３１５－１, 中頭郡読谷村 高志保１３１５－１
アイランド・デンタル・リゾート・クリニック,904-0313,,中頭郡読谷村,字大湾３５６番地シナジースクエア１Ｆ, 中頭郡読谷村 字大湾３５６番地シナジースクエア１Ｆ
トリイ歯科医院※会員施設,904-0304,,中頭郡読谷村,楚辺１０９１, 中頭郡読谷村 楚辺１０９１
そべ歯科クリニック※会員施設,904-0304,,中頭郡読谷村,楚辺２０５８－１, 中頭郡読谷村 楚辺２０５８－１
医療法人新崎歯科※会員施設,904-0313,,中頭郡読谷村,大湾４７３, 中頭郡読谷村 大湾４７３
当山歯科医院※会員施設,904-0305,,中頭郡読谷村,都屋１６７－３, 中頭郡読谷村 都屋１６７－３
伊波歯科医院※会員施設,904-0312,,中頭郡読谷村,比謝矼１００, 中頭郡読谷村 比謝矼１００
砂辺スマイル歯科医院,904-0113,,中頭郡北谷町,宮城１－１０５, 中頭郡北谷町 宮城１－１０５
北谷歯科クリニック,904-0113,,中頭郡北谷町,宮城１－３７, 中頭郡北谷町 宮城１－３７
ピース　デンタル　クリニック※会員施設,904-0103,,中頭郡北谷町,桑江４６８－３, 中頭郡北谷町 桑江４６８－３
アイ歯科医院※会員施設,904-0103,,中頭郡北谷町,桑江６２０－１０, 中頭郡北谷町 桑江６２０－１０
比嘉デンタルクリニック,904-0102,,中頭郡北谷町,字伊平２５４, 中頭郡北谷町 字伊平２５４
フェイスデンタルオフィス※会員施設,904-0102,,中頭郡北谷町,字伊平３２７番地１, 中頭郡北谷町 字伊平３２７番地１
沖縄ホワイトデンタルクリニック※会員施設,904-0101,,中頭郡北谷町,上勢８１３－２デザインマンション龍１０１, 中頭郡北谷町 上勢８１３－２デザインマンション龍１０１
平田歯科※会員施設,904-0101,,中頭郡北谷町,上勢８１５－６, 中頭郡北谷町 上勢８１５－６
ちば歯科医院※会員施設,904-0101,,中頭郡北谷町,上勢８２０－１, 中頭郡北谷町 上勢８２０－１
ファミリー歯科医院,904-0104,,中頭郡北谷町,桃原７－６メゾンラック１Ｆ, 中頭郡北谷町 桃原７－６メゾンラック１Ｆ
ユニバーサル矯正歯科クリニック※会員施設,904-0115,,中頭郡北谷町,美浜２－３－１サンライズ１Ｆ, 中頭郡北谷町 美浜２－３－１サンライズ１Ｆ
へんとな歯科医院 ※会員施設,904-0115,,中頭郡北谷町,美浜３－３－５, 中頭郡北谷町 美浜３－３－５
あおぞら歯科,904-0115,,中頭郡北谷町,美浜３丁目６－５　（２Ｆ）, 中頭郡北谷町 美浜３丁目６－５　（２Ｆ）
ハンビー歯科クリニック※会員施設,904-0117,,中頭郡北谷町,北前１－１９－９, 中頭郡北谷町 北前１－１９－９
アラハ歯科,904-0117,,中頭郡北谷町,北前１丁目１７番１１　１階, 中頭郡北谷町 北前１丁目１７番１１　１階
ヤラデンタルクリニック,904-0116,,中頭郡北谷町,北谷２－１７－６ＲＹＯ　ＭＡＮＳＩＯＮ　１０３号, 中頭郡北谷町 北谷２－１７－６ＲＹＯ　ＭＡＮＳＩＯＮ　１０３号
ライカムデンタルクリニック※会員施設,901-2300,,中頭郡北中城村,アワセ土地区画整理事業地内４街区イオンモール沖縄ライカム２階, 中頭郡北中城村 アワセ土地区画整理事業地内４街区イオンモール沖縄ライカム２階
むらの歯医者さん,901-2303,,中頭郡北中城村,仲順３９, 中頭郡北中城村 仲順３９
さんいく　デンタルクリニック,901-2301,,中頭郡北中城村,袋７０５－７, 中頭郡北中城村 袋７０５－７
にこにこ歯科医院,901-2313,,中頭郡北中城村,熱田２０４７, 中頭郡北中城村 熱田２０４７
みどり町クリニック,904-2215,,うるま市,みどり町５－２７－２, うるま市 みどり町５－２７－２
伊波クリニック,904-1115,,うるま市,石川伊波４３１番地, うるま市 石川伊波４３１番地
しろま内科クリニック,904-2225,,うるま市,字喜屋武手振原５４６－１　１Ｆ, うるま市 字喜屋武手振原５４６－１　１Ｆ
愛聖クリニック,904-2171,,沖縄市,高原５－１５－１１, 沖縄市 高原５－１５－１１
仲宗根クリニック,904-2171,,沖縄市,高原７－２３－１４, 沖縄市 高原７－２３－１４
コザクリニック,904-0014,,沖縄市,仲宗根町１９－１, 沖縄市 仲宗根町１９－１
社会医療法人　敬愛会　ちばなクリニック,904-2143,,沖縄市,知花６－２５－１５, 沖縄市 知花６－２５－１５
まつもと胃腸科整形外科医院,904-2151,,沖縄市,松本１－２１－２３, 沖縄市 松本１－２１－２３
和花クリニック,904-2154,,沖縄市,東一丁目５番１７号　２階・３階, 沖縄市 東一丁目５番１７号　２階・３階
まえはら内科,901-2215,,宜野湾市,真栄原３－１９－８, 宜野湾市 真栄原３－１９－８
おやかわクリニック,901-2212,,宜野湾市,長田１丁目２９－１, 宜野湾市 長田１丁目２９－１
クリニックぎのわん,901-2223,,宜野湾市,大山７－７－２２, 宜野湾市 大山７－７－２２
かりゆしクリニック,901-2226,,宜野湾市,嘉数四丁目２５番１５, 宜野湾市 嘉数四丁目２５番１５
光クリニック,901-2226,,宜野湾市,嘉数２丁目２番１号　広栄メディカルビル２Ｆ, 宜野湾市 嘉数２丁目２番１号　広栄メディカルビル２Ｆ
ひでき皮フ科美容クリニック,901-2213,,宜野湾市,志真志一丁目１５番２３号, 宜野湾市 志真志一丁目１５番２３号
恩納クリニック,904-0411,,国頭郡恩納村,字恩納６３２９番地, 国頭郡恩納村 字恩納６３２９番地
きんクリニック,904-1201,,国頭郡金武町,金武９４番地, 国頭郡金武町 金武９４番地
blank,,,"","",  
読谷村診療所,904-0305,,中頭郡読谷村,都屋１７９, 中頭郡読谷村 都屋１７９
しらかわ内科,903-0126,,中頭郡西原町,棚原１丁目２０番地の１０, 中頭郡西原町 棚原１丁目２０番地の１０
ライフケアクリニック長浜,904-0324,,中頭郡読谷村,長浜１５３０－１, 中頭郡読谷村 長浜１５３０－１
玉城ファミリークリニック,904-0305,,中頭郡読谷村,都屋２４５番地, 中頭郡読谷村 都屋２４５番地
玄米クリニック,903-0117,,中頭郡西原町,翁長８３４　トムズエンタープライズビル２Ｆ, 中頭郡西原町 翁長８３４　トムズエンタープライズビル２Ｆ
野村ハートクリニック,904-0202,,中頭郡嘉手納町,屋良１０６３番１, 中頭郡嘉手納町 屋良１０６３番１
ウェルライフクリニックたまき内科,904-0101,,中頭郡北谷町,上勢６３０番地７, 中頭郡北谷町 上勢６３０番地７
ファミリークリニックきたなかぐすく,901-2311,,中頭郡北中城村,字喜舎場３６０番地１, 中頭郡北中城村 字喜舎場３６０番地１
みなみ内科,901-2424,,中頭郡中城村,字南上原１０７２番地, 中頭郡中城村 字南上原１０７２番地
中部協同病院,904-2143,,沖縄市,知花６丁目２５番５号, 沖縄市 知花６丁目２５番５号
玉木病院,901-2206,,宜野湾市,愛知三丁目９番１１号, 宜野湾市 愛知三丁目９番１１号
医療法人緑水会　宜野湾記念病院,901-2211,,宜野湾市,宜野湾３－３－１３, 宜野湾市 宜野湾３－３－１３
独立行政法人国立病院機構　沖縄病院,901-2214,,宜野湾市,我如古３－２０－１４, 宜野湾市 我如古３－２０－１４
医療法人球陽会　海邦病院,901-2224,,宜野湾市,真志喜２－２３－５, 宜野湾市 真志喜２－２３－５
屋宜原病院,901-2304,,中頭郡北中城村,屋宜原７２２番地, 中頭郡北中城村 屋宜原７２２番地
北中城若松病院,901-2395,,中頭郡北中城村,字大城３１１番地, 中頭郡北中城村 字大城３１１番地
中部徳洲会病院,901-2393,,中頭郡北中城村,アワセ土地区画整理事業地内２街区１番, 中頭郡北中城村 アワセ土地区画整理事業地内２街区１番
うえむら病院,901-2424,,中頭郡中城村,字南上原８０３－３, 中頭郡中城村 字南上原８０３－３
アドベンチスト　メディカルセンター,903-0116,,中頭郡西原町,幸地８６８, 中頭郡西原町 幸地８６８
医療法人卯の会　新垣病院,904-0012,,沖縄市,安慶田４－１０－３, 沖縄市 安慶田４－１０－３
医療法人　心和会　潮平病院,904-0021,,沖縄市,胡屋1丁目17番1号, 沖縄市 胡屋1丁目17番1号
翔南病院,904-0034,,沖縄市,山内３－１４－２８, 沖縄市 山内３－１４－２８
北谷病院,904-0101,,中頭郡北谷町,字上勢６３１番地４, 中頭郡北谷町 字上勢６３１番地４
北上中央病院,904-0101,,中頭郡北谷町,上勢６３１－９, 中頭郡北谷町 上勢６３１－９
医療法人仁誠会　名嘉病院,904-0203,,中頭郡嘉手納町,嘉手納２５８, 中頭郡嘉手納町 嘉手納２５８
独立行政法人国立病院機構　琉球病院,904-1201,,国頭郡金武町,金武７９５８－１, 国頭郡金武町 金武７９５８－１
沖縄中央病院,904-2143,,沖縄市,知花５－２６－１, 沖縄市 知花５－２６－１
中部協同病院,904-2143,,沖縄市,知花６丁目２５番５号, 沖縄市 知花６丁目２５番５号
ちゅうざん病院,904-2151,,沖縄市,松本６丁目２番１号, 沖縄市 松本６丁目２番１号
沖縄中部療育医療センター,904-2173,,沖縄市,比屋根五丁目２番１７号, 沖縄市 比屋根五丁目２番１７号
医療法人タピック沖縄リハビリテーションセンター病院,904-2173,,沖縄市,比屋根二丁目１５番１号, 沖縄市 比屋根二丁目１５番１号
うるま記念病院,904-2201,,うるま市,昆布１８３２番地３９７, うるま市 昆布１８３２番地３９７
いずみ病院,904-2205,,うるま市,栄野比1150, うるま市 栄野比1150
医療法人社団志誠会　平和病院,904-2222,,うるま市,上江洲６６５, うるま市 上江洲６６５
名城病院,904-2245,,うるま市,字赤道　１７５番地３, うるま市 字赤道　１７５番地３
医療法人沖縄寿光会　与勝病院,904-2311,,うるま市,勝連南風原３５８４, うるま市 勝連南風原３５８４
社会医療法人　かりゆし会　ハートライフ病院,901-2492,,中頭郡中城村,伊集２０８, 中頭郡中城村 伊集２０８
琉球大学医学部附属病院,903-0125,,中頭郡西原町,上原２０７, 中頭郡西原町 上原２０７
社会医療法人　敬愛会　中頭病院,9040000,,沖縄市,字登川６１０番地, 沖縄市 字登川６１０番地
沖縄県立中部病院,904-2243,,うるま市,宮里２８１番地, うるま市 宮里２８１番地
池原外科胃腸科医院,901-2201,,宜野湾市,新城２－４０－２７, 宜野湾市 新城２－４０－２７
よなみね内科,901-2202,,宜野湾市,普天間２－４－５, 宜野湾市 普天間２－４－５
こはぐら耳鼻咽喉科,901-2202,,宜野湾市,普天間２－４９－１４, 宜野湾市 普天間２－４９－１４
宮城医院,901-2203,,宜野湾市,野嵩１－１０－１１, 宜野湾市 野嵩１－１０－１１
早川眼科医院,901-2203,,宜野湾市,野嵩２丁目２番２号, 宜野湾市 野嵩２丁目２番２号
クリニック・シンフォニア,901-2204,,宜野湾市,上原１－１８－１３ハーモニーマンション１階, 宜野湾市 上原１－１８－１３ハーモニーマンション１階
医療法人やましろ皮フ科,901-2204,,宜野湾市,上原１－２－９, 宜野湾市 上原１－２－９
西平医院,901-2205,,宜野湾市,赤道二丁目２番２号, 宜野湾市 赤道二丁目２番２号
愛知クリニック,901-2206,,宜野湾市,愛知一丁目２番１２号, 宜野湾市 愛知一丁目２番１２号
ひかり眼科,901-2206,,宜野湾市,愛知一丁目２番１号, 宜野湾市 愛知一丁目２番１号
眼科クリニック幸地,901-2211,,宜野湾市,宜野湾２－５－１３, 宜野湾市 宜野湾２－５－１３
うえはらこどもクリニック,901-2212,,宜野湾市,長田１－２６－１９, 宜野湾市 長田１－２６－１９
いきいき耳鼻咽喉科クリニック,901-2212,,宜野湾市,長田１丁目１番３号, 宜野湾市 長田１丁目１番３号
ふくやま整形外科,901-2212,,宜野湾市,長田一丁目２８番１号, 宜野湾市 長田一丁目２８番１号
さよウィメンズ・メンタルクリニック,901-2213,,宜野湾市,志真志４－２４－７沖縄ぎのわんセミナーハウス４Ｆ, 宜野湾市 志真志４－２４－７沖縄ぎのわんセミナーハウス４Ｆ
ひでき皮フ科美容クリニック,901-2213,,宜野湾市,志真志一丁目１５番２３号, 宜野湾市 志真志一丁目１５番２３号
みやぎ小児科クリニック,901-2214,,宜野湾市,我如古４４７－１, 宜野湾市 我如古４４７－１
いなふくクリニック,901-2215,,宜野湾市,真栄原３－１２－２０, 宜野湾市 真栄原３－１２－２０
山内耳鼻咽喉科医院,901-2215,,宜野湾市,真栄原３－２４－１４, 宜野湾市 真栄原３－２４－１４
神元内科医院,901-2215,,宜野湾市,真栄原３－５－３, 宜野湾市 真栄原３－５－３
医療法人宜野湾整形外科医院,901-2215,,宜野湾市,真栄原３－７－７, 宜野湾市 真栄原３－７－７
まえはら心療内科,901-2215,,宜野湾市,真栄原３丁目１７番２号友愛ビル２Ｆ, 宜野湾市 真栄原３丁目１７番２号友愛ビル２Ｆ
いとむクリニック,901-2221,,宜野湾市,伊佐１－１０－９, 宜野湾市 伊佐１－１０－９
しらはまクリニック,901-2221,,宜野湾市,伊佐３丁目９番１９号, 宜野湾市 伊佐３丁目９番１９号
駐留軍要員健保組合　伊佐浜診療所,901-2221,,宜野湾市,伊佐４丁目５番７号, 宜野湾市 伊佐４丁目５番７号
サンクリニック,901-2221,,宜野湾市,伊佐二丁目９番地３５, 宜野湾市 伊佐二丁目９番地３５
順徳医院,901-2225,,宜野湾市,大謝名１－１９－１, 宜野湾市 大謝名１－１９－１
ぎのわんメンタルクリニック,901-2225,,宜野湾市,大謝名１丁目１７番３１号, 宜野湾市 大謝名１丁目１７番３１号
当山産婦人科医院,901-2225,,宜野湾市,大謝名５－２０－８, 宜野湾市 大謝名５－２０－８
沖縄下肢静脈瘤クリニック,901-2225,,宜野湾市,大謝名５丁目６－１崎間ビル１Ｆ, 宜野湾市 大謝名５丁目６－１崎間ビル１Ｆ
喜屋武内科クリニック,901-2226,,宜野湾市,嘉数２－１－１, 宜野湾市 嘉数２－１－１
まみ皮フ科クリニック,901-2226,,宜野湾市,嘉数２丁目２番１号　広栄メディカルビル２Ｆ, 宜野湾市 嘉数２丁目２番１号　広栄メディカルビル２Ｆ
さむら脳神経クリニック,901-2226,,宜野湾市,嘉数二丁目２番１号　広栄メディカルビル１Ｆ, 宜野湾市 嘉数二丁目２番１号　広栄メディカルビル１Ｆ
まえだ眼科,901-2226,,宜野湾市,嘉数二丁目７番１５号, 宜野湾市 嘉数二丁目７番１５号
みみとはなの和クリニック,901-2227,,宜野湾市,宇地泊７０１番地, 宜野湾市 宇地泊７０１番地
長濵眼科,901-2227,,宜野湾市,宇地泊７０１番地, 宜野湾市 宇地泊７０１番地
ちゃたに内科・呼吸器科,901-2227,,宜野湾市,宇地泊７２４－２, 宜野湾市 宇地泊７２４－２
医療法人　新美会　新垣形成外科,901-2227,,宜野湾市,宇地泊７２９番地, 宜野湾市 宇地泊７２９番地
岡こどもクリニック,901-2227,,宜野湾市,宇地泊７７２－１, 宜野湾市 宇地泊７７２－１
じのん整形外科クリニック,901-2227,,宜野湾市,字宇地泊８２０番地, 宜野湾市 字宇地泊８２０番地
古堅ウィメンズクリニック,9012225,,宜野湾市,大謝名１６５番地, 宜野湾市 大謝名１６５番地
ごきげんリハビリクリニック,901-2301,,中頭郡北中城村,袋１２５３番地の４, 中頭郡北中城村 袋１２５３番地の４
仲舛内科,901-2301,,中頭郡北中城村,袋５３４－１２, 中頭郡北中城村 袋５３４－１２
ファミリークリニックきたなかぐすく,901-2311,,中頭郡北中城村,字喜舎場３６０番地１, 中頭郡北中城村 字喜舎場３６０番地１
名城眞治クリニック,901-2317,,中頭郡北中城村,瑞慶覧６４６番地, 中頭郡北中城村 瑞慶覧６４６番地
名城眞治クリニック,901-2317,,中頭郡北中城村,瑞慶覧６４６番地, 中頭郡北中城村 瑞慶覧６４６番地
ひが皮膚科クリニック,901-2401,,中頭郡中城村,久場１２－８, 中頭郡中城村 久場１２－８
わくさん内科,901-2405,,中頭郡中城村,屋宜５９７番地１３, 中頭郡中城村 屋宜５９７番地１３
中部病理診断科,901-2422,,中頭郡中城村,新垣５４５－１, 中頭郡中城村 新垣５４５－１
榕原医院,901-2423,,中頭郡中城村,北上原２８０, 中頭郡中城村 北上原２８０
海風クリニック,901-2424,,中頭郡中城村,字南上原１００５－２, 中頭郡中城村 字南上原１００５－２
今井内科医院,901-2424,,中頭郡中城村,南上原６２０番地１３３街区５画地, 中頭郡中城村 南上原６２０番地１３３街区５画地
やすらぎクリニック,901-2424,,中頭郡中城村,南上原７５０, 中頭郡中城村 南上原７５０
ハートライフクリニック,903-0101,,中頭郡西原町,掛保久２８８番地, 中頭郡西原町 掛保久２８８番地
ゆいゆい内科クリニック,903-0112,,中頭郡西原町,我謝７８６番地１１, 中頭郡西原町 我謝７８６番地１１
あいわクリニック,903-0115,,中頭郡西原町,池田７６６－２, 中頭郡西原町 池田７６６－２
とうま内科,903-0116,,中頭郡西原町,幸地９７２, 中頭郡西原町 幸地９７２
幸地クリニック,903-0116,,中頭郡西原町,幸地９７３, 中頭郡西原町 幸地９７３
城間医院,903-0117,,中頭郡西原町,翁長２４０－７, 中頭郡西原町 翁長２４０－７
儀間クリニック,903-0117,,中頭郡西原町,翁長４１０－１, 中頭郡西原町 翁長４１０－１
玄米クリニック,903-0117,,中頭郡西原町,翁長８３４　トムズエンタープライズビル２Ｆ, 中頭郡西原町 翁長８３４　トムズエンタープライズビル２Ｆ
ＳＡＫＵ整形クリニック,903-0118,,中頭郡西原町,小波津３－５, 中頭郡西原町 小波津３－５
しんざと内科,903-0118,,中頭郡西原町,小波津３－５, 中頭郡西原町 小波津３－５
にしはら耳鼻咽喉科,903-0118,,中頭郡西原町,小波津３－６, 中頭郡西原町 小波津３－６
にしはら皮フ科,903-0118,,中頭郡西原町,小波津三番地の５, 中頭郡西原町 小波津三番地の５
いちょう内科あしとみ,903-0121,,中頭郡西原町,字内間３４５－２, 中頭郡西原町 字内間３４５－２
しろま眼科クリニック,903-0122,,中頭郡西原町,字小橋川１５４番地１３, 中頭郡西原町 字小橋川１５４番地１３
太田小児科医院,903-0122,,中頭郡西原町,小橋川１６４－１, 中頭郡西原町 小橋川１６４－１
のびのび整形外科,903-0126,,中頭郡西原町,棚原１丁目２１番地の８, 中頭郡西原町 棚原１丁目２１番地の８
しらかわ内科,903-0126,,中頭郡西原町,棚原１丁目２０番地の１０, 中頭郡西原町 棚原１丁目２０番地の１０
富名腰医院,904-0003,,沖縄市,住吉１－５－１６, 沖縄市 住吉１－５－１６
医療法人敬真会　大城内科医院,904-0011,,沖縄市,照屋５－１９－６, 沖縄市 照屋５－１９－６
中部産婦人科医院,904-0012,,沖縄市,安慶田１－３－２０, 沖縄市 安慶田１－３－２０
なかいま耳鼻咽喉科,904-0021,,沖縄市,胡屋１－１３－１５, 沖縄市 胡屋１－１３－１５
ガキヤ眼科医院,904-0021,,沖縄市,胡屋１－１－６, 沖縄市 胡屋１－１－６
医療法人白水会　明陽クリニック,904-0022,,沖縄市,園田一丁目４番５号, 沖縄市 園田一丁目４番５号
諸見眼科,904-0022,,沖縄市,園田三丁目８番２７号, 沖縄市 園田三丁目８番２７号
藤真会　プラザクリニック,904-0023,,沖縄市,久保田１－１０－５, 沖縄市 久保田１－１０－５
アイクリニック中の町,904-0031,,沖縄市,上地１－１１－２, 沖縄市 上地１－１１－２
医療法人　桑江皮膚科醫院,904-0031,,沖縄市,上地１－１３－３, 沖縄市 上地１－１３－３
なおまさクリニック,904-0031,,沖縄市,上地２丁目１２番１８号, 沖縄市 上地２丁目１２番１８号
嘉数医院,904-0032,,沖縄市,諸見里１－２６－２, 沖縄市 諸見里１－２６－２
山里整形外科,904-0033,,沖縄市,山里一丁目４番１５号, 沖縄市 山里一丁目４番１５号
三愛眼科,904-0034,,沖縄市,山内１－３－２８, 沖縄市 山内１－３－２８
安立医院,904-0034,,沖縄市,山内１－７－５, 沖縄市 山内１－７－５
北城整形外科,904-0034,,沖縄市,山内２－２５－４１, 沖縄市 山内２－２５－４１
はなしろ小児科,904-0035,,沖縄市,南桃原３－３６－１３, 沖縄市 南桃原３－３６－１３
つかやま耳鼻咽喉科,904-0035,,沖縄市,南桃原４－２８－１０, 沖縄市 南桃原４－２８－１０
桃山クリニック,904-0035,,沖縄市,南桃原三丁目１番１号, 沖縄市 南桃原三丁目１番１号
まちだクリニック,904-0101,,中頭郡北谷町,上勢５５６－３, 中頭郡北谷町 上勢５５６－３
大城皮フ科クリニック,904-0101,,中頭郡北谷町,上勢６２９－１, 中頭郡北谷町 上勢６２９－１
医療法人八重会　たまきクリニック,904-0101,,中頭郡北谷町,上勢８３７－８, 中頭郡北谷町 上勢８３７－８
しんはま耳鼻科・形成外科・しんはま皮ふ科,904-0102,,中頭郡北谷町,字伊平２５０番地, 中頭郡北谷町 字伊平２５０番地
あゆみ眼科,904-0103,,中頭郡北谷町,字桑江１１０番地, 中頭郡北谷町 字桑江１１０番地
とうま整形外科クリニック,904-0103,,中頭郡北谷町,字桑江１２３番地　２階, 中頭郡北谷町 字桑江１２３番地　２階
こばし内科クリニック,904-0103,,中頭郡北谷町,字桑江１２３番地１階, 中頭郡北谷町 字桑江１２３番地１階
やびく産婦人科小児科,904-0111,,中頭郡北谷町,砂辺３０６, 中頭郡北谷町 砂辺３０６
砂辺クリニック,904-0113,,中頭郡北谷町,宮城１－４３, 中頭郡北谷町 宮城１－４３
一般社団法人中部地区医師会検診センター,904-0113,,中頭郡北谷町,宮城１－５８４, 中頭郡北谷町 宮城１－５８４
もりなが内科・小児科クリニック,904-0115,,中頭郡北谷町,美浜二丁目７番４号, 中頭郡北谷町 美浜二丁目７番４号
ロクト整形Ｊ２,904-0202,,中頭郡嘉手納町,屋良１０６３番１, 中頭郡嘉手納町 屋良１０６３番１
医療法人海泉陽の会　中山眼科,904-0203,,中頭郡嘉手納町,嘉手納２８６－２, 中頭郡嘉手納町 嘉手納２８６－２
池原内科医院,904-0203,,中頭郡嘉手納町,嘉手納５４７, 中頭郡嘉手納町 嘉手納５４７
たいら眼科,904-0301,,中頭郡読谷村,字座喜味１９１７番地, 中頭郡読谷村 字座喜味１９１７番地
なかそね内科,904-0303,,中頭郡読谷村,伊良皆３４０, 中頭郡読谷村 伊良皆３４０
よみたん皮フ科,904-0305,,中頭郡読谷村,都屋２３４－３, 中頭郡読谷村 都屋２３４－３
美ら浜皮フ科クリニック,904-0314,,中頭郡読谷村,古堅６７３－１番地, 中頭郡読谷村 古堅６７３－１番地
かなさん内科クリニック,904-0314,,中頭郡読谷村,字古堅６７５番地, 中頭郡読谷村 字古堅６７５番地
古堅南クリニック,904-0314,,中頭郡読谷村,字古堅９２３番地の２, 中頭郡読谷村 字古堅９２３番地の２
よみたん眼科,904-0316,,中頭郡読谷村,大木３２４－１, 中頭郡読谷村 大木３２４－１
医療法人　そけん小児科,904-0322,,中頭郡読谷村,波平２４５９, 中頭郡読谷村 波平２４５９
よみたんクリニック,904-0324,,中頭郡読谷村,長浜１７７４番地, 中頭郡読谷村 長浜１７７４番地
まつしまクリニック,904-0325,,中頭郡読谷村,瀬名波８９４－２, 中頭郡読谷村 瀬名波８９４－２
恩納クリニック,904-0411,,国頭郡恩納村,字恩納６３２９番地, 国頭郡恩納村 字恩納６３２９番地
山田小児科内科医院,904-1102,,うるま市,石川東山１－１９－１１, うるま市 石川東山１－１９－１１
宮里眼科,904-1102,,うるま市,石川東山１－２２－２, うるま市 石川東山１－２２－２
東山整形外科,904-1102,,うるま市,石川東山二丁目３０番地１４号, うるま市 石川東山二丁目３０番地１４号
しらはま内科,904-1105,,うるま市,石川白浜１丁目２番３号, うるま市 石川白浜１丁目２番３号
カヨウ眼科,904-1105,,うるま市,石川白浜二丁目１３番１２号, うるま市 石川白浜二丁目１３番１２号
よざ耳鼻咽喉科,904-1106,,うるま市,石川２３８１番地の１, うるま市 石川２３８１番地の１
みのり内科クリニック,904-1106,,うるま市,石川２４０８番地, うるま市 石川２４０８番地
あさと整形クリニック,904-1106,,うるま市,石川一丁目１６番１６号, うるま市 石川一丁目１６番１６号
石川医院,904-1106,,うるま市,石川二丁目２１－５, うるま市 石川二丁目２１－５
よしクリニック,904-1107,,うるま市,石川曙３－２－１０, うるま市 石川曙３－２－１０
ＫＩＮ放射線治療・健診クリニック,904-1201,,国頭郡金武町,字金武１０８９７番地, 国頭郡金武町 字金武１０８９７番地
金武リハビリテーションクリニック,904-1201,,国頭郡金武町,字金武１０９１２番地, 国頭郡金武町 字金武１０９１２番地
屋嘉整形外科クリニック,904-1203,,国頭郡金武町,屋嘉２７２４番地, 国頭郡金武町 屋嘉２７２４番地
ゆいクリニック,904-2142,,沖縄市,字登川２４４４番地３, 沖縄市 字登川２４４４番地３
元美皮フ科,904-2142,,沖縄市,登川１－１２－１３, 沖縄市 登川１－１２－１３
岸本内科クリニック,904-2142,,沖縄市,登川１－１－２４, 沖縄市 登川１－１－２４
一般社団法人日本健康倶楽部　沖縄支部診療所,904-2142,,沖縄市,登川３１６９, 沖縄市 登川３１６９
登川クリニック,904-2142,,沖縄市,登川二丁目２４番２号, 沖縄市 登川二丁目２４番２号
ファミリーメンタルクリニック,904-2143,,沖縄市,知花６－４０－３, 沖縄市 知花６－４０－３
いまい整形外科医院,904-2143,,沖縄市,知花六丁目２３番２２号, 沖縄市 知花六丁目２３番２２号
医療法人美原クリニック,904-2151,,沖縄市,松本９２２, 沖縄市 松本９２２
医療法人浩然会　コザ整形外科医院,904-2153,,沖縄市,美里１－２６－３３, 沖縄市 美里１－２６－３３
医療法人高徳会　松永眼科医院,904-2153,,沖縄市,美里２－１０－２, 沖縄市 美里２－１０－２
あいレディースクリニック,904-2153,,沖縄市,美里４－１７－７, 沖縄市 美里４－１７－７
吉里小児クリニック,904-2153,,沖縄市,美里５－２４－１５, 沖縄市 美里５－２４－１５
ひが内科クリニック,904-2154,,沖縄市,東二丁目２５番２号コーポ桑江１階, 沖縄市 東二丁目２５番２号コーポ桑江１階
のぼる耳鼻咽喉科医院,904-2154,,沖縄市,東二丁目２６番５号, 沖縄市 東二丁目２６番５号
とけし内科,904-2154,,沖縄市,東二丁目５番１１号, 沖縄市 東二丁目５番１１号
美里ヒフ科,904-2154,,沖縄市,東２丁目５番１４号, 沖縄市 東２丁目５番１４号
沖縄県中部保健所,904-2155,,沖縄市,美原１－６－２８, 沖縄市 美原１－６－２８
中部眼科,904-2155,,沖縄市,美原三丁目２２番１１号, 沖縄市 美原三丁目２２番１１号
医療法人芳醇の会　はた内科クリニック,904-2155,,沖縄市,美原三丁目２２番８, 沖縄市 美原三丁目２２番８
みはら整形外科耳鼻科,904-2155,,沖縄市,美原四丁目１０番２号, 沖縄市 美原四丁目１０番２号
永山脳神経クリニック,904-2155,,沖縄市,美原四丁目１番１０号, 沖縄市 美原四丁目１番１０号
みさと耳鼻科,904-2155,,沖縄市,美原四丁目１番１５号, 沖縄市 美原四丁目１番１５号
いしはら小児科,904-2155,,沖縄市,美原四丁目２７番１５号, 沖縄市 美原四丁目２７番１５号
美里女性クリニック,904-2155,,沖縄市,美原二丁目２５番３号, 沖縄市 美原二丁目２５番３号
兼城医院,904-2155,,沖縄市,美原二丁目２６番１３号, 沖縄市 美原二丁目２６番１３号
ふくはら胃腸科外科,904-2156,,沖縄市,美里仲原町２６番５号, 沖縄市 美里仲原町２６番５号
あきら整形外科クリニック,904-2161,,沖縄市,古謝２丁目１９番５号, 沖縄市 古謝２丁目１９番５号
あさとこどもクリニック,904-2161,,沖縄市,古謝２丁目１９番６号, 沖縄市 古謝２丁目１９番６号
なかみねニュークリニック,904-2161,,沖縄市,古謝二丁目２１番２９号, 沖縄市 古謝二丁目２１番２９号
やんハーブクリニック,904-2165,,沖縄市,宮里５２７－１, 沖縄市 宮里５２７－１
うちま内科,904-2165,,沖縄市,宮里四丁目２番３号, 沖縄市 宮里四丁目２番３号
女性内科　オレンジ,904-2166,,沖縄市,古謝津嘉山町３０番２２号　武ハウス１号室, 沖縄市 古謝津嘉山町３０番２２号　武ハウス１号室
うえはら眼科,904-2171,,沖縄市,高原２－４－１７, 沖縄市 高原２－４－１７
高原こころクリニック,904-2171,,沖縄市,高原６丁目４番９号, 沖縄市 高原６丁目４番９号
ともり耳鼻咽喉科,904-2171,,沖縄市,高原７－３１－５, 沖縄市 高原７－３１－５
おくま眼科,904-2171,,沖縄市,高原７丁目２８番１号, 沖縄市 高原７丁目２８番１号
アワセ第一医院,904-2172,,沖縄市,泡瀬２－５４－２６, 沖縄市 泡瀬２－５４－２６
ふくはら小児科医院,904-2172,,沖縄市,泡瀬２－８－７, 沖縄市 泡瀬２－８－７
アワセ皮フ科クリニック,904-2172,,沖縄市,泡瀬４－１－２　１Ｆ, 沖縄市 泡瀬４－１－２　１Ｆ
伊元小児科,904-2172,,沖縄市,泡瀬４－３９－１２, 沖縄市 泡瀬４－３９－１２
ヘシキ形成外科クリニック,904-2172,,沖縄市,泡瀬４丁目４０番１号, 沖縄市 泡瀬４丁目４０番１号
医療法人真愛会　伊佐整形外科,904-2173,,沖縄市,比屋根２－３－３, 沖縄市 比屋根２－３－３
なかむら内科おなかクリニック,904-2173,,沖縄市,比屋根六丁目２７番１７号　１Ｆ, 沖縄市 比屋根六丁目２７番１７号　１Ｆ
いくみ皮ふ科クリニック,904-2173,,沖縄市,比屋根六丁目２７番１７号　２Ｆ, 沖縄市 比屋根六丁目２７番１７号　２Ｆ
東部クリニック,904-2174,,沖縄市,与儀３丁目９番１号, 沖縄市 与儀３丁目９番１号
大嶺医院,904-2213,,うるま市,田場１４１７, うるま市 田場１４１７
いわした内科クリニック,904-2214,,うるま市,安慶名一丁目２番１１号, うるま市 安慶名一丁目２番１１号
しま小児科内科クリニック,904-2214,,うるま市,安慶名三丁目２３番２４号, うるま市 安慶名三丁目２３番２４号
おおみね眼科,904-2214,,うるま市,安慶名三丁目３９番３号, うるま市 安慶名三丁目３９番３号
しげま小児科医院,904-2215,,うるま市,みどり町３－１８－１２, うるま市 みどり町３－１８－１２
もとむら耳鼻咽喉クリニック,904-2215,,うるま市,みどり町４－１０－７, うるま市 みどり町４－１０－７
医療法人うるま会　具志川整形外科,904-2215,,うるま市,みどり町４－１３－１, うるま市 みどり町４－１３－１
みどり町眼科,904-2215,,うるま市,みどり町４－１４－７コーポ仲宗根１Ｆ, うるま市 みどり町４－１４－７コーポ仲宗根１Ｆ
ぐしかわ皮フ科,904-2215,,うるま市,みどり町４－１９－１, うるま市 みどり町４－１９－１
みどり町クリニック,904-2215,,うるま市,みどり町５－２７－２, うるま市 みどり町５－２７－２
ぐしけん眼科,904-2223,,うるま市,具志川１３７１－１, うるま市 具志川１３７１－１
平良川整形外科,904-2225,,うるま市,喜屋武１６９－５, うるま市 喜屋武１６９－５
うるまこころのクリニック,904-2225,,うるま市,字喜屋武５４６－１, うるま市 字喜屋武５４６－１
しろま内科クリニック,904-2225,,うるま市,字喜屋武手振原５４６－１　１Ｆ, うるま市 字喜屋武手振原５４６－１　１Ｆ
いずみクリニック,904-2242,,うるま市,高江洲９７８－１, うるま市 高江洲９７８－１
ちねん小児科,904-2243,,うるま市,宮里２６２番地１８, うるま市 宮里２６２番地１８
なかよし眼科,904-2243,,うるま市,宮里７６３－１, うるま市 宮里７６３－１
江洲整形外科クリニック,904-2244,,うるま市,江洲５９８番地４　２階, うるま市 江洲５９８番地４　２階
とくだ心療内科,904-2244,,うるま市,字江洲５４７番地２, うるま市 字江洲５４７番地２
すながわ内科クリニック,904-2244,,うるま市,字江洲６００番地５, うるま市 字江洲６００番地５
たまき心療内科クリニック,904-2245,,うるま市,字赤道２６０－６, うるま市 字赤道２６０－６
ひまわりキッズクリニック,904-2245,,うるま市,赤道１７４番地５, うるま市 赤道１７４番地５
中山内科医院,904-2245,,うるま市,赤道２６０－７, うるま市 赤道２６０－７
しゅくみね内科,904-2245,,うるま市,赤道７５９－１, うるま市 赤道７５９－１
赤道医院,904-2245,,うるま市,赤道９番地の１０, うるま市 赤道９番地の１０
伊禮医院,904-2303,,うるま市,与那城２４, うるま市 与那城２４
与勝あやはしクリニック,904-2304,,うるま市,与那城屋慶名４６７番地１１１, うるま市 与那城屋慶名４６７番地１１１
寺本耳鼻咽喉科医院,904-2312,,うるま市,勝連平安名１６５５－１, うるま市 勝連平安名１６５５－１
沖縄県立中部病院附属津堅診療所,904-2317,,うるま市,勝連津堅１５８２, うるま市 勝連津堅１５８２
みるく福祉サービス,904-2245,,うるま市,沖縄県赤道8-11（１Ｆ）, うるま市 沖縄県赤道8-11（１Ｆ）
うるまケアセンター,904-2215,,うるま市,沖縄県みどり町五丁目14番7号, うるま市 沖縄県みどり町五丁目14番7号
訪問看護ステーションかいほう,9012224,,宜野湾市,沖縄県真志喜２丁目２２番２号, 宜野湾市 沖縄県真志喜２丁目２２番２号
訪問看護ステーションぎのわん,90１－2211,,宜野湾市,沖縄県宜野湾３－４－３, 宜野湾市 沖縄県宜野湾３－４－３
訪問看護ステーション　はごろも,9012225,,宜野湾市,沖縄県大謝名１丁目２０番２号, 宜野湾市 沖縄県大謝名１丁目２０番２号
訪問看護ステーション　みかん,9012226,,宜野湾市,沖縄県嘉数２丁目２番１号　２Ｆ, 宜野湾市 沖縄県嘉数２丁目２番１号　２Ｆ
訪問看護ステーションカルペディエム,901-2215,,宜野湾市,沖縄県真栄原二丁目15番-29号, 宜野湾市 沖縄県真栄原二丁目15番-29号
トータルサポートセンター　よつ葉　訪問看護ステーション,9012212,,宜野湾市,沖縄県長田四丁目14-18, 宜野湾市 沖縄県長田四丁目14-18
愛聖クリニック,9042171,,沖縄市,沖縄県高原５丁目１５番１１号, 沖縄市 沖縄県高原５丁目１５番１１号
中部協同病院,9042143,,沖縄市,沖縄県知花六丁目25番５号, 沖縄市 沖縄県知花六丁目25番５号
訪問看護ステーションなかがみ,9042143,,沖縄市,沖縄県知花６丁目２５番１５号, 沖縄市 沖縄県知花６丁目２５番１５号
訪問看護ステーション　白樺,9042172,,沖縄市,沖縄県泡瀬一丁目２３番１３号, 沖縄市 沖縄県泡瀬一丁目２３番１３号
訪問看護ステーション　三丁目,9042151,,沖縄市,沖縄県松本三丁目７番２７号, 沖縄市 沖縄県松本三丁目７番２７号
訪問看護ステーション　こころのかて,904-2173,,沖縄市,沖縄県比屋根６－１０－１１メゾンかりゆし１０１号, 沖縄市 沖縄県比屋根６－１０－１１メゾンかりゆし１０１号
まなざし訪問看護ステーション,9040013,,沖縄市,沖縄県室川二丁目３３番７３号２階, 沖縄市 沖縄県室川二丁目３３番７３号２階
かなさん訪問看護ステーション中部,904-2153,,沖縄市,沖縄県美里3丁目１番１号トーマス美里101, 沖縄市 沖縄県美里3丁目１番１号トーマス美里101
訪問看護ステーション　もみの木,9042153,,沖縄市,沖縄県美里1丁目3-2仲本アパート102号室, 沖縄市 沖縄県美里1丁目3-2仲本アパート102号室
訪問看護ステーションひだまり,9042164,,沖縄市,沖縄県桃原338番地4, 沖縄市 沖縄県桃原338番地4
訪問看護ステーション　リアンlien,904-2173,,沖縄市,沖縄県比屋根六丁目10番13号, 沖縄市 沖縄県比屋根六丁目10番13号
あわせ訪問看護ステーション,9042172,,沖縄市,沖縄県泡瀬四丁目41番１号, 沖縄市 沖縄県泡瀬四丁目41番１号
一般社団法人中部地区医師会訪問看護ステーション,9040006,,沖縄市,沖縄県八重二丁目11番12号, 沖縄市 沖縄県八重二丁目11番12号
訪問看護ステーション　クララ,9042172,,沖縄市,沖縄県泡瀬４丁目２２番１３号　高江洲ｱﾊﾟｰﾄ103, 沖縄市 沖縄県泡瀬４丁目２２番１３号　高江洲ｱﾊﾟｰﾄ103
訪問看護ステーションいのり　中部支店,9042153,,沖縄市,沖縄県美里３丁目８番６号メゾンティーダ１０４, 沖縄市 沖縄県美里３丁目８番６号メゾンティーダ１０４
与勝あやはしクリニック　,904-2304,,うるま市,沖縄県与那城屋慶名467番地111, うるま市 沖縄県与那城屋慶名467番地111
与勝病院,9042311,,うるま市,沖縄県勝連南風原3584番地, うるま市 沖縄県勝連南風原3584番地
訪問看護ステーションあゆむ,904-1107,,うるま市,沖縄県石川曙3丁目2番地28号, うるま市 沖縄県石川曙3丁目2番地28号
訪問看護ステーションいずみ苑,904-2205,,うるま市,沖縄県栄野比1150番地, うるま市 沖縄県栄野比1150番地
訪問看護ステーションのぞみ,9042243,,うるま市,沖縄県宮里８４２番地５, うるま市 沖縄県宮里８４２番地５
訪問看護ステーションうるま,9042215,,うるま市,沖縄県みどり町5丁目14番7号, うるま市 沖縄県みどり町5丁目14番7号
訪問看護ステーション　青空,9042224,,うるま市,沖縄県字大田７１８番地１, うるま市 沖縄県字大田７１８番地１
訪問看護ステーション　リズム,9042226,,うるま市,沖縄県字仲嶺５３０番地３４仲嶺ハイツ　B-13, うるま市 沖縄県字仲嶺５３０番地３４仲嶺ハイツ　B-13
訪問看護ひまわり,904-2236,,うるま市,沖縄県喜仲一丁目３－１８１階, うるま市 沖縄県喜仲一丁目３－１８１階
訪問看護　あい・ゆう　健やか,9042314,,うるま市,沖縄県勝連平敷屋４３０番地２１０２号室, うるま市 沖縄県勝連平敷屋４３０番地２１０２号室
訪問看護ステーションうんな,9040411,,国頭郡恩納村,沖縄県字恩納６１２１番地, 国頭郡恩納村 沖縄県字恩納６１２１番地
ひまわり訪問看護ステーション,9040401,,国頭郡恩納村,沖縄県字名嘉真２６０５番地, 国頭郡恩納村 沖縄県字名嘉真２６０５番地
訪問看護ステーションぷくじ,904-0411,,国頭郡恩納村,沖縄県字恩納２８５８番地の３, 国頭郡恩納村 沖縄県字恩納２８５８番地の３
訪問看護ステーション ぎのざ桑の実,9041303,,国頭郡宜野座村,沖縄県字惣慶１８９４－４, 国頭郡宜野座村 沖縄県字惣慶１８９４－４
おくまクリニック,9041201,,国頭郡金武町,沖縄県金武4790番地1, 国頭郡金武町 沖縄県金武4790番地1
どりーむ訪問看護ステーション,9041201,,国頭郡金武町,沖縄県字金武３４４７番地１, 国頭郡金武町 沖縄県字金武３４４７番地１
読谷村診療所,9040305,,中頭郡読谷村,沖縄県都屋179番地　読谷村診療所, 中頭郡読谷村 沖縄県都屋179番地　読谷村診療所
かなさん内科クリニック,9040314,,中頭郡読谷村,沖縄県字古堅675番地, 中頭郡読谷村 沖縄県字古堅675番地
訪問看護ステーション　花織,904-0302,,中頭郡読谷村,沖縄県喜名497番地の14, 中頭郡読谷村 沖縄県喜名497番地の14
訪問看護ステーション健やか,9040323,,中頭郡読谷村,沖縄県字高志保９２番地, 中頭郡読谷村 沖縄県字高志保９２番地
聖隷訪問看護ステーションゆい,9040203,,中頭郡嘉手納町,沖縄県字嘉手納２７０－１９平安名ビル２F南, 中頭郡嘉手納町 沖縄県字嘉手納２７０－１９平安名ビル２F南
徳洲会ハンビークリニック　,9040117,,中頭郡北谷町,沖縄県北前１丁目21番１号, 中頭郡北谷町 沖縄県北前１丁目21番１号
アソシアソーシャルサポート,9040117,,中頭郡北谷町,沖縄県字北前１－１０－８, 中頭郡北谷町 沖縄県字北前１－１０－８
訪問看護ステーション若松,,,"","",  
訪問看護ステーション若松,9012311,,中頭郡北中城村,沖縄県字喜舎場３６０番地１, 中頭郡北中城村 沖縄県字喜舎場３６０番地１
訪問看護ステーション　ふたふぁ,901-2424,,中頭郡中城村,沖縄県字南上原732番地, 中頭郡中城村 沖縄県字南上原732番地
訪問看護ステーション　デュ－ン沖縄,9012424,,中頭郡中城村,沖縄県南上原６２４番地１Ｍa．サンビスカ102号, 中頭郡中城村 沖縄県南上原６２４番地１Ｍa．サンビスカ102号
訪問看護ステーション和,9030115,,中頭郡西原町,沖縄県池田757番地, 中頭郡西原町 沖縄県池田757番地
訪問看護ステーションさわふじ,9030125,,中頭郡西原町,沖縄県上原２丁目２３番の２サンテラス屋良Ｔ－１－１, 中頭郡西原町 沖縄県上原２丁目２３番の２サンテラス屋良Ｔ－１－１
訪問看護ステーション　はーとらいふ,903-0103,,中頭郡西原町,沖縄県字小那覇1606番地, 中頭郡西原町 沖縄県字小那覇1606番地
訪問看護かーさ,9030126,,中頭郡西原町,沖縄県棚原一丁目11番地の３, 中頭郡西原町 沖縄県棚原一丁目11番地の３
ヘルパーステーションぎのわん,901-2211,,宜野湾市,沖縄県宜野湾３－４－３, 宜野湾市 沖縄県宜野湾３－４－３
訪問介護ステーションかいほう,9012224,,宜野湾市,沖縄県真志喜２丁目２２番２号, 宜野湾市 沖縄県真志喜２丁目２２番２号
ヘルパーステーション　はごろも,9012225,,宜野湾市,沖縄県大謝名１丁目２０番２号, 宜野湾市 沖縄県大謝名１丁目２０番２号
在宅介護サービスきずな,9012202,,宜野湾市,沖縄県普天間二丁目３１番７号, 宜野湾市 沖縄県普天間二丁目３１番７号
訪問介護事業所愛誠園,901-2223,,宜野湾市,沖縄県大山3丁目31番１号, 宜野湾市 沖縄県大山3丁目31番１号
ＰＡＩ おきなわ,9012221,,宜野湾市,沖縄県伊佐四丁目4番1号, 宜野湾市 沖縄県伊佐四丁目4番1号
訪問介護ステーション　みかん,9012226,,宜野湾市,沖縄県嘉数2丁目2番1号2F, 宜野湾市 沖縄県嘉数2丁目2番1号2F
ヘルパーステーションはっぴー,9012214,,宜野湾市,沖縄県我如古２－３７－１２山本アパートＡ－１号室, 宜野湾市 沖縄県我如古２－３７－１２山本アパートＡ－１号室
ヘルパーステーション　まえはら,9012215,,宜野湾市,沖縄県真栄原三丁目７番７号, 宜野湾市 沖縄県真栄原三丁目７番７号
かりゆしぎのわん訪問介護事業所,9012211,,宜野湾市,沖縄県宜野湾三丁目２１番６－１０２号, 宜野湾市 沖縄県宜野湾三丁目２１番６－１０２号
訪問介護ステーションふれあい,901-2215,,宜野湾市,沖縄県真栄原三丁目20番12号, 宜野湾市 沖縄県真栄原三丁目20番12号
ケアコミュニティ結び,9012227,,宜野湾市,沖縄県宇地泊７５１番地１５－８０９号, 宜野湾市 沖縄県宇地泊７５１番地１５－８０９号
認知症対応型ヘルパーステーションあかねケア,9012211,,宜野湾市,沖縄県宜野湾2丁目8番34号, 宜野湾市 沖縄県宜野湾2丁目8番34号
ヘルパーステーションプルメリア,9012223,,宜野湾市,沖縄県大山五丁目3番1号, 宜野湾市 沖縄県大山五丁目3番1号
トータルサポートセンター　よつ葉　指定訪問介護ステーション,9012212,,宜野湾市,沖縄県長田四丁目14-18, 宜野湾市 沖縄県長田四丁目14-18
ヘルパーステーションさんだん花,9012223,,宜野湾市,沖縄県大山七丁目７番２２号, 宜野湾市 沖縄県大山七丁目７番２２号
訪問介護ステーション　はな,9012223,,宜野湾市,沖縄県大山六丁目７番１９－１０１号キャステル大山, 宜野湾市 沖縄県大山六丁目７番１９－１０１号キャステル大山
ヘルパーステーションほのぼの,9012225,,宜野湾市,沖縄県大謝名94番地, 宜野湾市 沖縄県大謝名94番地
訪問介護センター彩風の杜,901-2204,,宜野湾市,沖縄県上原1丁目8番5号1Ｆ, 宜野湾市 沖縄県上原1丁目8番5号1Ｆ
訪問介護事業所　琉風,9012202,,宜野湾市,沖縄県普天間一丁目２９番２３号コンフォート琉風１階１０１号室, 宜野湾市 沖縄県普天間一丁目２９番２３号コンフォート琉風１階１０１号室
ヘルパーステーションリリー,9012225,,宜野湾市,沖縄県大謝名一丁目１７番１１号　Ｅ号室, 宜野湾市 沖縄県大謝名一丁目１７番１１号　Ｅ号室
中部徳洲会病院訪問介護事業所,9040021,,沖縄市,沖縄県胡屋6丁目4番19号, 沖縄市 沖縄県胡屋6丁目4番19号
一般社団法人中部地区医師会ヘルパーステーション,9040006,,沖縄市,沖縄県八重2丁目11番12号, 沖縄市 沖縄県八重2丁目11番12号
沖縄一条園訪問介護事業所,904-2174,,沖縄市,沖縄県与儀3丁目5番10号, 沖縄市 沖縄県与儀3丁目5番10号
緑樹苑居宅サービス事業所,9040021,,沖縄市,沖縄県胡屋7丁目2番10号, 沖縄市 沖縄県胡屋7丁目2番10号
介護支援センター中部,9040003,,沖縄市,沖縄県住吉１丁目５番22号, 沖縄市 沖縄県住吉１丁目５番22号
ニチイケアセンター沖縄,9040023,,沖縄市,沖縄県久保田３丁目１番12号　プラザハウスフェアモール３Ｆ, 沖縄市 沖縄県久保田３丁目１番12号　プラザハウスフェアモール３Ｆ
ゆがふ在宅介護事業所,9040022,,沖縄市,沖縄県園田２丁目19番６号, 沖縄市 沖縄県園田２丁目19番６号
公益社団法人　沖縄市シルバー人材センター,9042155,,沖縄市,沖縄県美原三丁目１番１号, 沖縄市 沖縄県美原三丁目１番１号
きづき訪問介護事業所,9042172,,沖縄市,沖縄県泡瀬一丁目21番15号, 沖縄市 沖縄県泡瀬一丁目21番15号
ケアサービスかりゆし,9042173,,沖縄市,沖縄県比屋根六丁目２２番３号, 沖縄市 沖縄県比屋根六丁目２２番３号
たんぽぽ苑　ヘルパーステーション,904-2164,,沖縄市,沖縄県桃原２丁目１７番１７号, 沖縄市 沖縄県桃原２丁目１７番１７号
訪問介護ステーション　ニヘーデービル,9042163,,沖縄市,沖縄県大里字大里５６番地, 沖縄市 沖縄県大里字大里５６番地
ケアステーション　だるま,9042156,,沖縄市,沖縄県美里仲原町３０番１号　　コーポエルソール102, 沖縄市 沖縄県美里仲原町３０番１号　　コーポエルソール102
愛聖ヘルパーステーション,9042162,,沖縄市,沖縄県海邦１丁目15番10号　１階　, 沖縄市 沖縄県海邦１丁目15番10号　１階　
あわせヘルパーステーション,9042173,,沖縄市,沖縄県泡瀬４丁目４１番１号, 沖縄市 沖縄県泡瀬４丁目４１番１号
訪問介護　しあわせ街角,9040031,,沖縄市,沖縄県上地二丁目９番５号１階　１０２号, 沖縄市 沖縄県上地二丁目９番５号１階　１０２号
中部サンケアネット　訪問介護事業所,9042161,,沖縄市,沖縄県古謝三丁目12番20号, 沖縄市 沖縄県古謝三丁目12番20号
JAおきなわ中部介護福祉センター訪問介護事業所,904-0014,,沖縄市,沖縄県仲宗根町14番15号, 沖縄市 沖縄県仲宗根町14番15号
ヘルパーステーションふれ愛,9040021,,沖縄市,沖縄県胡屋七丁目５番３５号, 沖縄市 沖縄県胡屋七丁目５番３５号
訪問介護　ケア・サポート　しおひら,9040022,,沖縄市,沖縄県園田２丁目１５番５号, 沖縄市 沖縄県園田２丁目１５番５号
訪問介護事業所　つわぶき,9040023,,沖縄市,沖縄県久保田一丁目10番3号, 沖縄市 沖縄県久保田一丁目10番3号
訪問介護事業所あおい,9042171,,沖縄市,沖縄県高原四丁目２４番２５号, 沖縄市 沖縄県高原四丁目２４番２５号
ホームヘルプ　元気のたね,9042143,,沖縄市,沖縄県知花4-5-29, 沖縄市 沖縄県知花4-5-29
コロニーヘルパーステーションみなみとうばる,9040035,,沖縄市,沖縄県南桃原３丁目４番１１号, 沖縄市 沖縄県南桃原３丁目４番１１号
ヘルパーステーション　宙伸,9040011,,沖縄市,沖縄県照屋一丁目１０番４号, 沖縄市 沖縄県照屋一丁目１０番４号
訪問介護事業所　心・和,9042153,,沖縄市,沖縄県美里三丁目１７番１６号, 沖縄市 沖縄県美里三丁目１７番１６号
ヘルパーステーション　ティーダ,9040021,,沖縄市,沖縄県胡屋１丁目５番６号, 沖縄市 沖縄県胡屋１丁目５番６号
ヘルパーステーション　くくる,9040032,,沖縄市,沖縄県諸見里三丁目４７番１４号, 沖縄市 沖縄県諸見里三丁目４７番１４号
訪問介護　えくぼ,904-2141,,沖縄市,沖縄県池原5丁目3番29号, 沖縄市 沖縄県池原5丁目3番29号
太陽ヘルパーステーション,9042142,,沖縄市,沖縄県登川１－７－２６１０２号, 沖縄市 沖縄県登川１－７－２６１０２号
訪問介護いっしん池原,9042141,,沖縄市,沖縄県池原二丁目７番２５号, 沖縄市 沖縄県池原二丁目７番２５号
ヘルパーステーション　キジムナー,9042171,,沖縄市,沖縄県高原五丁目１番３号, 沖縄市 沖縄県高原五丁目１番３号
ヘルパーステーション美空,9042172,,沖縄市,沖縄県泡瀬五丁目３３番５号, 沖縄市 沖縄県泡瀬五丁目３３番５号
訪問介護まごのて美里,9042154,,沖縄市,沖縄県東２－１５－１２, 沖縄市 沖縄県東２－１５－１２
ゆいまーる沖縄美里,9042153,,沖縄市,沖縄県美里二丁目２８番５号, 沖縄市 沖縄県美里二丁目２８番５号
ケアサポートセンターうみそら,9042171,,沖縄市,沖縄県高原六丁目１５番６号ハートピアG 103号, 沖縄市 沖縄県高原六丁目１５番６号ハートピアG 103号
訪問介護事業所　樹,9042163,,沖縄市,沖縄県大里2丁目6番6号, 沖縄市 沖縄県大里2丁目6番6号
ヘルパーステーションりんご,9042174,,沖縄市,沖縄県与儀三丁目３番２号, 沖縄市 沖縄県与儀三丁目３番２号
ヘルパーステーション千手,9042143,,沖縄市,沖縄県知花二丁目２番１号池原店舗１０１号室, 沖縄市 沖縄県知花二丁目２番１号池原店舗１０１号室
訪問介護事業所エルスリー沖縄,9042171,,沖縄市,沖縄県高原七丁目15-14, 沖縄市 沖縄県高原七丁目15-14
訪問介護事業所　ちゃーびらさい,904-2153,,沖縄市,沖縄県美里一丁目２８番１２号, 沖縄市 沖縄県美里一丁目２８番１２号
介護支援事業所　ケルビム美里,9042153,,沖縄市,沖縄県美里2丁目13番33号, 沖縄市 沖縄県美里2丁目13番33号
与勝病院訪問介護,9042311,,うるま市,沖縄県勝連南風原3584番地, うるま市 沖縄県勝連南風原3584番地
あかみち薬局,9042245,,うるま市,沖縄県字赤道１０番地の１０, うるま市 沖縄県字赤道１０番地の１０
へしきや薬局　訪問介護支援センター,9042302,,うるま市,沖縄県与那城西原988番地の３（２Ｆ）, うるま市 沖縄県与那城西原988番地の３（２Ｆ）
ホームヘルパーステーション願寿ぬ森,904-1106,,うるま市,沖縄県石川3273番地の2, うるま市 沖縄県石川3273番地の2
ヘルパーステーションいずみ介護会,904-2205,,うるま市,沖縄県栄野比1151番地1, うるま市 沖縄県栄野比1151番地1
訪問介護ひまわり,9042236,,うるま市,沖縄県喜仲一丁目３－１８　１階, うるま市 沖縄県喜仲一丁目３－１８　１階
楽寿園指定訪問介護事業所,9041114,,うるま市,沖縄県石川嘉手苅961番地17, うるま市 沖縄県石川嘉手苅961番地17
合資会社　ケアサービスうるま,9041105,,うるま市,沖縄県石川白浜２丁目３番２１号, うるま市 沖縄県石川白浜２丁目３番２１号
コロニーヘルパーステーション　うるま,9042215,,うるま市,沖縄県みどり町５－２７－９, うるま市 沖縄県みどり町５－２７－９
具志川厚生園指定訪問介護事業所,9042202,,うるま市,沖縄県天願1983番地, うるま市 沖縄県天願1983番地
さくらケアステーション　ホームヘルプサービス,9042213,,うるま市,沖縄県田場1927-2, うるま市 沖縄県田場1927-2
うるまケアセンター,9042215,,うるま市,沖縄県みどり町5丁目14番７号, うるま市 沖縄県みどり町5丁目14番７号
ヘルパーサービスＳＹＭ,9042223,,うるま市,沖縄県具志川２４３６番地, うるま市 沖縄県具志川２４３６番地
アイズケアサービス,9042223,,うるま市,沖縄県字具志川１３２１番地１, うるま市 沖縄県字具志川１３２１番地１
訪問介護いっしんうるま,9041111,,うるま市,沖縄県石川東恩納１３３－１, うるま市 沖縄県石川東恩納１３３－１
ヘルパーステーション　にこにこフリーダム,9042424,,うるま市,沖縄県与那城上原１５７９番地１の１, うるま市 沖縄県与那城上原１５７９番地１の１
訪問介護いっしん上江洲,9042222,,うるま市,沖縄県字上江洲４６６番地１, うるま市 沖縄県字上江洲４６６番地１
あい・ゆうヘルパーステーション,9042314,,うるま市,沖縄県勝連平敷屋４３０番地２１０２号室, うるま市 沖縄県勝連平敷屋４３０番地２１０２号室
訪問介護ステーション　志,9042312,,うるま市,沖縄県勝連平安名３０２３番地１０２号, うるま市 沖縄県勝連平安名３０２３番地１０２号
イリーゼうるま訪問介護センター,9042225,,うるま市,沖縄県喜屋武５４６－１, うるま市 沖縄県喜屋武５４６－１
ヘルパーステーションおもろの郷,9042214,,うるま市,沖縄県安慶名三丁目4番２３号, うるま市 沖縄県安慶名三丁目4番２３号
ヘルパーステーション　陽だまり,9041106,,うるま市,沖縄県石川東恩納１６７８番地１, うるま市 沖縄県石川東恩納１６７８番地１
ホームヘルプサービスセンター陽光館,9042293,,うるま市,沖縄県字宮里265番地4, うるま市 沖縄県字宮里265番地4
ヘルパーステーションあやはし苑,9042304,,うるま市,沖縄県与那城屋慶名1410番地, うるま市 沖縄県与那城屋慶名1410番地
訪問介護事業所与勝の里,9042311,,うるま市,沖縄県勝連南風原4902番地, うるま市 沖縄県勝連南風原4902番地
訪問介護ステーションうんな,9040411,,国頭郡恩納村,沖縄県恩納６１２１番地, 国頭郡恩納村 沖縄県恩納６１２１番地
恩納村社会福祉協議会指定訪問介護事業所,904-0411,,国頭郡恩納村,沖縄県字恩納6302番地, 国頭郡恩納村 沖縄県字恩納6302番地
宜野座村訪問介護事業所,9041303,,国頭郡宜野座村,沖縄県字惣慶1898番地　（宜野座村地域福祉センター内）, 国頭郡宜野座村 沖縄県字惣慶1898番地　（宜野座村地域福祉センター内）
訪問介護事業所　えがお,9041304,,国頭郡宜野座村,沖縄県漢那1953番地1, 国頭郡宜野座村 沖縄県漢那1953番地1
どりーむ訪問介護ステーション,9041201,,国頭郡金武町,沖縄県金武３４４７番地１, 国頭郡金武町 沖縄県金武３４４７番地１
ヘルパーステーション　信愛の丘,9041203,,国頭郡金武町,沖縄県屋嘉２７２４番地, 国頭郡金武町 沖縄県屋嘉２７２４番地
ヘルパーステーションスマイル,904-1201,,国頭郡金武町,沖縄県字金武７９０６番地, 国頭郡金武町 沖縄県字金武７９０６番地
ヘルパーステーション　アシスト,9041201,,国頭郡金武町,沖縄県字金武３８９番地　１０１号室, 国頭郡金武町 沖縄県字金武３８９番地　１０１号室
ヘルパーステーションひらめき,9041202,,国頭郡金武町,沖縄県字伊芸９５番地, 国頭郡金武町 沖縄県字伊芸９５番地
ヘルパーステーション　はなうい,9040302,,中頭郡読谷村,沖縄県喜名497番地の14, 中頭郡読谷村 沖縄県喜名497番地の14
よみたん社協ホームヘルプサービス,904-0305,,中頭郡読谷村,沖縄県字都屋167番地の2, 中頭郡読谷村 沖縄県字都屋167番地の2
ヴィラージュせなはヘルパーステーション,904-0324,,中頭郡読谷村,沖縄県字長浜1110番地, 中頭郡読谷村 沖縄県字長浜1110番地
コロニーヘルパーステーション　読谷,9040303,,中頭郡読谷村,沖縄県伊良皆３５２－４, 中頭郡読谷村 沖縄県伊良皆３５２－４
読谷の里指定訪問介護事業所,9040301,,中頭郡読谷村,沖縄県喜名２２７２番４, 中頭郡読谷村 沖縄県喜名２２７２番４
訪問介護　健やか,9040323,,中頭郡読谷村,沖縄県字高志保９２番地, 中頭郡読谷村 沖縄県字高志保９２番地
ヘルパーステーション　まゆの里おおわん,9040313,,中頭郡読谷村,沖縄県字大湾６６９－２, 中頭郡読谷村 沖縄県字大湾６６９－２
訪問介護事業所　だいじょうぶよ～,9040313,,中頭郡読谷村,沖縄県大湾363, 中頭郡読谷村 沖縄県大湾363
訪問ヘルパーステーション　比謝川の里,9040201,,中頭郡嘉手納町,沖縄県久得242番地の2, 中頭郡嘉手納町 沖縄県久得242番地の2
ヘルパーステーション　サンハート,9040202,,中頭郡嘉手納町,沖縄県屋良１丁目２１番地１, 中頭郡嘉手納町 沖縄県屋良１丁目２１番地１
訪問介護事業所　かたちゅむり,9040204,,中頭郡嘉手納町,沖縄県水釜477ハウスナンバー7256, 中頭郡嘉手納町 沖縄県水釜477ハウスナンバー7256
白川園指定訪問介護事業所,9040105,,中頭郡北谷町,沖縄県吉原263番地, 中頭郡北谷町 沖縄県吉原263番地
琉球メディカルズ指定訪問介護事業所,9040103,,中頭郡北谷町,沖縄県桑江400番地の2, 中頭郡北谷町 沖縄県桑江400番地の2
ヘルパーステーション若松,9012311,,中頭郡北中城村,沖縄県字喜舎場３６０番地１, 中頭郡北中城村 沖縄県字喜舎場３６０番地１
ヘルパーステーションふくとく,901-2303,,中頭郡北中城村,沖縄県字仲順375番地の1, 中頭郡北中城村 沖縄県字仲順375番地の1
訪問介護事業所　みずほ,9012407,,中頭郡中城村,沖縄県安里268-4　ｺｰﾎﾟ金永（壱階事務所）, 中頭郡中城村 沖縄県安里268-4　ｺｰﾎﾟ金永（壱階事務所）
ヘルパーステーションふたふぁ,9012424,,中頭郡中城村,沖縄県字南上原732番地, 中頭郡中城村 沖縄県字南上原732番地
訪問介護事業所みなみ,9012424,,中頭郡中城村,沖縄県字南上原９６５番地２, 中頭郡中城村 沖縄県字南上原９６５番地２
訪問介護事業所　あじまぁー,9012424,,中頭郡中城村,沖縄県字南上原１３９番地, 中頭郡中城村 沖縄県字南上原１３９番地
介護センター　ありがとう,9012424,,中頭郡中城村,沖縄県字南上原７７９番地５, 中頭郡中城村 沖縄県字南上原７７９番地５
ヘルパーステーションあうる,9012424,,中頭郡中城村,沖縄県南上原955番地3, 中頭郡中城村 沖縄県南上原955番地3
アイプラザ介護企画,9012401,,中頭郡中城村,沖縄県久場２０３８番地, 中頭郡中城村 沖縄県久場２０３８番地
ヘルパーステーション西原敬愛園,9030127,,中頭郡西原町,沖縄県徳佐田159番地の１, 中頭郡西原町 沖縄県徳佐田159番地の１
ヘルパーステーション　はーとらいふ,903-0103,,中頭郡西原町,沖縄県字小那覇1606番地, 中頭郡西原町 沖縄県字小那覇1606番地
ヘルパーステーション　きずな,903-0115,,中頭郡西原町,沖縄県池田371番地の21池田ハイツA-24, 中頭郡西原町 沖縄県池田371番地の21池田ハイツA-24
宜野湾記念病院,9012211,,宜野湾市,沖縄県宜野湾三丁目３番13号, 宜野湾市 沖縄県宜野湾三丁目３番13号
海邦病院,9012224,,宜野湾市,沖縄県真志喜２丁目23番５号, 宜野湾市 沖縄県真志喜２丁目23番５号
リハビリ　さんだん花,901-2223,,宜野湾市,沖縄県大山７-７-22, 宜野湾市 沖縄県大山７-７-22
訪問リハビリぎのわんおもと園,9012226,,宜野湾市,沖縄県嘉数4丁目4-10, 宜野湾市 沖縄県嘉数4丁目4-10
医療法人タピック沖縄リハビリテーションセンター病院,9042173,,沖縄市,沖縄県比屋根2丁目15番1号, 沖縄市 沖縄県比屋根2丁目15番1号
愛聖クリニック,9042171,,沖縄市,沖縄県高原５丁目１５番１１号, 沖縄市 沖縄県高原５丁目１５番１１号
翔南病院,9040034,,沖縄市,沖縄県山内３丁目14番28号, 沖縄市 沖縄県山内３丁目14番28号
コザクリニック,9040014,,沖縄市,沖縄県仲宗根町19番１号, 沖縄市 沖縄県仲宗根町19番１号
社会医療法人　敬愛会　ちばなクリニック　訪問リハビリテーション,9042143,,沖縄市,沖縄県知花6丁目25番15号, 沖縄市 沖縄県知花6丁目25番15号
医療法人心和会　潮平病院,904-0021,,沖縄市,胡屋1丁目17番1号, 沖縄市 胡屋1丁目17番1号
医療法人　ちゅうざん会　ちゅうざん病院,904-2151,,沖縄市,沖縄県松本６－２－１, 沖縄市 沖縄県松本６－２－１
伊禮医院,9042303,,うるま市,沖縄県与那城与那城24番地, うるま市 沖縄県与那城与那城24番地
与勝病院,9042311,,うるま市,沖縄県勝連南風原3584番地, うるま市 沖縄県勝連南風原3584番地
おくまクリニック,9041201,,国頭郡金武町,沖縄県金武4790番地1, 国頭郡金武町 沖縄県金武4790番地1
30矯正歯科※会員施設,904-2244,,うるま市,沖縄県字江州549-1, うるま市 沖縄県字江州549-1
読谷村診療所,9040305,,中頭郡読谷村,沖縄県都屋179番地　読谷村診療所, 中頭郡読谷村 沖縄県都屋179番地　読谷村診療所
かなさん内科クリニック,904-0314,,中頭郡読谷村,沖縄県字古堅675番地, 中頭郡読谷村 沖縄県字古堅675番地
ごきげんリハビリクリニック,901-2301,,中頭郡北中城村,沖縄県袋1253番4号, 中頭郡北中城村 沖縄県袋1253番4号
ファミリークリニックきたなかぐすく,9012311,,中頭郡北中城村,沖縄県喜舎場360番地1, 中頭郡北中城村 沖縄県喜舎場360番地1
中部徳洲会病院,9012393,,中頭郡北中城村,沖縄県アワセ土地区画整理事業地内２街区１番, 中頭郡北中城村 沖縄県アワセ土地区画整理事業地内２街区１番
ふれあいデイサービス長田,9012212,,宜野湾市,沖縄県長田１丁目４番９号, 宜野湾市 沖縄県長田１丁目４番９号
デイサービス若松ぎのわん,9012201,,宜野湾市,沖縄県新城1丁目20番6号, 宜野湾市 沖縄県新城1丁目20番6号
ひまわりケアサービス,9042223,,うるま市,沖縄県具志川1345-1, うるま市 沖縄県具志川1345-1
グループホーム　やすらぎの家,9042311,,うるま市,沖縄県勝連南風原4914番地, うるま市 沖縄県勝連南風原4914番地
地域支援ホーム津堅いこいの家,9042317,,うるま市,沖縄県勝連津堅1144番地, うるま市 沖縄県勝連津堅1144番地
グループホームいろは,9042226,,うるま市,沖縄県仲嶺２９８番地２, うるま市 沖縄県仲嶺２９８番地２
デイサービス　四つ葉,9041105,,うるま市,沖縄県石川白浜二丁目2番22号, うるま市 沖縄県石川白浜二丁目2番22号
認知症対応型デイサービス千家,9042311,,うるま市,沖縄県勝連南風原4090番地, うるま市 沖縄県勝連南風原4090番地
共用型　デイサービス　かえで,9042241,,うるま市,沖縄県兼箇段９２２番地, うるま市 沖縄県兼箇段９２２番地
デイサービス　にじ,9041304,,国頭郡宜野座村,沖縄県漢那1953-1, 国頭郡宜野座村 沖縄県漢那1953-1
小規模多機能介護　ちゃたん,9040113,,中頭郡北谷町,沖縄県宮城１番７９３, 中頭郡北谷町 沖縄県宮城１番７９３
通所介護　かみせい,9040101,,中頭郡北谷町,沖縄県上勢633-1, 中頭郡北谷町 沖縄県上勢633-1
デイサービスきたなかぐすく,901-2316,,中頭郡北中城村,沖縄県字安谷屋1346番地-1, 中頭郡北中城村 沖縄県字安谷屋1346番地-1
グループホーム　いなほ,9012404,,中頭郡中城村,沖縄県添石363番地, 中頭郡中城村 沖縄県添石363番地
医療法人　おもと会　グループホーム　さくら,9012226,,宜野湾市,沖縄県字嘉数４丁目４番10号, 宜野湾市 沖縄県字嘉数４丁目４番10号
グループホームふれあい,9012212,,宜野湾市,沖縄県長田１丁目４番地９号, 宜野湾市 沖縄県長田１丁目４番地９号
認知症対応型共同生活介護事業所愛誠園,9012221,,宜野湾市,沖縄県伊佐2丁目1番地6号　ｸﾞﾗﾝﾄﾞｽﾃｰｼﾞMG　地下1階, 宜野湾市 沖縄県伊佐2丁目1番地6号　ｸﾞﾗﾝﾄﾞｽﾃｰｼﾞMG　地下1階
グループホーム若松ぎのわん,9012201,,宜野湾市,沖縄県新城1丁目20番6号, 宜野湾市 沖縄県新城1丁目20番6号
グループホームまえはら,9012215,,宜野湾市,沖縄県真栄原３丁目６番２８号, 宜野湾市 沖縄県真栄原３丁目６番２８号
グループホーム真栄原2丁目,9012215,,宜野湾市,沖縄県真栄原2丁目25番10号, 宜野湾市 沖縄県真栄原2丁目25番10号
グループホーム沖縄一条園,904-2174,,沖縄市,沖縄県与儀3丁目5番10号, 沖縄市 沖縄県与儀3丁目5番10号
グループホーム　月桃,9042143,,沖縄市,沖縄県知花5丁目24番18号, 沖縄市 沖縄県知花5丁目24番18号
グループホームごえくの里,9040001,,沖縄市,沖縄県越来3丁目11番20号, 沖縄市 沖縄県越来3丁目11番20号
グループホーム美ら徳,904-0021,,沖縄市,沖縄県胡屋６丁目４番１９号, 沖縄市 沖縄県胡屋６丁目４番１９号
認知症グループホーム　ローズガーデン,904-0032,,沖縄市,沖縄県諸見里３丁目４１番３０号, 沖縄市 沖縄県諸見里３丁目４１番３０号
愛聖グループホームペガサス,9042161,,沖縄市,沖縄県古謝2丁目16番8号, 沖縄市 沖縄県古謝2丁目16番8号
グループホーム東山,904-1102,,うるま市,沖縄県石川東山二丁目24番地10号, うるま市 沖縄県石川東山二丁目24番地10号
グループホーム　やすらぎの家,9042311,,うるま市,沖縄県勝連南風原4914番地, うるま市 沖縄県勝連南風原4914番地
グループホーム喜楽,9042214,,うるま市,沖縄県安慶名362番地の11, うるま市 沖縄県安慶名362番地の11
認知症対応型共同生活介護事業所　グループホームあおば邸,9042222,,うるま市,沖縄県上江洲708番地の1, うるま市 沖縄県上江洲708番地の1
地域支援ホーム津堅いこいの家,9042317,,うるま市,沖縄県勝連津堅1144番地, うるま市 沖縄県勝連津堅1144番地
グループホームいろは,9042226,,うるま市,沖縄県仲嶺２９８番地２, うるま市 沖縄県仲嶺２９８番地２
グループホームかえで,9042241,,うるま市,沖縄県兼箇段９２２番地, うるま市 沖縄県兼箇段９２２番地
グループホーム福ら舎,9040411,,国頭郡恩納村,沖縄県恩納6332番地, 国頭郡恩納村 沖縄県恩納6332番地
グループホーム　虹の家,9041304,,国頭郡宜野座村,沖縄県漢那1953-1, 国頭郡宜野座村 沖縄県漢那1953-1
グループホーム　くばの里,9041201,,国頭郡金武町,沖縄県金武４１９６－２６, 国頭郡金武町 沖縄県金武４１９６－２６
グループホームくばの里ハウス,9041201,,国頭郡金武町,沖縄県金武4196－147, 国頭郡金武町 沖縄県金武4196－147
グループホーム　よみたん　ふくぎの里,9040302,,中頭郡読谷村,沖縄県喜名2272番地4, 中頭郡読谷村 沖縄県喜名2272番地4
ライフケアホーム読谷,904-0324,,中頭郡読谷村,沖縄県字長浜1530番地の1, 中頭郡読谷村 沖縄県字長浜1530番地の1
グループホームきらめきトグチ,904-0315,,中頭郡読谷村,沖縄県渡具知３７番地の２, 中頭郡読谷村 沖縄県渡具知３７番地の２
さわやかホーム比謝川の里,9040204,,中頭郡嘉手納町,沖縄県水釜336番地の2, 中頭郡嘉手納町 沖縄県水釜336番地の2
グループホーム　海風,9040117,,中頭郡北谷町,沖縄県北前1丁目3番5号, 中頭郡北谷町 沖縄県北前1丁目3番5号
グループホームちゃたん,9040113,,中頭郡北谷町,沖縄県宮城１番７９３, 中頭郡北谷町 沖縄県宮城１番７９３
認知症対応型グループホーム　結の郷,9040105,,中頭郡北谷町,沖縄県吉原1180-1番地, 中頭郡北谷町 沖縄県吉原1180-1番地
グループホーム　上勢頭,904-0101,,中頭郡北谷町,沖縄県上勢633-1, 中頭郡北谷町 沖縄県上勢633-1
グループホーム　わかまつ,9012314,,中頭郡北中城村,沖縄県大城４１８－２, 中頭郡北中城村 沖縄県大城４１８－２
グループホーム　いなほ,9012404,,中頭郡中城村,沖縄県添石363番地, 中頭郡中城村 沖縄県添石363番地
認知症対応型共同生活介護事業所中城愛誠園,9012406,,中頭郡中城村,沖縄県当間289－5, 中頭郡中城村 沖縄県当間289－5
グループホームさわふじ,9030124,,中頭郡西原町,沖縄県字呉屋73番地1, 中頭郡西原町 沖縄県字呉屋73番地1
グループホーム　クローバー,9030117,,中頭郡西原町,沖縄県字翁長５９１番地前田産業ビル２階, 中頭郡西原町 沖縄県字翁長５９１番地前田産業ビル２階
医療法人宜野湾整形外科医院デイサービスまえはら,9012215,,宜野湾市,沖縄県真栄原３丁目７番７号, 宜野湾市 沖縄県真栄原３丁目７番７号
デイサービス　池原,9012201,,宜野湾市,沖縄県新城２丁目４０－２７, 宜野湾市 沖縄県新城２丁目４０－２７
通所介護事業所愛誠園,9012223,,宜野湾市,沖縄県大山３丁目31番１号, 宜野湾市 沖縄県大山３丁目31番１号
デイサービスさんだん花,901-2223,,宜野湾市,沖縄県大山7-7-22, 宜野湾市 沖縄県大山7-7-22
医療法人おもと会　デイサービスセンター上原,9012204,,宜野湾市,沖縄県上原1丁目15番11号, 宜野湾市 沖縄県上原1丁目15番11号
デイサービスセンターマナ,9012213,,宜野湾市,沖縄県志真志1丁目13番19号, 宜野湾市 沖縄県志真志1丁目13番19号
デイサービス風車,9012212,,宜野湾市,沖縄県長田１丁目１４番１９号, 宜野湾市 沖縄県長田１丁目１４番１９号
デイサービスセンター想い,9012211,,宜野湾市,沖縄県宜野湾三丁目９番１４号, 宜野湾市 沖縄県宜野湾三丁目９番１４号
ふれあいデイサービス　宜野湾事業所,9012211,,宜野湾市,沖縄県宜野湾一丁目１番２号, 宜野湾市 沖縄県宜野湾一丁目１番２号
デイサービスセンター　寿愛,9012225,,宜野湾市,沖縄県大謝名二丁目2番10号　1階, 宜野湾市 沖縄県大謝名二丁目2番10号　1階
デイサービスセンターがじまぁる,9012227,,宜野湾市,沖縄県宇地泊100番地ｲｻﾑﾋﾞﾙ1F, 宜野湾市 沖縄県宇地泊100番地ｲｻﾑﾋﾞﾙ1F
デイサービスおれんじ,9012226,,宜野湾市,沖縄県嘉数二丁目2番1号広栄ﾒﾃﾞｨｶﾙﾋﾞﾙ5階, 宜野湾市 沖縄県嘉数二丁目2番1号広栄ﾒﾃﾞｨｶﾙﾋﾞﾙ5階
デイサービス花笠,9012203,,宜野湾市,沖縄県野嵩三丁目33番15号, 宜野湾市 沖縄県野嵩三丁目33番15号
さんだん花ガーデンデイサービス,901－2227,,宜野湾市,沖縄県字宇地泊７１５番地, 宜野湾市 沖縄県字宇地泊７１５番地
デイサービスセンター　ぎのわん,9012223,,宜野湾市,沖縄県大山６－２５－７パークサイドテラス１０１号, 宜野湾市 沖縄県大山６－２５－７パークサイドテラス１０１号
デイサービスふくやま,9012225,,宜野湾市,沖縄県大謝名５－２１－５, 宜野湾市 沖縄県大謝名５－２１－５
デイサービス森の川,9012215,,宜野湾市,沖縄県真栄原３丁目１７番２号友愛ビル１F, 宜野湾市 沖縄県真栄原３丁目１７番２号友愛ビル１F
デイサービスおれんじ嘉数,9012226,,宜野湾市,沖縄県嘉数二丁目５番３２号（１階）, 宜野湾市 沖縄県嘉数二丁目５番３２号（１階）
通所介護センター　彩風の杜,901-2204,,宜野湾市,沖縄県上原２－８－６普天間産業ビル１０１号, 宜野湾市 沖縄県上原２－８－６普天間産業ビル１０１号
デイサービスセンター志真志,9012213,,宜野湾市,沖縄県志真志三丁目２番５号, 宜野湾市 沖縄県志真志三丁目２番５号
福寿園デイサービスセンター,9012205,,宜野湾市,沖縄県赤道二丁目７番２号, 宜野湾市 沖縄県赤道二丁目７番２号
ふれあいデイサービス愛知,9012206,,宜野湾市,沖縄県愛知三丁目17番20号, 宜野湾市 沖縄県愛知三丁目17番20号
デイサービスプルメリア,9012223,,宜野湾市,沖縄県大山五丁目3番1号, 宜野湾市 沖縄県大山五丁目3番1号
はにんすの森デイサービス,9012203,,宜野湾市,沖縄県野嵩1丁目11番14号, 宜野湾市 沖縄県野嵩1丁目11番14号
デイサービスセンターたぁーち,9012206,,宜野湾市,沖縄県愛知二丁目7番6, 宜野湾市 沖縄県愛知二丁目7番6
デイサービスセンター　寿愛　我如古,9012214,,宜野湾市,沖縄県我如古1丁目55番13号　1階, 宜野湾市 沖縄県我如古1丁目55番13号　1階
沖縄一条園通所介護事業所,904-2174,,沖縄市,沖縄県与儀3丁目5番10号, 沖縄市 沖縄県与儀3丁目5番10号
緑樹苑指定通所介護事業所,9040021,,沖縄市,沖縄県胡屋7丁目2番10号, 沖縄市 沖縄県胡屋7丁目2番10号
老人デイサービスセンター　おきなわ長寿苑,9042142,,沖縄市,沖縄県登川1403番地, 沖縄市 沖縄県登川1403番地
介護サービスももやま,9040033,,沖縄市,沖縄県山里１丁目４番15号, 沖縄市 沖縄県山里１丁目４番15号
有限会社介護サービスセンター桃原　デイサービス桃原,9042164,,沖縄市,沖縄県桃原２７４番地１, 沖縄市 沖縄県桃原２７４番地１
デイサービス　笑顔,904-2173,,沖縄市,沖縄県比屋根六丁目２番６号, 沖縄市 沖縄県比屋根六丁目２番６号
松本デイサービスセンター,9042151,,沖縄市,沖縄県松本5丁目2番2号, 沖縄市 沖縄県松本5丁目2番2号
通所介護センターアワセ敬老館,9042172,,沖縄市,沖縄県泡瀬１丁目３１番１７, 沖縄市 沖縄県泡瀬１丁目３１番１７
まつもと医院デイサービスセンター,904-2151,,沖縄市,沖縄県松本1-22-2, 沖縄市 沖縄県松本1-22-2
通所介護センター　登川の里,9042142,,沖縄市,沖縄県登川７４２番地, 沖縄市 沖縄県登川７４２番地
デイサービス　ありがとうの木,9042163,,沖縄市,沖縄県大里56番地, 沖縄市 沖縄県大里56番地
デイサービスセンター　なのはな,9040022,,沖縄市,沖縄県園田２丁目３２番１７号, 沖縄市 沖縄県園田２丁目３２番１７号
愛聖クリニック泡瀬北デイサービスセンター,904-2162,,沖縄市,沖縄県海邦１丁目１５番１０号, 沖縄市 沖縄県海邦１丁目１５番１０号
デイサービス あわせ,9042172,,沖縄市,沖縄県泡瀬四丁目４１番７号, 沖縄市 沖縄県泡瀬四丁目４１番７号
デイサービスセンターもろみの里,9040032,,沖縄市,沖縄県諸見里一丁目２６番１０号, 沖縄市 沖縄県諸見里一丁目２６番１０号
通所介護　しおひら,904-0022,,沖縄市,沖縄県園田2-15-5, 沖縄市 沖縄県園田2-15-5
ツクイ沖縄古謝,904-2166,,沖縄市,沖縄県古謝津嘉山町10-8, 沖縄市 沖縄県古謝津嘉山町10-8
デイサービス　さつき,9042163,,沖縄市,沖縄県大里一丁目19番46号(2F), 沖縄市 沖縄県大里一丁目19番46号(2F)
デイサービスセンターエデンの園,904ー0014,,沖縄市,沖縄県仲宗根町13番18号, 沖縄市 沖縄県仲宗根町13番18号
ケアサービスセンター琉和,9042142,,沖縄市,沖縄県登川２丁目７番４号, 沖縄市 沖縄県登川２丁目７番４号
コザ介護福祉センター,9042143,,沖縄市,沖縄県知花６丁目15番５号, 沖縄市 沖縄県知花６丁目15番５号
ケアプラン　しあわせ街角,9040031,,沖縄市,沖縄県上地２丁目９番地５号１階　１０２号室, 沖縄市 沖縄県上地２丁目９番地５号１階　１０２号室
デイサービスセンター美浦,9042161,,沖縄市,沖縄県古謝三丁目12番20号, 沖縄市 沖縄県古謝三丁目12番20号
JAおきなわ中部介護福祉センター　デイサービス,9040014,,沖縄市,沖縄県仲宗根町14番15号, 沖縄市 沖縄県仲宗根町14番15号
デイサービス　一歩,9042141,,沖縄市,沖縄県池原五丁目２番13号　, 沖縄市 沖縄県池原五丁目２番13号　
デイサービスセンター海邦,9042162,,沖縄市,沖縄県海邦一丁目15番8号, 沖縄市 沖縄県海邦一丁目15番8号
生協デイサービス美里,9042153,,沖縄市,沖縄県美里２丁目２７番２０号, 沖縄市 沖縄県美里２丁目２７番２０号
プラザ・デイサービス,9040035,,沖縄市,沖縄県南桃原３丁目２２番１０, 沖縄市 沖縄県南桃原３丁目２２番１０
いきがいのまちデイサービス美里,904-2163,,沖縄市,沖縄県美原2丁目8番７号, 沖縄市 沖縄県美原2丁目8番７号
通所介護　ひまわり古謝,9042161,,沖縄市,沖縄県古謝津嘉山町14番20号　共立ハイツ, 沖縄市 沖縄県古謝津嘉山町14番20号　共立ハイツ
デイサービスセンター　シオン,9040034,,沖縄市,沖縄県山内一丁目７番５号安立医院４階, 沖縄市 沖縄県山内一丁目７番５号安立医院４階
デイサービス　浜さん家,9042141,,沖縄市,沖縄県池原三丁目３番８号, 沖縄市 沖縄県池原三丁目３番８号
デイサービス　がんじゅう堂,904-2161,,沖縄市,沖縄県字古謝2丁目21番41号, 沖縄市 沖縄県字古謝2丁目21番41号
デイサービス　ブナガヤ,9040012,,沖縄市,沖縄県安慶田三丁目６番１６号, 沖縄市 沖縄県安慶田三丁目６番１６号
デイサービス竹園,9040032,,沖縄市,沖縄県諸見里三丁目41番36号, 沖縄市 沖縄県諸見里三丁目41番36号
デイサービス　寿ぬ館,9042174,,沖縄市,沖縄県与儀一丁目２２番１号, 沖縄市 沖縄県与儀一丁目２２番１号
デイサービスたんぽぽ 松本,9042151,,沖縄市,沖縄県松本五丁目１３番２０号, 沖縄市 沖縄県松本五丁目１３番２０号
デイサービスあおい,9042155,,沖縄市,沖縄県美原１丁目１１番２１号　１Ｆ, 沖縄市 沖縄県美原１丁目１１番２１号　１Ｆ
デイサービス　ニヘーデービル,9042163,,沖縄市,沖縄県大里９８－１, 沖縄市 沖縄県大里９８－１
デイサービス 美らさん,9042171,,沖縄市,沖縄県高原六丁目２番２号１０１号室, 沖縄市 沖縄県高原六丁目２番２号１０１号室
あいケアー　通所介護事業所,9042141,,沖縄市,沖縄県字池原５丁目３番２９号, 沖縄市 沖縄県字池原５丁目３番２９号
デイサービスセンター中部和厚園,9042141,,沖縄市,沖縄県池原5丁目3番29号, 沖縄市 沖縄県池原5丁目3番29号
愛聖クリニック デイサービスセンター はる,9042161,,沖縄市,沖縄県字古謝2-16-10, 沖縄市 沖縄県字古謝2-16-10
デイサービスくくる,9040035,,沖縄市,沖縄県南桃原２丁目１７番２７号, 沖縄市 沖縄県南桃原２丁目１７番２７号
デイサービスここいち池原,9042141,,沖縄市,沖縄県池原２－７－２５, 沖縄市 沖縄県池原２－７－２５
デイサービスちむわざ,9042172,,沖縄市,沖縄県泡瀬三丁目２６番５号, 沖縄市 沖縄県泡瀬三丁目２６番５号
デイサービスサンライズいさ,9042174,,沖縄市,沖縄県与儀一丁目２９番１９号, 沖縄市 沖縄県与儀一丁目２９番１９号
デイサービス　ＲｙＣｏｍ,9040033,,沖縄市,沖縄県山里一丁目９番７号１階, 沖縄市 沖縄県山里一丁目９番７号１階
デイサービスふれ愛・高原,9042171,,沖縄市,沖縄県高原二丁目３番７号, 沖縄市 沖縄県高原二丁目３番７号
みやらび沖縄美里,9042153,,沖縄市,沖縄県美里二丁目２８番５号, 沖縄市 沖縄県美里二丁目２８番５号
デイサービスセンター樹,9042163,,沖縄市,沖縄県大里2丁目6番6号, 沖縄市 沖縄県大里2丁目6番6号
通所介護　ひまわり胡屋,9040021,,沖縄市,沖縄県胡屋五丁目19番16号, 沖縄市 沖縄県胡屋五丁目19番16号
わくわくデイサービス沖縄,9040021,,沖縄市,沖縄県胡屋六丁目１１番７号, 沖縄市 沖縄県胡屋六丁目１１番７号
ヘルパーステーションりんご,9042174,,沖縄市,沖縄県与儀三丁目３番２号, 沖縄市 沖縄県与儀三丁目３番２号
デイサービスがんじゅうの扉,904-0021,,沖縄市,沖縄県胡屋二丁目9番2号　ディアコート胡屋１０１号, 沖縄市 沖縄県胡屋二丁目9番2号　ディアコート胡屋１０１号
デイサービス結らんど,9042173,,沖縄市,沖縄県比屋根七丁目28番30号, 沖縄市 沖縄県比屋根七丁目28番30号
医療法人わかな会ＬＥＴ’ｓ倶楽部おきなわ,9040021,,沖縄市,沖縄県胡屋二丁目１２番１０号橋口店舗, 沖縄市 沖縄県胡屋二丁目１２番１０号橋口店舗
デイサービス　宙伸かいほうちょう,904-2162,,沖縄市,沖縄県海邦一丁目６番５号, 沖縄市 沖縄県海邦一丁目６番５号
プラザデイサービス高原,9042171,,沖縄市,沖縄県高原五丁目２番５号, 沖縄市 沖縄県高原五丁目２番５号
デイサービスワンスタイル,904-0021,,沖縄市,沖縄県胡屋五丁目１３番２号, 沖縄市 沖縄県胡屋五丁目１３番２号
アワセ第一デイサービス,904ー2172,,沖縄市,沖縄県泡瀬２丁目53番19号, 沖縄市 沖縄県泡瀬２丁目53番19号
リハプライドスイム池原苑,9042141,,沖縄市,沖縄県池原３丁目10番112号, 沖縄市 沖縄県池原３丁目10番112号
デイサービス松本三丁目,9042151,,沖縄市,沖縄県松本三丁目19番11号, 沖縄市 沖縄県松本三丁目19番11号
デイサービス　てぃんさぐ苑,9042205,,うるま市,沖縄県栄野比1151番地1, うるま市 沖縄県栄野比1151番地1
伊禮医院　リハビリ型デイサービスセンター,904-2303,,うるま市,沖縄県与那城与那城24番地, うるま市 沖縄県与那城与那城24番地
ハートケア与勝デイサービスセンター,9042311,,うるま市,沖縄県勝連南風原3601番地2, うるま市 沖縄県勝連南風原3601番地2
楽寿園指定通所介護事業所,9041114,,うるま市,沖縄県石川嘉手苅961番地17, うるま市 沖縄県石川嘉手苅961番地17
デイサービスセンター輝指定通所介護事業所,9042212,,うるま市,沖縄県字赤野１４０６番地の１, うるま市 沖縄県字赤野１４０６番地の１
ケアサポート海風,9042223,,うるま市,沖縄県具志川1345番地1, うるま市 沖縄県具志川1345番地1
デイサービスたばた,9042225,,うるま市,沖縄県字喜屋武160番地, うるま市 沖縄県字喜屋武160番地
有限会社　かりゆし　デイサービス,9042241,,うるま市,沖縄県兼箇段912番地13, うるま市 沖縄県兼箇段912番地13
デイサービスセンター　うるまの里,9042211,,うるま市,沖縄県宇堅1322番地1, うるま市 沖縄県宇堅1322番地1
通所介護事業所　千家,9042311,,うるま市,沖縄県勝連南風原４０２２番地１, うるま市 沖縄県勝連南風原４０２２番地１
リハプライド　デイサービススイム,904-2205,,うるま市,沖縄県栄野比７５３番地の２, うるま市 沖縄県栄野比７５３番地の２
デイサービスあかみち,9042245,,うるま市,沖縄県赤道１２番地の１６, うるま市 沖縄県赤道１２番地の１６
夢のみずうみ村平安郷デイサービスセンター,9042426,,うるま市,沖縄県与那城平安座427-1, うるま市 沖縄県与那城平安座427-1
デイサービスセンター　つわぶき,9042244,,うるま市,沖縄県江洲135-5-3, うるま市 沖縄県江洲135-5-3
デイサービスセンターのいえ,9042232,,うるま市,沖縄県川田４８１番地１, うるま市 沖縄県川田４８１番地１
デイサービス　奈の花,904-2244,,うるま市,沖縄県字江洲６３６番地, うるま市 沖縄県字江洲６３６番地
うるまケアセンター通所介護,9042215,,うるま市,沖縄県みどり町五丁目14番７号, うるま市 沖縄県みどり町五丁目14番７号
デイサービスセンター　美和,904-2225,,うるま市,沖縄県喜屋武672番地, うるま市 沖縄県喜屋武672番地
デイサービスあおぞら,904-2244,,うるま市,沖縄県字江洲３８番地３, うるま市 沖縄県字江洲３８番地３
デイサービスみはら,9042213,,うるま市,沖縄県田場３５６－２番地, うるま市 沖縄県田場３５６－２番地
通所介護　ひまわり石川,9041106,,うるま市,沖縄県石川二丁目11番24号, うるま市 沖縄県石川二丁目11番24号
よかつ　デイサービス,9042312,,うるま市,沖縄県勝連平安名1655番地1, うるま市 沖縄県勝連平安名1655番地1
デイサービス　ちぃぱっぱ,9042235,,うるま市,沖縄県前原５４７－１フリーダムマンションＢ－１, うるま市 沖縄県前原５４７－１フリーダムマンションＢ－１
ＳＹＭデイサービスセンター煌（きらり）,9042223,,うるま市,沖縄県具志川２４３６番地, うるま市 沖縄県具志川２４３６番地
デイサービス　カシータ,9042244,,うるま市,沖縄県江洲135-3, うるま市 沖縄県江洲135-3
デイサービスここいちうるま,9041111,,うるま市,沖縄県石川東恩納１３３－１, うるま市 沖縄県石川東恩納１３３－１
デイサービス　にこにこフリーダム,9042424,,うるま市,沖縄県与那城上原１５７９番地１の１, うるま市 沖縄県与那城上原１５７９番地１の１
デイサービス　エーアンドエス,904-2224,,うるま市,沖縄県字大田２７６番地８, うるま市 沖縄県字大田２７６番地８
機能訓練型デイサービス　ジョイリハうるま,904-2214,,うるま市,沖縄県字安慶名一丁目２番１４号コーポＹＯＮＡＨＡ１ １０１号室, うるま市 沖縄県字安慶名一丁目２番１４号コーポＹＯＮＡＨＡ１ １０１号室
デイサービス　風車星,9041105,,うるま市,沖縄県石川白浜二丁目５番１４号　１Ｆ, うるま市 沖縄県石川白浜二丁目５番１４号　１Ｆ
デイサービスセンター　大育の杜　育（はぐくみ）,9041106,,うるま市,沖縄県石川２２８４－１, うるま市 沖縄県石川２２８４－１
デイサービス　ふくろう,9041106,,うるま市,沖縄県石川２１２２番地１, うるま市 沖縄県石川２１２２番地１
デイサービス　てるてる,9042214,,うるま市,沖縄県字安慶名１０３２番地１　１Ｆ, うるま市 沖縄県字安慶名１０３２番地１　１Ｆ
デイサービスここいち上江洲,9042222,,うるま市,沖縄県字上江洲４６６番地１, うるま市 沖縄県字上江洲４６６番地１
シニアデイサービスセンター,9041111,,うるま市,沖縄県石川東恩納１５０８番地１, うるま市 沖縄県石川東恩納１５０８番地１
デイサービスセンター　いちゅい,9042203,,うるま市,沖縄県字川崎１４５番地１, うるま市 沖縄県字川崎１４５番地１
デイサービス　みどり町,9042215,,うるま市,沖縄県みどり町五丁目２７番３号, うるま市 沖縄県みどり町五丁目２７番３号
デイサービスセンターかつれん,904-2313,,うるま市,沖縄県勝連内間１２１５番地１, うるま市 沖縄県勝連内間１２１５番地１
あい・ゆうデイサービス,9042307,,うるま市,沖縄県与那城饒辺239番地2, うるま市 沖縄県与那城饒辺239番地2
デイサービス愛の花,9041111,,うるま市,沖縄県石川東恩納９４２番地３, うるま市 沖縄県石川東恩納９４２番地３
デイサービスセンターポモック,9042303,,うるま市,沖縄県与那城106番地, うるま市 沖縄県与那城106番地
デイサービスおもろの郷,9042214,,うるま市,沖縄県安慶名三丁目４番２３号, うるま市 沖縄県安慶名三丁目４番２３号
デイサービス　プライム,9042235,,うるま市,沖縄県前原２６０番地５, うるま市 沖縄県前原２６０番地５
デイサービス縁満,9041115,,うるま市,沖縄県石川伊波142番地, うるま市 沖縄県石川伊波142番地
通所介護　ひまわり宮里,904-2243,,うるま市,沖縄県字宮里８３０番地１１, うるま市 沖縄県字宮里８３０番地１１
デイサービスセンターあやはし苑,9042304,,うるま市,沖縄県与那城屋慶名1410番地, うるま市 沖縄県与那城屋慶名1410番地
うるま市社協指定通所介護事業所,904-2304,,うるま市,沖縄県与那城屋慶名１０９８番地　うるま市与那城社会福祉ｾﾝﾀｰ, うるま市 沖縄県与那城屋慶名１０９８番地　うるま市与那城社会福祉ｾﾝﾀｰ
指定通所介護事業所与勝の里,9042311,,うるま市,沖縄県勝連南風原4902番地, うるま市 沖縄県勝連南風原4902番地
デイサービスセンター谷茶の丘,9040412,,国頭郡恩納村,沖縄県谷茶1919番地７, 国頭郡恩納村 沖縄県谷茶1919番地７
デイサービスセンター　かたばる,904-0411,,国頭郡恩納村,沖縄県字恩納6302番地, 国頭郡恩納村 沖縄県字恩納6302番地
山田リハビリデイサービスセンター,9040416,,国頭郡恩納村,沖縄県山田１０１０番地, 国頭郡恩納村 沖縄県山田１０１０番地
福ら舎通所介護事業所,9040411,,国頭郡恩納村,沖縄県恩納6332番地, 国頭郡恩納村 沖縄県恩納6332番地
宜野座村通所介護事業所,904-1303,,国頭郡宜野座村,沖縄県字惣慶1898番地　（宜野座村地域福祉センター内）, 国頭郡宜野座村 沖縄県字惣慶1898番地　（宜野座村地域福祉センター内）
介護センターかんな指定通所介護事業所,9041304,,国頭郡宜野座村,沖縄県漢那1953番地1, 国頭郡宜野座村 沖縄県漢那1953番地1
光が丘デイサービスセンター,9041202,,国頭郡金武町,沖縄県伊芸1292番地の１, 国頭郡金武町 沖縄県伊芸1292番地の１
リハビリﾃﾞｲｻｰﾋﾞｽ　あやかい,9041201,,国頭郡金武町,沖縄県金武10464番地, 国頭郡金武町 沖縄県金武10464番地
リハビリデイサービス　チャレンジ,9041201,,国頭郡金武町,沖縄県字金武４８３６番地７, 国頭郡金武町 沖縄県字金武４８３６番地７
デイサービス　まくとぅ,904-1201,,国頭郡金武町,沖縄県字金武10437番地, 国頭郡金武町 沖縄県字金武10437番地
オリーブデイサービス金武,9041201,,国頭郡金武町,沖縄県金武８８２番地, 国頭郡金武町 沖縄県金武８８２番地
ライフケア長浜　デイサービスセンター,904-0324,,中頭郡読谷村,沖縄県長浜1530-1, 中頭郡読谷村 沖縄県長浜1530-1
読谷の里デイサービスセンター指定通所介護事業所,9040301,,中頭郡読谷村,沖縄県座喜味1875-1, 中頭郡読谷村 沖縄県座喜味1875-1
よみたん生き活き健康デイサービスセンター,9040305,,中頭郡読谷村,沖縄県都屋167-2, 中頭郡読谷村 沖縄県都屋167-2
デイサービスセンターたんぽぽ,9040314,,中頭郡読谷村,沖縄県古堅587番地, 中頭郡読谷村 沖縄県古堅587番地
ヴィラージュせなはデイサービスセンター,9040324,,中頭郡読谷村,沖縄県長浜1110番地, 中頭郡読谷村 沖縄県長浜1110番地
介護支援センター　和合　通所介護読谷事業所,9040321,,中頭郡読谷村,沖縄県字上地６４番地, 中頭郡読谷村 沖縄県字上地６４番地
デイサービス　ざきみ,9040321,,中頭郡読谷村,沖縄県上地329番地, 中頭郡読谷村 沖縄県上地329番地
デイサービスセンター　あかり,9040314,,中頭郡読谷村,沖縄県古堅629番地, 中頭郡読谷村 沖縄県古堅629番地
デイサービスはなうい,904-0302,,中頭郡読谷村,沖縄県字比謝400-6　１F, 中頭郡読谷村 沖縄県字比謝400-6　１F
通所介護ライフサポートゆらぎ,904-0325,,中頭郡読谷村,沖縄県字瀬名波632番地ウィンズトウヤマ１階, 中頭郡読谷村 沖縄県字瀬名波632番地ウィンズトウヤマ１階
デイサービス　うふどー,9040322,,中頭郡読谷村,沖縄県字波平2428番地１, 中頭郡読谷村 沖縄県字波平2428番地１
デイサービスはなういⅡ,904-0303,,中頭郡読谷村,沖縄県字伊良皆637番地2, 中頭郡読谷村 沖縄県字伊良皆637番地2
デイサービスななふく,904-0324,,中頭郡読谷村,沖縄県字長浜１１９４番地, 中頭郡読谷村 沖縄県字長浜１１９４番地
デイサービス　まゆの里おおわん,9040313,,中頭郡読谷村,沖縄県字大湾６６３－１, 中頭郡読谷村 沖縄県字大湾６６３－１
夢咲デイサービスセンター 喜名,9040302,,中頭郡読谷村,沖縄県字喜名２３４５番地５１, 中頭郡読谷村 沖縄県字喜名２３４５番地５１
楚辺リハビリ・デイサービスセンター,904-0304,,中頭郡読谷村,沖縄県楚辺1300番地, 中頭郡読谷村 沖縄県楚辺1300番地
ケアセンター　きらめき,9040315,,中頭郡読谷村,沖縄県渡具知３７番地の２, 中頭郡読谷村 沖縄県渡具知３７番地の２
聖隷デイサービスセンターゆい,9040203,,中頭郡嘉手納町,沖縄県字嘉手納２７０－１９１F, 中頭郡嘉手納町 沖縄県字嘉手納２７０－１９１F
デイサービスセンター比謝川の里,9040201,,中頭郡嘉手納町,沖縄県字久得242番地の２, 中頭郡嘉手納町 沖縄県字久得242番地の２
デイサービスセンター比謝川の里ロータリー,9040203,,中頭郡嘉手納町,沖縄県字嘉手納290番地4, 中頭郡嘉手納町 沖縄県字嘉手納290番地4
デイサービスセンター　サンハート,9040202,,中頭郡嘉手納町,沖縄県屋良１丁目２１番地１, 中頭郡嘉手納町 沖縄県屋良１丁目２１番地１
リハビリ型デイサービスさんだん花カデナ,9040203,,中頭郡嘉手納町,沖縄県嘉手納290番地4ロータリー2号館104号, 中頭郡嘉手納町 沖縄県嘉手納290番地4ロータリー2号館104号
通所介護　たまき,9040101,,中頭郡北谷町,沖縄県上勢837番地の８　コーポレーション大城１階, 中頭郡北谷町 沖縄県上勢837番地の８　コーポレーション大城１階
社会福祉法人北谷町社会福祉協議会指定通所介護事業所,9040103,,中頭郡北谷町,沖縄県桑江731番地　北谷町保健相談センター内, 中頭郡北谷町 沖縄県桑江731番地　北谷町保健相談センター内
琉球メディカルズ通所介護事業所,9040103,,中頭郡北谷町,沖縄県桑江400番地の2, 中頭郡北谷町 沖縄県桑江400番地の2
デイサービス　大空,9040105,,中頭郡北谷町,沖縄県吉原628番地11　4階, 中頭郡北谷町 沖縄県吉原628番地11　4階
通所介護ようめいえん,9040113,,中頭郡北谷町,沖縄県字宮城１番７９３, 中頭郡北谷町 沖縄県字宮城１番７９３
デイサービス　ちゃたん,9040103,,中頭郡北谷町,沖縄県字桑江４７９－８, 中頭郡北谷町 沖縄県字桑江４７９－８
デイサービスセンター　パステル,9040103,,中頭郡北谷町,沖縄県字桑江２８７番地２, 中頭郡北谷町 沖縄県字桑江２８７番地２
リハビリ特化型デイサービス　リハビックス北谷店,9040102,,中頭郡北谷町,沖縄県伊平２８１ｌＧＬＯＯ店舗１Ｆ, 中頭郡北谷町 沖縄県伊平２８１ｌＧＬＯＯ店舗１Ｆ
ごきげんデイサービス,901-2301,,中頭郡北中城村,沖縄県字袋1253番地の４, 中頭郡北中城村 沖縄県字袋1253番地の４
若松苑デイサービス,9012314,,中頭郡北中城村,沖縄県大城327番地, 中頭郡北中城村 沖縄県大城327番地
ファミリーデイサービスアガペ,9012311,,中頭郡北中城村,沖縄県喜舎場３６０番地１, 中頭郡北中城村 沖縄県喜舎場３６０番地１
愛の村デイサービスセンター,9012301,,中頭郡北中城村,沖縄県袋1394番地, 中頭郡北中城村 沖縄県袋1394番地
デイサービスふくとく,901-2303,,中頭郡北中城村,沖縄県字仲順375番地の1, 中頭郡北中城村 沖縄県字仲順375番地の1
デイサービス　北中喜楽苑,9012301,,中頭郡北中城村,沖縄県字袋１９４４番地１　２階, 中頭郡北中城村 沖縄県字袋１９４４番地１　２階
バリキの介護　ＢＡＲＩＫＩ ＲＥＳＯＲＴ 美崎海岸店,9012321,,中頭郡北中城村,沖縄県字美崎７番地, 中頭郡北中城村 沖縄県字美崎７番地
デイサービス　愛,9012313,,中頭郡北中城村,沖縄県字熱田５９８番地, 中頭郡北中城村 沖縄県字熱田５９８番地
介護支援センター中部,9012303,,中頭郡北中城村,沖縄県仲順375-1, 中頭郡北中城村 沖縄県仲順375-1
在宅介護サービスセンター中城,9012412,,中頭郡中城村,沖縄県奥間909番地１, 中頭郡中城村 沖縄県奥間909番地１
通所介護事業所愛誠園東センター,9012406,,中頭郡中城村,沖縄県字当間289番地1, 中頭郡中城村 沖縄県字当間289番地1
デイサービスセンターオアシス,9012404,,中頭郡中城村,沖縄県添石363番地, 中頭郡中城村 沖縄県添石363番地
デイｻｰﾋﾞｽセンター　ひふみ,9012423,,中頭郡中城村,沖縄県北上原693番地, 中頭郡中城村 沖縄県北上原693番地
デイサービスセンター　桜の杜,9012403,,中頭郡中城村,沖縄県伊舎堂284-29-1, 中頭郡中城村 沖縄県伊舎堂284-29-1
デイサービスセンター野の花,901-2421,,中頭郡中城村,沖縄県登又420番地2, 中頭郡中城村 沖縄県登又420番地2
なかぐすく日の出園デイサービスセンター,9012403,,中頭郡中城村,沖縄県字伊舎堂３６２番地, 中頭郡中城村 沖縄県字伊舎堂３６２番地
デイサービス　あまどころ,9012422,,中頭郡中城村,沖縄県新垣２６５-１, 中頭郡中城村 沖縄県新垣２６５-１
デイサービス　みずほ,901-2424,,中頭郡中城村,沖縄県字南上原６５１番地, 中頭郡中城村 沖縄県字南上原６５１番地
リハビリ特化型デイサービスセンターしまごころ,9012421,,中頭郡中城村,沖縄県登又６８－１, 中頭郡中城村 沖縄県登又６８－１
デイサービスセンター　かふ～,9012424,,中頭郡中城村,沖縄県南上原４７２番２号, 中頭郡中城村 沖縄県南上原４７２番２号
あいわクリニックデイサービスセンター,903-0115,,中頭郡西原町,沖縄県池田766-2, 中頭郡西原町 沖縄県池田766-2
通所介護事業所守礼の里,9030101,,中頭郡西原町,沖縄県字掛保久346番地, 中頭郡西原町 沖縄県字掛保久346番地
デイサービス　さとうきび,9030117,,中頭郡西原町,沖縄県字翁長393, 中頭郡西原町 沖縄県字翁長393
デイサービスもりのはな,9030112,,中頭郡西原町,沖縄県我謝810番地の51　１階, 中頭郡西原町 沖縄県我謝810番地の51　１階
デイサービスかーさ,9030126,,中頭郡西原町,沖縄県棚原１丁目１１番地の３, 中頭郡西原町 沖縄県棚原１丁目１１番地の３
デイサービス　はーとらいふ,903-0103,,中頭郡西原町,沖縄県小那覇1606番地, 中頭郡西原町 沖縄県小那覇1606番地
デイサービス孫の手,9030116,,中頭郡西原町,沖縄県字幸地996番地の1, 中頭郡西原町 沖縄県字幸地996番地の1
通所リハビリテーションぎのわん,9012211,,宜野湾市,沖縄県宜野湾三丁目３番１３号, 宜野湾市 沖縄県宜野湾三丁目３番１３号
かいほう指定通所リハビリテーション,9012224,,宜野湾市,沖縄県真志喜２丁目23番５号, 宜野湾市 沖縄県真志喜２丁目23番５号
リハビリ　さんだん花,901-2223,,宜野湾市,沖縄県大山七丁目７番22号, 宜野湾市 沖縄県大山七丁目７番22号
介護老人保健施設ぎのわんおもと園,9012226,,宜野湾市,沖縄県嘉数四丁目４番10号, 宜野湾市 沖縄県嘉数四丁目４番10号
コザ整形外科医院通所リハビリテーションみさと,9042153,,沖縄市,沖縄県美里１丁目26番33号, 沖縄市 沖縄県美里１丁目26番33号
沖縄百歳堂デイケアセンター,9042173,,沖縄市,沖縄県比屋根二丁目１５番１号, 沖縄市 沖縄県比屋根二丁目１５番１号
東部クリニック通所リハビリテーション,9042174,,沖縄市,沖縄県与儀3丁目9番1号, 沖縄市 沖縄県与儀3丁目9番1号
翔南病院,9040034,,沖縄市,沖縄県山内3丁目14番28号, 沖縄市 沖縄県山内3丁目14番28号
コザクリニック,904-0014,,沖縄市,沖縄県仲宗根町19番１号, 沖縄市 沖縄県仲宗根町19番１号
医療法人真愛会　伊佐整形外科,9042173,,沖縄市,沖縄県比屋根２丁目３番３号, 沖縄市 沖縄県比屋根２丁目３番３号
通所リハビリテーションちばな,904-2143,,沖縄市,沖縄県知花6丁目25番15号, 沖縄市 沖縄県知花6丁目25番15号
北城通所リハビリテーション事業所,9040034,,沖縄市,沖縄県山内2丁目25番41号, 沖縄市 沖縄県山内2丁目25番41号
医療法人　ちゅうざん会　ちゅうざん病院,9042151,,沖縄市,沖縄県松本６－２－１, 沖縄市 沖縄県松本６－２－１
中部協同病院　指定通所リハビリテーション,9042143,,沖縄市,沖縄県知花六丁目25番５号, 沖縄市 沖縄県知花六丁目25番５号
介護老人保健施設亀の里,904-2173,,沖縄市,沖縄県比屋根2丁目15-2, 沖縄市 沖縄県比屋根2丁目15-2
おきなわ徳洲苑,9040021,,沖縄市,沖縄県胡屋6丁目4番19号, 沖縄市 沖縄県胡屋6丁目4番19号
愛聖クリニックデイケアセンター,904-2171,,沖縄市,沖縄県高原六丁目１番１３号, 沖縄市 沖縄県高原六丁目１番１３号
川根内科外科,904-2215,,うるま市,沖縄県みどり町４丁目２番29号　一階、三階, うるま市 沖縄県みどり町４丁目２番29号　一階、三階
うるま記念病院,9042201,,うるま市,沖縄県昆布1832番地397, うるま市 沖縄県昆布1832番地397
デイケア平良川,9042225,,うるま市,沖縄県喜屋武１６９－５, うるま市 沖縄県喜屋武１６９－５
伊禮医院デイケアセンター,904-2303,,うるま市,沖縄県与那城24番地, うるま市 沖縄県与那城24番地
与勝あやはしクリニック　通所リハビリテーション事業所,9042304,,うるま市,沖縄県与那城屋慶名467番地の111, うるま市 沖縄県与那城屋慶名467番地の111
与勝病院通所リハビリ,9042311,,うるま市,沖縄県勝連南風原3584番地, うるま市 沖縄県勝連南風原3584番地
リハビリステーション　うるまの虹,9042244,,うるま市,沖縄県江洲５９８番地４, うるま市 沖縄県江洲５９８番地４
介護老人保健施設いしかわ願寿ぬ森,9041106,,うるま市,沖縄県石川3273-2, うるま市 沖縄県石川3273-2
デイケアセンター陽光館,9042222,,うるま市,沖縄県字上江洲661, うるま市 沖縄県字上江洲661
介護老人保健施設いずみ苑,9042205,,うるま市,沖縄県字栄野比1150, うるま市 沖縄県字栄野比1150
かんな病院　通所リハビリテーション,904-1304,,国頭郡宜野座村,沖縄県漢那469番地, 国頭郡宜野座村 沖縄県漢那469番地
医療法人ぎんばるの杜金武リハビリテーションクリニック,9041292,,国頭郡金武町,沖縄県字金武１０９１２, 国頭郡金武町 沖縄県字金武１０９１２
デイケアセンター信愛の丘,9041203,,国頭郡金武町,沖縄県屋嘉２７２４番地, 国頭郡金武町 沖縄県屋嘉２７２４番地
読谷村診療所指定通所リハビリテーション事業所,9040305,,中頭郡読谷村,沖縄県都屋179番地　読谷村診療所内, 中頭郡読谷村 沖縄県都屋179番地　読谷村診療所内
よみたんクリニック　通所リハビリテーション事業所,904-0324,,中頭郡読谷村,沖縄県長浜1774番地, 中頭郡読谷村 沖縄県長浜1774番地
徳洲会ハンビークリニック　通所リハビリテーション事業所,9040117,,中頭郡北谷町,沖縄県北前１丁目21番１号, 中頭郡北谷町 沖縄県北前１丁目21番１号
白川園通所リハビリテーション,904-0105,,中頭郡北谷町,沖縄県字吉原263番地, 中頭郡北谷町 沖縄県字吉原263番地
ごきげんリハビリクリニック,9012301,,中頭郡北中城村,沖縄県字袋1253番地の４, 中頭郡北中城村 沖縄県字袋1253番地の４
通所リハビリテーションきたなかぐすく,9012311,,中頭郡北中城村,沖縄県喜舎場３６０番地１, 中頭郡北中城村 沖縄県喜舎場３６０番地１
デイケア信成苑,9012404,,中頭郡中城村,沖縄県字添石363, 中頭郡中城村 沖縄県字添石363
介護老人保健施設中城苑,9012412,,中頭郡中城村,沖縄県字奥間909-1, 中頭郡中城村 沖縄県字奥間909-1
あいわクリニックデイケアーセンター,9030115,,中頭郡西原町,沖縄県池田766番地の２, 中頭郡西原町 沖縄県池田766番地の２
幸地クリニックのデイケア,9030116,,中頭郡西原町,沖縄県幸地973番地, 中頭郡西原町 沖縄県幸地973番地
介護老人保健施設池田苑,9030115,,中頭郡西原町,沖縄県字池田757, 中頭郡西原町 沖縄県字池田757
介護老人保健施設西原敬愛園,9030127,,中頭郡西原町,沖縄県字徳佐田159-1, 中頭郡西原町 沖縄県字徳佐田159-1
介護付有料老人ホーム　あさひの家,9041201,,国頭郡金武町,沖縄県金武8130-1, 国頭郡金武町 沖縄県金武8130-1
株式会社ｹｱﾈｯﾄ徳洲会沖縄　サービス付き高齢者住宅,904-2215,,うるま市,沖縄県みどり町5-14-7, うるま市 沖縄県みどり町5-14-7
ひまわり家族,904-2223,,うるま市,沖縄県具志川１３４５番地１, うるま市 沖縄県具志川１３４５番地１
あおぞら,904-2244,,うるま市,沖縄県江洲38番地の3, うるま市 沖縄県江洲38番地の3
サービス付き高齢者向け住宅　たばた,9042200,,うるま市,沖縄県字喜屋武, うるま市 沖縄県字喜屋武
サービス付き高齢者向け住宅　ここいち上江洲,9042200,,うるま市,沖縄県字上江洲466番地1, うるま市 沖縄県字上江洲466番地1
サービス付き高齢者向け住宅かつれん,904-2313,,うるま市,沖縄県勝連内間1215番地1, うるま市 沖縄県勝連内間1215番地1
アットホーム南風,9042311,,うるま市,沖縄県勝連南風原３５３９番地, うるま市 沖縄県勝連南風原３５３９番地
老人専用住宅ふくろう,904-1106,,うるま市,沖縄県石川2122-1, うるま市 沖縄県石川2122-1
サービス付き高齢者向け住宅　ここいちうるま,9041111,,うるま市,沖縄県石川東恩納133-1, うるま市 沖縄県石川東恩納133-1
サービス付き高齢者向け住宅にこにこフリーダム,904-2424,,うるま市,沖縄県与那城上原1579番地１の１, うるま市 沖縄県与那城上原1579番地１の１
愛聖ホーム和,9042162,,沖縄市,沖縄県海邦, 沖縄市 沖縄県海邦
がんじゅう堂,9042161,,沖縄市,沖縄県古謝２丁目２１番４１号, 沖縄市 沖縄県古謝２丁目２１番４１号
サービス付き高齢者向け住宅 LORD'S GARDEN,904-0034,,沖縄市,沖縄県山内2-21-20, 沖縄市 沖縄県山内2-21-20
サービス付き高齢者住宅たんぽぽ,904-2151,,沖縄市,沖縄県松本5-13-20, 沖縄市 沖縄県松本5-13-20
ホーム樹,9042163,,沖縄市,沖縄県大里2丁目6番6号, 沖縄市 沖縄県大里2丁目6番6号
サービス付き高齢者向け住宅ここいち池原,9042141,,沖縄市,沖縄県池原二丁目７－２５, 沖縄市 沖縄県池原二丁目７－２５
サービス付高齢者向け住宅あおい,9042155,,沖縄市,沖縄県美原1丁目11番21号, 沖縄市 沖縄県美原1丁目11番21号
サービス付き高齢者住宅いきがいのまち美里,904-2155,,沖縄市,沖縄県美原2丁目8番7号, 沖縄市 沖縄県美原2丁目8番7号
ラ・ペジーブル泡瀬,904-2172,,沖縄市,沖縄県泡瀬四丁目４１番１号, 沖縄市 沖縄県泡瀬四丁目４１番１号
あやなすの杜,901-2221,,宜野湾市,沖縄県伊佐３丁目９番１９号, 宜野湾市 沖縄県伊佐３丁目９番１９号
サービス付き高齢者向け住宅　さんだん花ガーデン,901-2227,,宜野湾市,沖縄県字宇地泊715, 宜野湾市 沖縄県字宇地泊715
願寿苑（がじまる）,9012215,,宜野湾市,沖縄県真栄原３丁目７番１１号, 宜野湾市 沖縄県真栄原３丁目７番１１号
ナーシングホーム宜野湾,901-2223,,宜野湾市,沖縄県大山5-3-1, 宜野湾市 沖縄県大山5-3-1
サービス付き高齢者向け住宅　ハピネスさんだん花,901-2223,,宜野湾市,沖縄県大山七丁目７番２２号, 宜野湾市 沖縄県大山七丁目７番２２号
はごろもサービス付き高齢者向け住宅,901-2225,,宜野湾市,沖縄県大謝名１丁目２０番２号, 宜野湾市 沖縄県大謝名１丁目２０番２号
サービス付き高齢者向け住宅まゆの里おおわん,9040313,,中頭郡読谷村,沖縄県大湾, 中頭郡読谷村 沖縄県大湾
ケアリゾート　ヴィラージュせなは,904-0324,,中頭郡読谷村,"沖縄県長浜1,110番地"," 中頭郡読谷村 沖縄県長浜1,110番地"
介護付き高齢者住宅すこやかの森ヴィラ北谷,904-0102,,中頭郡北谷町,沖縄県伊平271番地, 中頭郡北谷町 沖縄県伊平271番地
アガペファミリエ,904-2311,,うるま市,沖縄県北城村喜舎場３６０番地１, うるま市 沖縄県北城村喜舎場３６０番地１
はごろもデイサービス,9012225,,宜野湾市,沖縄県大謝名一丁目２０番２号, 宜野湾市 沖縄県大謝名一丁目２０番２号
デイサービスセンター　いこいの家,9012204,,宜野湾市,沖縄県上原1-17-11, 宜野湾市 沖縄県上原1-17-11
デイサービスあすなろ,9012224,,宜野湾市,沖縄県真志喜三丁目14番1号, 宜野湾市 沖縄県真志喜三丁目14番1号
リハビリ特化型デイサービス　リハビックス宜野湾店,9012203,,宜野湾市,沖縄県野嵩一丁目２番１５号米須店舗１Ｆ, 宜野湾市 沖縄県野嵩一丁目２番１５号米須店舗１Ｆ
ふれあいデイサービス　愛知の家,9012206,,宜野湾市,沖縄県愛知三丁目１７番２０号, 宜野湾市 沖縄県愛知三丁目１７番２０号
PIECE.Care-Style,9012223,,宜野湾市,沖縄県大山二丁目1-7アンリビル202, 宜野湾市 沖縄県大山二丁目1-7アンリビル202
E-na,9012212,,宜野湾市,沖縄県長田4丁目17-25　１階, 宜野湾市 沖縄県長田4丁目17-25　１階
デイサービスかいほう,9012224,,宜野湾市,沖縄県真志喜２丁目22番2号, 宜野湾市 沖縄県真志喜２丁目22番2号
若太陽　指定通所介護事業所,9040013,,沖縄市,沖縄県室川１丁目１番10号, 沖縄市 沖縄県室川１丁目１番10号
デイサービス　たんぽぽ苑,9042164,,沖縄市,沖縄県桃原二丁目１７番１７号, 沖縄市 沖縄県桃原二丁目１７番１７号
デイサービス 風雅,9042153,,沖縄市,沖縄県東二丁目６番１１号, 沖縄市 沖縄県東二丁目６番１１号
リハビリ強化型デイサービス ぴん花,9040021,,沖縄市,沖縄県胡屋１丁目７番２号, 沖縄市 沖縄県胡屋１丁目７番２号
デイサービス　えびす家,9042165,,沖縄市,沖縄県宮里一丁目１番１２号, 沖縄市 沖縄県宮里一丁目１番１２号
デイサービス　あかり,9042153,,沖縄市,沖縄県美里四丁目2番5号, 沖縄市 沖縄県美里四丁目2番5号
デイサービスセンターあすなろう,9040031,,沖縄市,沖縄県上地四丁目9番3号, 沖縄市 沖縄県上地四丁目9番3号
デイサービス恵泉おりおん,904-0004,,沖縄市,沖縄県央１丁目９番８号　１F, 沖縄市 沖縄県央１丁目９番８号　１F
デイサービス　ふる里,9042171,,沖縄市,沖縄県高原四丁目28番１号　１F, 沖縄市 沖縄県高原四丁目28番１号　１F
いちゃりばちょうでぃー池原,9042153,,沖縄市,沖縄県池原二丁目2307番6, 沖縄市 沖縄県池原二丁目2307番6
デイサービス縁（えにし）,9042162,,沖縄市,沖縄県海邦2丁目27番6号, 沖縄市 沖縄県海邦2丁目27番6号
デイサービス　いちゃら,9042173,,沖縄市,沖縄県比屋根４丁目１２－３, 沖縄市 沖縄県比屋根４丁目１２－３
デイサービス　いこいの里,9042171,,沖縄市,沖縄県高原６丁目７番４０号, 沖縄市 沖縄県高原６丁目７番４０号
デイサービス　デルソール,9042172,,沖縄市,沖縄県泡瀬４丁目４８番８号泡瀬比嘉店舗１Ｆ, 沖縄市 沖縄県泡瀬４丁目４８番８号泡瀬比嘉店舗１Ｆ
サンサン　デイサービス,9042151,,沖縄市,沖縄県松本９１７, 沖縄市 沖縄県松本９１７
ひろデイサービス,9040004,,沖縄市,沖縄県央４丁目１３番１号Ｍ’ｓマンション１０１, 沖縄市 沖縄県央４丁目１３番１号Ｍ’ｓマンション１０１
デイサービスセンター　心若苑（みわか苑）,9040033,,沖縄市,沖縄県山里二丁目７番２号おおやまビル１Ｆ, 沖縄市 沖縄県山里二丁目７番２号おおやまビル１Ｆ
デイサービス　とみさん家,9040022,,沖縄市,沖縄県園田２－１７－４喜名店舗１階, 沖縄市 沖縄県園田２－１７－４喜名店舗１階
アクティブデイサービス　ｉＣａｒｅ,904-2143,,沖縄市,沖縄県知花二丁目3番40号, 沖縄市 沖縄県知花二丁目3番40号
デイサービス三丁目,9042151,,沖縄市,沖縄県松本２丁目２３番１６号, 沖縄市 沖縄県松本２丁目２３番１６号
樹楽　美里,9042154,,沖縄市,沖縄県東２－１５－１２, 沖縄市 沖縄県東２－１５－１２
うむいぬむーとぅやー,9040001,,沖縄市,沖縄県越来一丁目14番6号, 沖縄市 沖縄県越来一丁目14番6号
デイサービス　ひなた,9040034,,沖縄市,沖縄県山内1丁目11番5号, 沖縄市 沖縄県山内1丁目11番5号
デイサービスきたえるーむ沖縄知花,904-2143,,沖縄市,沖縄県知花1丁目26番6号, 沖縄市 沖縄県知花1丁目26番6号
デイサービスティーダ,9040021,,沖縄市,沖縄県胡屋1丁目5番6号, 沖縄市 沖縄県胡屋1丁目5番6号
うむいぬうふやー,9042164,,沖縄市,沖縄県桃原2丁目16番37号, 沖縄市 沖縄県桃原2丁目16番37号
通所介護　エルスリー沖縄,9042171,,沖縄市,沖縄県高原七丁目15-14, 沖縄市 沖縄県高原七丁目15-14
リハビリ特化型デイサービス　リハビックスコザ店,9042163,,沖縄市,沖縄県大里2丁目31番13号, 沖縄市 沖縄県大里2丁目31番13号
地域密着型通所介護　ゆい明,904-2152,,沖縄市,沖縄県明道1丁目18番1号, 沖縄市 沖縄県明道1丁目18番1号
有限会社　介護サービスセンター前原,9042214,,うるま市,沖縄県安慶名361番地の１, うるま市 沖縄県安慶名361番地の１
デイサービスセンター　つばさ,9042222,,うるま市,沖縄県上江洲１５６番地１, うるま市 沖縄県上江洲１５６番地１
デイサービス　ちむじゅらさん,9042235,,うるま市,沖縄県前原４４６番地の１, うるま市 沖縄県前原４４６番地の１
具志川厚生園　通所介護事業所,9042202,,うるま市,沖縄県天願1983番地, うるま市 沖縄県天願1983番地
デイサービスセンター　みつば,9042314,,うるま市,沖縄県勝連平敷屋3648番地, うるま市 沖縄県勝連平敷屋3648番地
ゆがふ通所介護事業所,9042202,,うるま市,沖縄県天願1508番地１, うるま市 沖縄県天願1508番地１
デイサービスセンター　たけちゃんち,9042203,,うるま市,沖縄県字川崎83番地5, うるま市 沖縄県字川崎83番地5
浜比嘉デイサービス,9042315,,うるま市,沖縄県勝連浜４３６番地の１, うるま市 沖縄県勝連浜４３６番地の１
茶話本舗デイサービス石川,9041107,,うるま市,沖縄県石川曙２－１０－１０, うるま市 沖縄県石川曙２－１０－１０
リハビリ型デイサービスセンター島の風,9042212,,うるま市,沖縄県字赤野１３１０－２アイリス赤野１Ｆ, うるま市 沖縄県字赤野１３１０－２アイリス赤野１Ｆ
デイサービススイム みどり町,9042215,,うるま市,沖縄県みどり町四丁目１２番５号, うるま市 沖縄県みどり町四丁目１２番５号
デイサービス おやがめこがめ,9042245,,うるま市,沖縄県字赤道９７２番地１２３赤道団地Ｄ－２０, うるま市 沖縄県字赤道９７２番地１２３赤道団地Ｄ－２０
デイサービス　ふわり,9042242,,うるま市,沖縄県字高江洲７２６番地, うるま市 沖縄県字高江洲７２６番地
デイサービスセンター　さくら,9042201,,うるま市,沖縄県昆布１８３５－５４, うるま市 沖縄県昆布１８３５－５４
しりんかわデイサービス,9042242,,うるま市,沖縄県字高江洲１０８０番地１, うるま市 沖縄県字高江洲１０８０番地１
茶話本舗デイサービス宮里,9042243,,うるま市,沖縄県宮里２６２－１０, うるま市 沖縄県宮里２６２－１０
デイサービス 美ら花（ちゅらばな）,904-2225,,うるま市,沖縄県字喜屋武６７２番地, うるま市 沖縄県字喜屋武６７２番地
デイサービス憩,9041111,,うるま市,沖縄県石川東恩納１８０６－３, うるま市 沖縄県石川東恩納１８０６－３
デイサービス　琉美,9042222,,うるま市,沖縄県上江洲３３９－１, うるま市 沖縄県上江洲３３９－１
デイサービスえんまぁる,9042245,,うるま市,沖縄県赤道１０５８－４TANTANアパート1階, うるま市 沖縄県赤道１０５８－４TANTANアパート1階
デイサービス　はぴねす,9042215,,うるま市,沖縄県みどり町六丁目７番１号, うるま市 沖縄県みどり町六丁目７番１号
デイサービスうるま島,9041105,,うるま市,沖縄県石川白浜一丁目５番５３, うるま市 沖縄県石川白浜一丁目５番５３
デイサービスみはら具志川,9042223,,うるま市,沖縄県具志川1931番地2, うるま市 沖縄県具志川1931番地2
デイサービスみどりのまち,9042215,,うるま市,沖縄県みどり町五丁目18番4号, うるま市 沖縄県みどり町五丁目18番4号
デイサービス　つる,904-2215,,うるま市,沖縄県みどり町３丁目１９番７号, うるま市 沖縄県みどり町３丁目１９番７号
中央リハうるま,9042205,,うるま市,沖縄県栄野比８０５番地ロイヤルヒルズ具志川１階, うるま市 沖縄県栄野比８０５番地ロイヤルヒルズ具志川１階
歩行と脳のフィットネスデイサービスPLIFE,904-2241,,うるま市,沖縄県兼箇段１３２７番地１, うるま市 沖縄県兼箇段１３２７番地１
フィットネスセンター　みやび,9040416,,国頭郡恩納村,沖縄県字山田３１４６－４, 国頭郡恩納村 沖縄県字山田３１４６－４
ケアホーム恩納,9040411,,国頭郡恩納村,沖縄県恩納2447番地, 国頭郡恩納村 沖縄県恩納2447番地
デイサービスえにし,9041301,,国頭郡宜野座村,沖縄県字松田５９１番３, 国頭郡宜野座村 沖縄県字松田５９１番３
デイサービス　くばの里,9041201,,国頭郡金武町,沖縄県金武４１９６－２８番地, 国頭郡金武町 沖縄県金武４１９６－２８番地
オリーブデイサービス,9041201,,国頭郡金武町,沖縄県字金武５７６３番地　１階, 国頭郡金武町 沖縄県字金武５７６３番地　１階
あったかホーム,9040313,,中頭郡読谷村,沖縄県大湾536-２, 中頭郡読谷村 沖縄県大湾536-２
デイサービス健やか,9040323,,中頭郡読谷村,沖縄県字高志保137番地コーポゆう　102号室, 中頭郡読谷村 沖縄県字高志保137番地コーポゆう　102号室
デイサービス一歩　高志保,9040323,,中頭郡読谷村,沖縄県字高志保115番地1, 中頭郡読谷村 沖縄県字高志保115番地1
デイサービス　活きる家,904-0305,,中頭郡読谷村,沖縄県字都屋443番地, 中頭郡読谷村 沖縄県字都屋443番地
デイサービス　ちゅらゆんたんざ,9040301,,中頭郡読谷村,沖縄県字座喜味２７４２番地３, 中頭郡読谷村 沖縄県字座喜味２７４２番地３
デイサービス　福寿草,9040322,,中頭郡読谷村,沖縄県波平１７３３－１, 中頭郡読谷村 沖縄県波平１７３３－１
セルフデイサービス,9040301,,中頭郡読谷村,沖縄県字高志保168, 中頭郡読谷村 沖縄県字高志保168
デイサービスセンターあかりⅡ,9040314,,中頭郡読谷村,沖縄県古堅６３７－６, 中頭郡読谷村 沖縄県古堅６３７－６
デイサービス　しおん,9040202,,中頭郡嘉手納町,沖縄県字屋良935番地１, 中頭郡嘉手納町 沖縄県字屋良935番地１
デイサービス　げんき,9040204,,中頭郡嘉手納町,沖縄県字嘉手納314番地２, 中頭郡嘉手納町 沖縄県字嘉手納314番地２
デイサービス　カデナ,9040204,,中頭郡嘉手納町,沖縄県字水釜５５７番地, 中頭郡嘉手納町 沖縄県字水釜５５７番地
指定通所介護事業所　和,9040105,,中頭郡北谷町,沖縄県吉原1178番地, 中頭郡北谷町 沖縄県吉原1178番地
デイサービスまほろば,9040105,,中頭郡北谷町,沖縄県吉原790番地15, 中頭郡北谷町 沖縄県吉原790番地15
通所介護　ハピネス,9040101,,中頭郡北谷町,沖縄県上勢821-6, 中頭郡北谷町 沖縄県上勢821-6
デイサービス　はなまる,9030125,,中頭郡西原町,沖縄県上原２丁目２９番地の９の１F, 中頭郡西原町 沖縄県上原２丁目２９番地の９の１F
リハプライド・西原,903-0125,,中頭郡西原町,沖縄県上原２丁目２２番地の１８, 中頭郡西原町 沖縄県上原２丁目２２番地の１８
デイサービスセンターいと,9030118,,中頭郡西原町,沖縄県字小波津507番地の8, 中頭郡西原町 沖縄県字小波津507番地の8
社会福祉法人　希愛会　地域密着型介護老人福祉施設　琉和の森,9042153,,沖縄市,沖縄県美里六丁目25-38, 沖縄市 沖縄県美里六丁目25-38
特別養護老人ホーム　森城,9040032,,沖縄市,沖縄県諸見里３丁目４１番３０号, 沖縄市 沖縄県諸見里３丁目４１番３０号
特別養護老人ホーム　ちゅらゆんたんざ,904-0301,,中頭郡読谷村,沖縄県座喜味２７４２－３, 中頭郡読谷村 沖縄県座喜味２７４２－３
地域密着型介護老人福祉施設　紅華の森,9040301,,中頭郡読谷村,沖縄県座喜味１９１０番地２, 中頭郡読谷村 沖縄県座喜味１９１０番地２
小規模ホーム　こすもす,9012226,,宜野湾市,沖縄県嘉数４丁目４番10号, 宜野湾市 沖縄県嘉数４丁目４番10号
小規模多機能　きずな,9012202,,宜野湾市,沖縄県普天間２丁目３１番７号, 宜野湾市 沖縄県普天間２丁目３１番７号
小規模多機能型居宅介護事業所　あいせい園,9012224,,宜野湾市,沖縄県真志喜550番地, 宜野湾市 沖縄県真志喜550番地
小規模多機能ホーム若松ぎのわん,9012206,,宜野湾市,沖縄県愛知二丁目３番２号, 宜野湾市 沖縄県愛知二丁目３番２号
小規模多機能型居宅介護事業所　きづきの家,9042172,,沖縄市,沖縄県泡瀬１丁目21番15号, 沖縄市 沖縄県泡瀬１丁目21番15号
小規模多機能型居宅介護　おきなわ長寿苑,9042142,,沖縄市,沖縄県登川１４１５番地, 沖縄市 沖縄県登川１４１５番地
多機能介護ごえく,9040001,,沖縄市,沖縄県越来3丁目11番20号, 沖縄市 沖縄県越来3丁目11番20号
小規模多機能ホームいきがいのまち,904-0032,,沖縄市,沖縄県諸見里２－１０－１０, 沖縄市 沖縄県諸見里２－１０－１０
愛聖小規模多機能型オリオン,9042161,,沖縄市,沖縄県古謝2丁目16番8号, 沖縄市 沖縄県古謝2丁目16番8号
平愛の里,9042225,,うるま市,沖縄県喜屋武626番地5, うるま市 沖縄県喜屋武626番地5
地域支援ホーム津堅いこいの家,9042317,,うるま市,沖縄県勝連津堅1144番地, うるま市 沖縄県勝連津堅1144番地
小規模多機能ホームゆい,9042245,,うるま市,沖縄県赤道２４８番地２, うるま市 沖縄県赤道２４８番地２
小規模多機能ホーム　石川にじの家,9041101,,うるま市,沖縄県石川東山本町１丁目１９番１８号, うるま市 沖縄県石川東山本町１丁目１９番１８号
でいご園小規模多機能型居宅介護事業所,9041303,,国頭郡宜野座村,沖縄県惣慶1316番地3でいご園デイサービスセンター2階, 国頭郡宜野座村 沖縄県惣慶1316番地3でいご園デイサービスセンター2階
株式会社　新がらまんの里,9041303,,国頭郡宜野座村,沖縄県惣慶746番地の1, 国頭郡宜野座村 沖縄県惣慶746番地の1
小規模多機能ホーム　浜田,904-1201,,国頭郡金武町,沖縄県金武８１２８番地３号, 国頭郡金武町 沖縄県金武８１２８番地３号
ハウス虹の里,9041201,,国頭郡金武町,沖縄県金武790番地, 国頭郡金武町 沖縄県金武790番地
小規模多機能型居宅介護事業所　よみたん　ふれあいの里,9040302,,中頭郡読谷村,沖縄県喜名2272番地4, 中頭郡読谷村 沖縄県喜名2272番地4
ライフケア読谷　介護多機能センター,904-0324,,中頭郡読谷村,沖縄県長浜1532番地, 中頭郡読谷村 沖縄県長浜1532番地
ライフケア古堅　介護多機能センター,904-0311,,中頭郡読谷村,沖縄県字比謝242番地の1, 中頭郡読谷村 沖縄県字比謝242番地の1
小規模多機能ホーム比謝川の里,9040204,,中頭郡嘉手納町,沖縄県水釜6丁目16の1, 中頭郡嘉手納町 沖縄県水釜6丁目16の1
小規模多機能介護　ちゃたん,9040113,,中頭郡北谷町,沖縄県宮城１番７９３, 中頭郡北谷町 沖縄県宮城１番７９３
小規模多機能ホーム若松　きたなかぐすく　,9012316,,中頭郡北中城村,沖縄県字安谷屋1346番地-1, 中頭郡北中城村 沖縄県字安谷屋1346番地-1
小規模多機能型居宅介護いなほ,9012405,,中頭郡中城村,沖縄県屋宜215番地18, 中頭郡中城村 沖縄県屋宜215番地18
小規模多機能なかぐすく,9012412,,中頭郡中城村,沖縄県奥間９１１番１, 中頭郡中城村 沖縄県奥間９１１番１
居宅介護支援事業所ぎのわんおもと園,9012226,,宜野湾市,沖縄県嘉数4丁目4番10号, 宜野湾市 沖縄県嘉数4丁目4番10号
かいほう指定居宅介護支援事業所,9012224,,宜野湾市,沖縄県真志喜２丁目２２番２号, 宜野湾市 沖縄県真志喜２丁目２２番２号
ケアプラン　はごろも,9012225,,宜野湾市,沖縄県大謝名１丁目２０番２号, 宜野湾市 沖縄県大謝名１丁目２０番２号
在宅介護サービスきずな,9012202,,宜野湾市,沖縄県普天間二丁目３１番７号, 宜野湾市 沖縄県普天間二丁目３１番７号
居宅介護支援事業所ぎのわん,9012211,,宜野湾市,沖縄県宜野湾３丁目４番３号, 宜野湾市 沖縄県宜野湾３丁目４番３号
居宅介護支援事業所　愛誠園,901-2222,,宜野湾市,沖縄県伊佐3-26-8, 宜野湾市 沖縄県伊佐3-26-8
サトウ株式会社,9012224,,宜野湾市,沖縄県真志喜２丁目１３番１２号　２F, 宜野湾市 沖縄県真志喜２丁目１３番１２号　２F
ワタキュー居宅介護支援事業所,9012205,,宜野湾市,沖縄県上原２丁目４番１０号, 宜野湾市 沖縄県上原２丁目４番１０号
介護支援センター　さんだん花,9012223,,宜野湾市,沖縄県大山７丁目７番22号, 宜野湾市 沖縄県大山７丁目７番22号
ケアプラン　うちどまり,9012227,,宜野湾市,沖縄県宇地泊100番地ｲｻﾑﾋﾞﾙ1F, 宜野湾市 沖縄県宇地泊100番地ｲｻﾑﾋﾞﾙ1F
ケアプラン　ぎのわん,9012223,,宜野湾市,沖縄県大山６－２５－７パークサイドテラス１０１号, 宜野湾市 沖縄県大山６－２５－７パークサイドテラス１０１号
居宅介護支援事業所みらい,9012203,,宜野湾市,沖縄県野嵩一丁目44番3号　103号, 宜野湾市 沖縄県野嵩一丁目44番3号　103号
居宅介護支援事業所ふくやま,9012225,,宜野湾市,沖縄県大謝名５－２１－５, 宜野湾市 沖縄県大謝名５－２１－５
居宅介護支援事業所　まえはら,9012215,,宜野湾市,沖縄県真栄原三丁目７番７号, 宜野湾市 沖縄県真栄原三丁目７番７号
ふれあいケアマネジメント　宜野湾事業所,9012215,,宜野湾市,沖縄県真栄原三丁目２０－１２, 宜野湾市 沖縄県真栄原三丁目２０－１２
福寿園居宅介護支援センター,9012205,,宜野湾市,沖縄県赤道２－７－２, 宜野湾市 沖縄県赤道２－７－２
ケアプラン　愛和,9012215,,宜野湾市,沖縄県真栄原三丁目２０番１７号, 宜野湾市 沖縄県真栄原三丁目２０番１７号
トータルサポートセンターよつ葉,9012212,,宜野湾市,沖縄県長田四丁目14-18, 宜野湾市 沖縄県長田四丁目14-18
ケアプラン　てぃーだ,901-2212,,宜野湾市,沖縄県長田一丁目１番12号, 宜野湾市 沖縄県長田一丁目１番12号
ケアプラン　あさ,9012216,,宜野湾市,沖縄県佐真下95番地, 宜野湾市 沖縄県佐真下95番地
居宅介護支援事業所　美和,901-2201,,宜野湾市,沖縄県新城二丁目25番7号　1階, 宜野湾市 沖縄県新城二丁目25番7号　1階
指定居宅介護支援センター彩風の杜,901-2204,,宜野湾市,沖縄県上原1丁目8番5号1Ｆ, 宜野湾市 沖縄県上原1丁目8番5号1Ｆ
ケアマネジメント ここ,9012202,,宜野湾市,沖縄県普天間1丁目25-17　1F, 宜野湾市 沖縄県普天間1丁目25-17　1F
中部協同病院居宅介護支援事業所,9042143,,沖縄市,沖縄県知花6-25-5, 沖縄市 沖縄県知花6-25-5
医療法人浩然会　コザ整形外科医院　居宅介護支援センター,9042153,,沖縄市,沖縄県美里１丁目26番33号, 沖縄市 沖縄県美里１丁目26番33号
東部クリニック介護支援センター,9042174,,沖縄市,沖縄県与儀三丁目９番１号, 沖縄市 沖縄県与儀三丁目９番１号
居宅介護支援事業所あゆみ,904-2171,,沖縄市,沖縄県高原７丁目２３番１４号, 沖縄市 沖縄県高原７丁目２３番１４号
居宅介護支援事業所　なかがみ,9042143,,沖縄市,沖縄県知花6丁目25番15号2階, 沖縄市 沖縄県知花6丁目25番15号2階
中部徳洲会病院居宅介護支援事業所,9040021,,沖縄市,沖縄県胡屋6丁目4番19号, 沖縄市 沖縄県胡屋6丁目4番19号
ケアプラン　もみの木,9042153,,沖縄市,沖縄県美里1丁目3-2仲本アパート102号室, 沖縄市 沖縄県美里1丁目3-2仲本アパート102号室
一般社団法人中部地区医師会指定居宅介護支援事業所,9040006,,沖縄市,沖縄県八重2丁目11番12号, 沖縄市 沖縄県八重2丁目11番12号
沖縄一条園居宅介護支援事業所,904-2174,,沖縄市,沖縄県字与儀3丁目5番10号, 沖縄市 沖縄県字与儀3丁目5番10号
緑樹苑指定居宅介護支援事業所,9040021,,沖縄市,沖縄県胡屋７丁目２番10号, 沖縄市 沖縄県胡屋７丁目２番10号
介護支援センター中部,9040003,,沖縄市,沖縄県住吉１丁目５番22号, 沖縄市 沖縄県住吉１丁目５番22号
ニチイケアセンター沖縄,9040023,,沖縄市,沖縄県久保田３丁目１番12号　プラザハウスフェアモール３Ｆ, 沖縄市 沖縄県久保田３丁目１番12号　プラザハウスフェアモール３Ｆ
居宅介護支援事業所おきなわ長寿苑,9042142,,沖縄市,沖縄県字登川1403番地, 沖縄市 沖縄県字登川1403番地
ゆがふ居宅介護支援事業所,9040022,,沖縄市,沖縄県園田二丁目19番６号, 沖縄市 沖縄県園田二丁目19番６号
真室川　指定居宅介護支援事業所,9040013,,沖縄市,沖縄県室川１丁目1番１０号, 沖縄市 沖縄県室川１丁目1番１０号
福樹会　居宅介護支援センター,9042151,,沖縄市,沖縄県松本１－２２－２, 沖縄市 沖縄県松本１－２２－２
居宅介護支援ステーション　ニヘーデービル,9042163,,沖縄市,沖縄県大里字大里５６番地, 沖縄市 沖縄県大里字大里５６番地
ケアステーション　だるま,9042156,,沖縄市,沖縄県美里仲原町３０番地１号コーポエルソール１０２, 沖縄市 沖縄県美里仲原町３０番地１号コーポエルソール１０２
指定居宅介護支援事業所　すずらん,904-0022,,沖縄市,沖縄県園田２丁目３２番１７号, 沖縄市 沖縄県園田２丁目３２番１７号
ケアプラン　三丁目,9042151,,沖縄市,沖縄県松本３丁目７番２７号, 沖縄市 沖縄県松本３丁目７番２７号
ケアプランセンター愛聖,9042162,,沖縄市,沖縄県海邦１丁目１４番１５号, 沖縄市 沖縄県海邦１丁目１４番１５号
指定居宅介護支援事業所しおひら,904-0022,,沖縄市,沖縄県園田二丁目１５番５号, 沖縄市 沖縄県園田二丁目１５番５号
居宅介護支援事業所　オリーブ,9042174,,沖縄市,沖縄県与儀一丁目29番19号, 沖縄市 沖縄県与儀一丁目29番19号
沖縄ケアサポートセンター,9042173,,沖縄市,沖縄県比屋根2-15-2, 沖縄市 沖縄県比屋根2-15-2
JAおきなわ中部介護福祉センター居宅介護支援事業所,9040014,,沖縄市,沖縄県仲宗根町14番15号, 沖縄市 沖縄県仲宗根町14番15号
居宅介護支援事業所ふれ愛,9040021,,沖縄市,沖縄県胡屋七丁目５番３５号, 沖縄市 沖縄県胡屋七丁目５番３５号
ケアプランセンターあい,904-2155,,沖縄市,沖縄県美原2丁目8番7号, 沖縄市 沖縄県美原2丁目8番7号
居宅介護支援事業所　シオン,9040034,,沖縄市,沖縄県山内一丁目７番５号, 沖縄市 沖縄県山内一丁目７番５号
ケアプラン　しあわせ街角,9040031,,沖縄市,沖縄県上地２丁目９番地５号１階１０２号, 沖縄市 沖縄県上地２丁目９番地５号１階１０２号
スマイルプラン　元気のたね,9042143,,沖縄市,沖縄県知花4-5-29, 沖縄市 沖縄県知花4-5-29
居宅介護支援事業所　ケアプラン　みちしお,9042164,,沖縄市,沖縄県字桃原２００番地１２, 沖縄市 沖縄県字桃原２００番地１２
ケアプランセンター美らさん,9042171,,沖縄市,沖縄県高原六丁目２番２号２０５号室, 沖縄市 沖縄県高原六丁目２番２号２０５号室
ケアープランステーション　木蓮,9042171,,沖縄市,沖縄県高原五丁目２番２９号ニューライフ高原　３０１号, 沖縄市 沖縄県高原五丁目２番２９号ニューライフ高原　３０１号
ケアプラン高嶺　居宅介護支援事業所,9042141,,沖縄市,沖縄県字池原５丁目３番２９号, 沖縄市 沖縄県字池原５丁目３番２９号
ケアプランセンター風雅,9042154,,沖縄市,沖縄県東二丁目６番１１号, 沖縄市 沖縄県東二丁目６番１１号
ケアサービスくくる　指定居宅介護支援事業所,9040035,,沖縄市,沖縄県南桃原二丁目１７番２８号, 沖縄市 沖縄県南桃原二丁目１７番２８号
あわせケアプラン　指定居宅介護支援事業所,9042171,,沖縄市,沖縄県高原七丁目33番34号, 沖縄市 沖縄県高原七丁目33番34号
ケアプランセンターたいよう,9042171,,沖縄市,沖縄県高原六丁目１５番６号ハートピアG 103号, 沖縄市 沖縄県高原六丁目１５番６号ハートピアG 103号
居宅介護支援事業所　松本,9042151,,沖縄市,沖縄県松本5丁目3番2号, 沖縄市 沖縄県松本5丁目3番2号
ケアプランステーション　晴れ空,904-0035,,沖縄市,沖縄県南桃原三丁目33番36号, 沖縄市 沖縄県南桃原三丁目33番36号
ケアプランセンターしん,904-2171,,沖縄市,沖縄県高原五丁目5番17号花城アパート101, 沖縄市 沖縄県高原五丁目5番17号花城アパート101
ケアセンター北城,9040034,,沖縄市,沖縄県山内2丁目25番41号, 沖縄市 沖縄県山内2丁目25番41号
ケアプラン沖縄,9040012,,沖縄市,沖縄県安慶田四丁目２番１５号嘉手苅店舗１０２, 沖縄市 沖縄県安慶田四丁目２番１５号嘉手苅店舗１０２
中部サンケアネット　居宅介護支援事業所,9042143,,沖縄市,沖縄県知花二丁目10番5号, 沖縄市 沖縄県知花二丁目10番5号
居宅介護支援センター　琉和,9042153,,沖縄市,沖縄県美里6-25-38, 沖縄市 沖縄県美里6-25-38
ケアプランセンター　ワンスタイル,904-0021,,沖縄市,沖縄県胡屋五丁目１３番２号, 沖縄市 沖縄県胡屋五丁目１３番２号
医療法人明陽会川根内科外科,904-2215,,うるま市,沖縄県みどり町４丁目２番29号１階, うるま市 沖縄県みどり町４丁目２番29号１階
うるま記念病院指定居宅介護支援事業所,9042201,,うるま市,沖縄県昆布1832番地397, うるま市 沖縄県昆布1832番地397
与勝あやはしクリニック　居宅介護支援事業所,9042304,,うるま市,沖縄県与那城屋慶名467番地の111, うるま市 沖縄県与那城屋慶名467番地の111
与勝病院居宅介護支援事業所,904－2311,,うるま市,沖縄県勝連南風原3584番地, うるま市 沖縄県勝連南風原3584番地
あかみち薬局,9042245,,うるま市,沖縄県字赤道１０番地の１０, うるま市 沖縄県字赤道１０番地の１０
へしきや薬局居宅介護支援センター,9042302,,うるま市,沖縄県与那城西原988番地の３（２Ｆ）, うるま市 沖縄県与那城西原988番地の３（２Ｆ）
願寿ぬ森居宅介護支援事業所,904-1106,,うるま市,沖縄県石川3273番地２, うるま市 沖縄県石川3273番地２
居宅介護支援事業所いずみ福祉会,9042205,,うるま市,沖縄県字栄野比１１５１番地１, うるま市 沖縄県字栄野比１１５１番地１
ケアプランセンターのぞみ,904ｰ2243,,うるま市,沖縄県宮里８４２番地５, うるま市 沖縄県宮里８４２番地５
楽寿園指定居宅介護支援事業所,9041114,,うるま市,沖縄県石川嘉手苅961番地17, うるま市 沖縄県石川嘉手苅961番地17
デイサービスセンター輝指定居宅支援事業所,9042212,,うるま市,沖縄県字赤野１４０７番地, うるま市 沖縄県字赤野１４０７番地
有限会社　在宅介護サービスひまわり　指定居宅介護支援事業所,904-2223,,うるま市,沖縄県具志川1345番地1, うるま市 沖縄県具志川1345番地1
居宅介護支援事業所　たばた,9042225,,うるま市,沖縄県喜屋武１６０番地　, うるま市 沖縄県喜屋武１６０番地　
介護支援平良川,9042225,,うるま市,沖縄県喜屋武179番地（渡口ビル２０１号）, うるま市 沖縄県喜屋武179番地（渡口ビル２０１号）
かりゆし居宅介護支援事業所,9042241,,うるま市,沖縄県兼箇段912番地13, うるま市 沖縄県兼箇段912番地13
ケアプラン　うるまの里,9042211,,うるま市,沖縄県字宇堅1322番地1, うるま市 沖縄県字宇堅1322番地1
居宅介護支援事業所　周,9042205,,うるま市,沖縄県栄野比７５３番地の２, うるま市 沖縄県栄野比７５３番地の２
具志川厚生園指定居宅介護支援事業所,904-2202,,うるま市,沖縄県字天願1983番地, うるま市 沖縄県字天願1983番地
さくらケアステーション　居宅介護支援事業所,9042213,,うるま市,沖縄県田場1927-2, うるま市 沖縄県田場1927-2
居宅介護支援事業所スイートホーム,9042232,,うるま市,沖縄県川田４８１番地１, うるま市 沖縄県川田４８１番地１
ケアプラン　みのわ,904-2244,,うるま市,沖縄県字江洲６３６番地, うるま市 沖縄県字江洲６３６番地
うるまケアセンター,9042215,,うるま市,沖縄県みどり町五丁目14番7号, うるま市 沖縄県みどり町五丁目14番7号
よかつ　居宅介護支援事業所,904-2312,,うるま市,沖縄県勝連平安名1655番地１, うるま市 沖縄県勝連平安名1655番地１
居宅介護事業所　みはら,9042215,,うるま市,沖縄県みどり町３丁目１３番地１７号, うるま市 沖縄県みどり町３丁目１３番地１７号
ケアサービスSYM,9042223,,うるま市,沖縄県具志川２４３６番地, うるま市 沖縄県具志川２４３６番地
指定居宅介護事業所　りっか,9042223,,うるま市,沖縄県字具志川１３２１番地１, うるま市 沖縄県字具志川１３２１番地１
居宅介護支援事業所カシータ,9042244,,うるま市,沖縄県江洲135-3, うるま市 沖縄県江洲135-3
居宅介護支援事業所いっしんうるま,9041111,,うるま市,沖縄県石川東恩納１３３－１, うるま市 沖縄県石川東恩納１３３－１
居宅支援事業所　寿楽,9042214,,うるま市,沖縄県字安慶名１０３２番地１　１Ｆ, うるま市 沖縄県字安慶名１０３２番地１　１Ｆ
居宅介護支援センター　とよはら,9042-233,,うるま市,沖縄県字豊原２３４番地１, うるま市 沖縄県字豊原２３４番地１
居宅介護支援事業所 サンライズ,904-1111,,うるま市,沖縄県石川東恩納１５０８番地１, うるま市 沖縄県石川東恩納１５０８番地１
ケアプランステーション　みどり町,9042215,,うるま市,沖縄県みどり町五丁目２７番３号志堅原アパート１階, うるま市 沖縄県みどり町五丁目２７番３号志堅原アパート１階
あい・ゆう居宅介護支援事業所,9042314,,うるま市,沖縄県勝連平敷屋４３０番地２１０２号室, うるま市 沖縄県勝連平敷屋４３０番地２１０２号室
居宅介護支援事業所　琉美,9042222,,うるま市,沖縄県上江洲３３９－１, うるま市 沖縄県上江洲３３９－１
イリーゼうるま居宅介護支援事業所,9042225,,うるま市,沖縄県喜屋武５４６－１, うるま市 沖縄県喜屋武５４６－１
ケアプラン　はぴねす,9042215,,うるま市,沖縄県みどり町六丁目７番１号, うるま市 沖縄県みどり町六丁目７番１号
居宅介護支援事業所　エーアンドエス,904-2224,,うるま市,沖縄県字大田２７６番地８, うるま市 沖縄県字大田２７６番地８
指定居宅介護支援事業所　千家,9042311,,うるま市,沖縄県勝連南風原4090番地, うるま市 沖縄県勝連南風原4090番地
居宅介護支援事業所陽光館,9042293,,うるま市,沖縄県字宮里265番地4, うるま市 沖縄県字宮里265番地4
居宅介護支援事業所島の風,9042215,,うるま市,沖縄県みどり町2-7-131F, うるま市 沖縄県みどり町2-7-131F
指定居宅介護支援事業所あやはし苑,9042304,,うるま市,沖縄県与那城屋慶名1410番地, うるま市 沖縄県与那城屋慶名1410番地
うるま市社協指定居宅介護支援事業所,904-2304,,うるま市,沖縄県与那城屋慶名１０９８番地, うるま市 沖縄県与那城屋慶名１０９８番地
居宅介護支援事業所与勝の里,9042311,,うるま市,沖縄県勝連南風原4908番地, うるま市 沖縄県勝連南風原4908番地
ひまわり居宅介護支援事業所,9040401,,国頭郡恩納村,沖縄県字名嘉真２６０５番地, 国頭郡恩納村 沖縄県字名嘉真２６０５番地
谷茶の丘指定居宅介護支援事業所,904-0412,,国頭郡恩納村,沖縄県字谷茶1919番地7, 国頭郡恩納村 沖縄県字谷茶1919番地7
社会福祉法人恩納村社会福祉協議会指定居宅介護支援事業所,9040492,,国頭郡恩納村,沖縄県恩納6302番地, 国頭郡恩納村 沖縄県恩納6302番地
居宅介護支援事業所　山田,904-0416,,国頭郡恩納村,沖縄県山田1010番地, 国頭郡恩納村 沖縄県山田1010番地
看護小規模多機能型居宅介護事業所 ナーシングケアハウス ぷくじ,904-0411,,国頭郡恩納村,沖縄県字恩納２８５８番地の３, 国頭郡恩納村 沖縄県字恩納２８５８番地の３
ケアプランセンター ぎのざ桑の実,9041303,,国頭郡宜野座村,沖縄県字惣慶１８９４－４, 国頭郡宜野座村 沖縄県字惣慶１８９４－４
宜野座村居宅介護支援ステーション,904-1303,,国頭郡宜野座村,沖縄県字惣慶1898番地　（宜野座村地域福祉センター内）, 国頭郡宜野座村 沖縄県字惣慶1898番地　（宜野座村地域福祉センター内）
でいご園居宅介護支援事業所,9041303,,国頭郡宜野座村,沖縄県字惣慶1295番地, 国頭郡宜野座村 沖縄県字惣慶1295番地
愛安　居宅介護支援事業所,904-1304,,国頭郡宜野座村,沖縄県字漢那１８４３番地の１１, 国頭郡宜野座村 沖縄県字漢那１８４３番地の１１
居宅介護支援事業所　かけはし,9041304,,国頭郡宜野座村,沖縄県漢那1953番地1, 国頭郡宜野座村 沖縄県漢那1953番地1
金武居宅介護支援事業所,904ー1201,,国頭郡金武町,沖縄県金武94番地, 国頭郡金武町 沖縄県金武94番地
ケアマネジメント信愛の丘,904-1203,,国頭郡金武町,沖縄県字屋嘉2724番地, 国頭郡金武町 沖縄県字屋嘉2724番地
光が丘居宅介護支援事業所,9041202,,国頭郡金武町,沖縄県字伊芸1292番地の1, 国頭郡金武町 沖縄県字伊芸1292番地の1
居宅介護支援事業所　くばの里,9041201,,国頭郡金武町,沖縄県金武４１９６－２８番地, 国頭郡金武町 沖縄県金武４１９６－２８番地
ケアプランスマイル,9041201,,国頭郡金武町,沖縄県字金武７９０６番地, 国頭郡金武町 沖縄県字金武７９０６番地
ケアプラン　アシスト,9041201,,国頭郡金武町,沖縄県字金武３８９番地　１０１号室, 国頭郡金武町 沖縄県字金武３８９番地　１０１号室
ケアプランひらめき,9041202,,国頭郡金武町,沖縄県字伊芸９５番地, 国頭郡金武町 沖縄県字伊芸９５番地
読谷村診療所指定居宅介護支援事業所,9040305,,中頭郡読谷村,沖縄県都屋179番地　読谷村診療所内, 中頭郡読谷村 沖縄県都屋179番地　読谷村診療所内
ライフケア読谷　介護支援センター,904-0324,,中頭郡読谷村,沖縄県長浜１５７６番地, 中頭郡読谷村 沖縄県長浜１５７６番地
よみたんクリニック　居宅介護支援事業所,9040324,,中頭郡読谷村,沖縄県長浜1774番地, 中頭郡読谷村 沖縄県長浜1774番地
ケアプラン　花織,904-0302,,中頭郡読谷村,沖縄県喜名497番地の14, 中頭郡読谷村 沖縄県喜名497番地の14
読谷の里指定居宅介護支援事業所,9040301,,中頭郡読谷村,沖縄県字座喜味1875番地の1, 中頭郡読谷村 沖縄県字座喜味1875番地の1
読谷村社会福祉協議会　居宅介護支援事業所,9040305,,中頭郡読谷村,沖縄県都屋167番地の２, 中頭郡読谷村 沖縄県都屋167番地の２
ケアプランたんぽぽ,9040314,,中頭郡読谷村,沖縄県字古堅587番地, 中頭郡読谷村 沖縄県字古堅587番地
ヴィラージュせなは居宅介護支援事業所,9040324,,中頭郡読谷村,沖縄県長浜1110番地, 中頭郡読谷村 沖縄県長浜1110番地
ケアプランセンター　あかり,9040314,,中頭郡読谷村,沖縄県古堅629番地, 中頭郡読谷村 沖縄県古堅629番地
ケアプラン　しおん,9040304,,中頭郡読谷村,沖縄県楚辺2063番地１, 中頭郡読谷村 沖縄県楚辺2063番地１
ケアプラン健やか,9040323,,中頭郡読谷村,沖縄県字高志保９２番地, 中頭郡読谷村 沖縄県字高志保９２番地
ケアプラン　活きる家,9040304,,中頭郡読谷村,沖縄県字楚辺２２００番１, 中頭郡読谷村 沖縄県字楚辺２２００番１
指定居宅介護支援事業所　ちゅらゆんたんざ,9040301,,中頭郡読谷村,沖縄県字座喜味２７４２番地３, 中頭郡読谷村 沖縄県字座喜味２７４２番地３
ケアプランななふく,9040324,,中頭郡読谷村,沖縄県字長浜１１９４番地, 中頭郡読谷村 沖縄県字長浜１１９４番地
居宅介護支援事業所　まゆの里おおわん,9040313,,中頭郡読谷村,沖縄県字大湾６６９－２, 中頭郡読谷村 沖縄県字大湾６６９－２
相談支援事業所　鳳凰,9040305,,中頭郡読谷村,沖縄県字都屋４０３番地２, 中頭郡読谷村 沖縄県字都屋４０３番地２
ケアサポート　バニアン　指定居宅介護支援事業所,9040313,,中頭郡読谷村,沖縄県字大湾３８３番地, 中頭郡読谷村 沖縄県字大湾３８３番地
夢咲デイサービスセンター 喜名,9040302,,中頭郡読谷村,沖縄県字喜名２３４５番地５１, 中頭郡読谷村 沖縄県字喜名２３４５番地５１
居宅介護支援事業所　ケアサポート　浜音,9040324,,中頭郡読谷村,沖縄県字長浜１６５番地, 中頭郡読谷村 沖縄県字長浜１６５番地
介護の窓口晴れ晴れ,9040303,,中頭郡読谷村,沖縄県伊良皆２６７－５, 中頭郡読谷村 沖縄県伊良皆２６７－５
居宅介護支援事業所　読谷,904-0304,,中頭郡読谷村,沖縄県楚辺1300番地, 中頭郡読谷村 沖縄県楚辺1300番地
ケアプラン　きらめき,904-0315,,中頭郡読谷村,沖縄県渡具知３７番地の１, 中頭郡読谷村 沖縄県渡具知３７番地の１
聖隷居宅介護支援センターゆい,9040203,,中頭郡嘉手納町,沖縄県字嘉手納２７０－１９２F南, 中頭郡嘉手納町 沖縄県字嘉手納２７０－１９２F南
ケアマネジメント比謝川の里,9040201,,中頭郡嘉手納町,沖縄県字久得242番地の2, 中頭郡嘉手納町 沖縄県字久得242番地の2
ケアプランカデナ,9040203,,中頭郡嘉手納町,沖縄県嘉手納300番地, 中頭郡嘉手納町 沖縄県嘉手納300番地
徳洲会ハンビークリニック　居宅介護支援事業所,9040117,,中頭郡北谷町,沖縄県北前１丁目21番１号, 中頭郡北谷町 沖縄県北前１丁目21番１号
北谷町社会福祉協議会居宅介護支援事業所,9040105,,中頭郡北谷町,沖縄県吉原26番地６, 中頭郡北谷町 沖縄県吉原26番地６
白川園指定居宅介護支援事業所,904-0105,,中頭郡北谷町,沖縄県字吉原263番地　, 中頭郡北谷町 沖縄県字吉原263番地　
琉球メディカルズ指定居宅介護支援事業所,904-0103,,中頭郡北谷町,沖縄県字桑江400番地の2, 中頭郡北谷町 沖縄県字桑江400番地の2
居宅介護支援事業所　なごみ,9040105,,中頭郡北谷町,沖縄県吉原1178番地, 中頭郡北谷町 沖縄県吉原1178番地
ケアプランステーション　まほろば,9040105,,中頭郡北谷町,沖縄県吉原790-15, 中頭郡北谷町 沖縄県吉原790-15
ケアプランステーション　ゆい,9012311,,中頭郡北中城村,沖縄県字喜舎場３６０番地１, 中頭郡北中城村 沖縄県字喜舎場３６０番地１
居宅介護支援事業所　愛の村,9012301,,中頭郡北中城村,沖縄県袋1394番地, 中頭郡北中城村 沖縄県袋1394番地
ケアプランセンターふくとく,901-2303,,中頭郡北中城村,沖縄県字仲順375番地の1, 中頭郡北中城村 沖縄県字仲順375番地の1
居宅介護支援事業所　敬福,9012316,,中頭郡北中城村,沖縄県安谷屋２１４４番地１３金城貸店舗１階, 中頭郡北中城村 沖縄県安谷屋２１４４番地１３金城貸店舗１階
在宅介護サービスセンター中城,9012412,,中頭郡中城村,沖縄県字奥間909番地1, 中頭郡中城村 沖縄県字奥間909番地1
居宅介護支援事業所愛誠園東センター,9012406,,中頭郡中城村,沖縄県字当間289番地１, 中頭郡中城村 沖縄県字当間289番地１
いなほ居宅介護支援事業所,9012404,,中頭郡中城村,沖縄県字添石363番地, 中頭郡中城村 沖縄県字添石363番地
居宅介護支援事業所　みずほ,9012407,,中頭郡中城村,沖縄県安里268-4　ｺｰﾎﾟ金永（壱階事務所）, 中頭郡中城村 沖縄県安里268-4　ｺｰﾎﾟ金永（壱階事務所）
なかぐすく日の出園居宅介護支援事業所,9012403,,中頭郡中城村,沖縄県伊舎堂３６２番地, 中頭郡中城村 沖縄県伊舎堂３６２番地
ケアプランふたふぁ,9012424,,中頭郡中城村,沖縄県字南上原732番地, 中頭郡中城村 沖縄県字南上原732番地
居宅介護支援事業所みなみ,9012424,,中頭郡中城村,沖縄県字南上原９６５番地２, 中頭郡中城村 沖縄県字南上原９６５番地２
すずらんケアプランセンター,9012403,,中頭郡中城村,沖縄県伊舎堂130番地１, 中頭郡中城村 沖縄県伊舎堂130番地１
中部介護ケア相談所　しまごころ,9012424,,中頭郡中城村,沖縄県南上原７７１－１アーバンパレット南上原１階, 中頭郡中城村 沖縄県南上原７７１－１アーバンパレット南上原１階
ロータス居宅介護支援事業所,9012424,,中頭郡中城村,沖縄県南上原６８４番地６　カサデピノ２Ｆ, 中頭郡中城村 沖縄県南上原６８４番地６　カサデピノ２Ｆ
居宅支援センター幸地,9030116,,中頭郡西原町,沖縄県幸地973番地, 中頭郡西原町 沖縄県幸地973番地
ケアプランセンター西原敬愛園,9030127,,中頭郡西原町,沖縄県字徳佐田159番地の1, 中頭郡西原町 沖縄県字徳佐田159番地の1
居宅介護支援事業所守礼の里,9030101,,中頭郡西原町,沖縄県字掛保久346番地, 中頭郡西原町 沖縄県字掛保久346番地
なごみ居宅介護支援事業所,9030115,,中頭郡西原町,沖縄県池田７５７番, 中頭郡西原町 沖縄県池田７５７番
居宅介護支援事業所　盛楽,903‐0125,,中頭郡西原町,沖縄県上原1丁目11番地の4, 中頭郡西原町 沖縄県上原1丁目11番地の4
介護計画相談所さとうきび,9030117,,中頭郡西原町,沖縄県字翁長393, 中頭郡西原町 沖縄県字翁長393
ウェルビーイング,9030113,,中頭郡西原町,沖縄県安室３１４番地１, 中頭郡西原町 沖縄県安室３１４番地１
ケアプランセンター　はーとらいふ,903-0101,,中頭郡西原町,沖縄県小那覇1606番地, 中頭郡西原町 沖縄県小那覇1606番地
ケアプランステーション　きずな,9030115,,中頭郡西原町,沖縄県池田371番地の21池田ハイツA-24, 中頭郡西原町 沖縄県池田371番地の21池田ハイツA-24
介護支援センター　朝貴,9030125,,中頭郡西原町,沖縄県上原2丁目9番地の1, 中頭郡西原町 沖縄県上原2丁目9番地の1
居宅介護支援事業所　さねり,9030122,,中頭郡西原町,沖縄県小橋川37番地, 中頭郡西原町 沖縄県小橋川37番地
介護老人保健施設ぎのわんおもと園,9012226,,宜野湾市,沖縄県嘉数四丁目４番10号, 宜野湾市 沖縄県嘉数四丁目４番10号
介護老人保健施設亀の里,904-2173,,沖縄市,沖縄県比屋根2丁目15-2, 沖縄市 沖縄県比屋根2丁目15-2
おきなわ徳洲苑,9040021,,沖縄市,沖縄県胡屋6丁目4番19号, 沖縄市 沖縄県胡屋6丁目4番19号
介護老人保健施設いしかわ願寿ぬ森,9041106,,うるま市,沖縄県石川3273-2, うるま市 沖縄県石川3273-2
介護老人保健施設陽光館,9042222,,うるま市,沖縄県字上江洲661, うるま市 沖縄県字上江洲661
介護老人保健施設いずみ苑,9042205,,うるま市,沖縄県字栄野比1150, うるま市 沖縄県字栄野比1150
介護老人保健施設信愛の丘,9041203,,国頭郡金武町,沖縄県字屋嘉2724, 国頭郡金武町 沖縄県字屋嘉2724
介護老人保健施設白川園,904-0105,,中頭郡北谷町,沖縄県字吉原263番地, 中頭郡北谷町 沖縄県字吉原263番地
介護老人保健施設若松苑,9012314,,中頭郡北中城村,沖縄県字大城327番地, 中頭郡北中城村 沖縄県字大城327番地
介護老人保健施設信成苑,9012404,,中頭郡中城村,沖縄県字添石363, 中頭郡中城村 沖縄県字添石363
介護老人保健施設中城苑,9012412,,中頭郡中城村,沖縄県字奥間909-1, 中頭郡中城村 沖縄県字奥間909-1
介護老人保健施設池田苑,9030115,,中頭郡西原町,沖縄県字池田757, 中頭郡西原町 沖縄県字池田757
介護老人保健施設西原敬愛園,9030127,,中頭郡西原町,沖縄県字徳佐田159-1, 中頭郡西原町 沖縄県字徳佐田159-1
介護老人福祉施設　愛誠園,9012223,,宜野湾市,沖縄県大山３丁目31番１号, 宜野湾市 沖縄県大山３丁目31番１号
特別養護老人ホーム　白浜の里愛誠園,9012227,,宜野湾市,沖縄県宇地泊８５７番地, 宜野湾市 沖縄県宇地泊８５７番地
特別養護老人ホーム福寿園,901-2205,,宜野湾市,沖縄県赤道２－７－２, 宜野湾市 沖縄県赤道２－７－２
介護老人福祉施設　沖縄一条園,904-2174,,沖縄市,沖縄県与儀3丁目5番10号, 沖縄市 沖縄県与儀3丁目5番10号
介護老人福祉施設　緑樹苑,9040021,,沖縄市,沖縄県胡屋７丁目２番10号, 沖縄市 沖縄県胡屋７丁目２番10号
特別養護老人ホーム　おきなわ長寿苑,904-2142,,沖縄市,字登川1403番地, 沖縄市 字登川1403番地
特別養護老人ホーム　知花の里,904-2143,,沖縄市,沖縄県知花５丁目23番16号, 沖縄市 沖縄県知花５丁目23番16号
介護老人福祉施設　楽寿園,9041114,,うるま市,沖縄県石川嘉手苅961番地17, うるま市 沖縄県石川嘉手苅961番地17
介護老人福祉施設　平和の村,9042201,,うるま市,沖縄県昆布1832番地637, うるま市 沖縄県昆布1832番地637
介護老人福祉施設　具志川厚生園,9042202,,うるま市,沖縄県天願1983番地, うるま市 沖縄県天願1983番地
うるま市地域包括支援センターよなしろ,904-2304,,うるま市,沖縄県与那城屋慶名1410番地, うるま市 沖縄県与那城屋慶名1410番地
介護老人福祉施設　与勝の里,904-2311,,うるま市,沖縄県勝連南風原4902番地, うるま市 沖縄県勝連南風原4902番地
介護老人福祉施設　谷茶の丘.雅,9040412,,国頭郡恩納村,沖縄県谷茶1919番地７, 国頭郡恩納村 沖縄県谷茶1919番地７
介護老人福祉施設　でいご園,9041303,,国頭郡宜野座村,沖縄県字惣慶1295番地, 国頭郡宜野座村 沖縄県字惣慶1295番地
介護老人福祉施設　光が丘,9041202,,国頭郡金武町,沖縄県伊芸１２９２番地１号, 国頭郡金武町 沖縄県伊芸１２９２番地１号
介護老人福祉施設　読谷の里,9040301,,中頭郡読谷村,沖縄県座喜味1875番地の１, 中頭郡読谷村 沖縄県座喜味1875番地の１
介護老人福祉施設　比謝川の里,9040201,,中頭郡嘉手納町,沖縄県久得242番地の２, 中頭郡嘉手納町 沖縄県久得242番地の２
介護老人福祉施設　陽明園,9040105,,中頭郡北谷町,沖縄県吉原265番地, 中頭郡北谷町 沖縄県吉原265番地
介護老人福祉施設　愛の村,9012301,,中頭郡北中城村,沖縄県袋１３９３番地, 中頭郡北中城村 沖縄県袋１３９３番地
介護老人福祉施設　春華園,9012404,,中頭郡中城村,沖縄県添石363番地, 中頭郡中城村 沖縄県添石363番地
介護老人福祉施設　守礼の里,903-0101,,中頭郡西原町,沖縄県字掛保久３４６番地, 中頭郡西原町 沖縄県字掛保久３４６番地
宅老所ゆうゆう館,9012201,,宜野湾市,沖縄県新城2丁目40番27号, 宜野湾市 沖縄県新城2丁目40番27号
医療法人 心和会　住宅型有料老人ホームなごみ,904-0022,,沖縄市,園田2-15-5, 沖縄市 園田2-15-5
医療法人仁誠会名嘉病院,9040203,,中頭郡嘉手納町,沖縄県嘉手納258番地, 中頭郡嘉手納町 沖縄県嘉手納258番地
宜野湾市地域包括支援センター　かいほう,901-2224,,宜野湾市,沖縄県真志喜2丁目22番2号, 宜野湾市 沖縄県真志喜2丁目22番2号
宜野湾市地域包括支援センター　ぎのわん,901-2211,,宜野湾市,沖縄県宜野湾３丁目３番１３号, 宜野湾市 沖縄県宜野湾３丁目３番１３号
宜野湾市地域包括支援センターふてんま,9012202,,宜野湾市,沖縄県普天間１－９－３, 宜野湾市 沖縄県普天間１－９－３
宜野湾市地域包括支援センターふれあい,901－221５,,宜野湾市,沖縄県真栄原三丁目２０番１２号　１階, 宜野湾市 沖縄県真栄原三丁目２０番１２号　１階
沖縄市基幹型地域包括支援センター,904-8501,,沖縄市,沖縄県仲宗根町２６番地１号, 沖縄市 沖縄県仲宗根町２６番地１号
沖縄市地域包括支援センター西部南,9040035,,沖縄市,沖縄県南桃原1丁目9番3号, 沖縄市 沖縄県南桃原1丁目9番3号
沖縄市地域包括支援センター西部北,9040021,,沖縄市,沖縄県胡屋7丁目2番10号, 沖縄市 沖縄県胡屋7丁目2番10号
沖縄市地域包括支援センター中部南,9040011,,沖縄市,沖縄県照屋2丁目22番30号コーポ上原106号 , 沖縄市 沖縄県照屋2丁目22番30号コーポ上原106号 
沖縄市地域包括支援センター東部北,904-2162,,沖縄市,沖縄県海邦1丁目15番26号, 沖縄市 沖縄県海邦1丁目15番26号
沖縄市地域包括支援センター中部北,9042155,,沖縄市,沖縄県美原2丁目3番1号, 沖縄市 沖縄県美原2丁目3番1号
沖縄市地域包括支援センター東部南,904-2171,,沖縄市,沖縄県高原1丁目1番38号, 沖縄市 沖縄県高原1丁目1番38号
沖縄市地域包括支援センター北部,9042142,,沖縄市,沖縄県登川1402番地, 沖縄市 沖縄県登川1402番地
うるま市地域包括支援センターよなしろ,9042304,,うるま市,沖縄県与那城屋慶名１４１０番地, うるま市 沖縄県与那城屋慶名１４１０番地
うるま市地域包括支援センターかつれん,904-2311,,うるま市,沖縄県勝連南風原４５６９番地１グランシャリオ　１階左, うるま市 沖縄県勝連南風原４５６９番地１グランシャリオ　１階左
うるま市地域包括支援センターいしかわ,9041105,,うるま市,沖縄県石川白浜２丁目３番５号石川ビル, うるま市 沖縄県石川白浜２丁目３番５号石川ビル
うるま市地域包括支援センター具志川北,904-2205,,うるま市,沖縄県栄野比４６２番地, うるま市 沖縄県栄野比４６２番地
うるま市地域包括支援センター具志川ひがし,9042243,,うるま市,沖縄県宮里２６５番地４, うるま市 沖縄県宮里２６５番地４
恩納村地域包括支援センター,9040492,,国頭郡恩納村,沖縄県字恩納２４５１, 国頭郡恩納村 沖縄県字恩納２４５１
宜野座村地域包括支援センター,9041392,,国頭郡宜野座村,沖縄県宜野座２９６番地, 国頭郡宜野座村 沖縄県宜野座２９６番地
金武町地域包括支援センター,9041201,,国頭郡金武町,沖縄県金武１８４２番地, 国頭郡金武町 沖縄県金武１８４２番地
読谷村地域包括支援センター,9040392,,中頭郡読谷村,沖縄県字座喜味２９０１, 中頭郡読谷村 沖縄県字座喜味２９０１
嘉手納町地域包括支援センター,904-0293,,中頭郡嘉手納町,沖縄県字嘉手納588番地, 中頭郡嘉手納町 沖縄県字嘉手納588番地
北谷町地域包括支援センター,9040192,,中頭郡北谷町,沖縄県桑江２２６番地, 中頭郡北谷町 沖縄県桑江２２６番地
北中城村指定介護予防支援事業所,9012392,,中頭郡北中城村,沖縄県字喜舎場426番地2, 中頭郡北中城村 沖縄県字喜舎場426番地2
中城村地域包括支援センター,9012493,,中頭郡中城村,沖縄県字当間176番地, 中頭郡中城村 沖縄県字当間176番地
西原町地域包括支援センター,9030127,,中頭郡西原町,沖縄県徳佐田159-1, 中頭郡西原町 沖縄県徳佐田159-1
那覇内視鏡クリニック,901-1105,,島尻郡南風原町,字新川２１７ー４　２階, 島尻郡南風原町 字新川２１７ー４　２階
沖縄県健康づくり財団,901-1192,,島尻郡南風原町,字宮平２１２番地, 島尻郡南風原町 字宮平２１２番地
oneハート南風原薬局,901-1116,,島尻郡南風原町,照屋３６２, 島尻郡南風原町 照屋３６２
訪問看護ステーション縁,901-1203,,南城市,大里大城２００５番地１, 南城市 大里大城２００５番地１
訪問看護ステーション　ベストかねぐすく,901-1111,,島尻郡南風原町,字兼城２６５-１０, 島尻郡南風原町 字兼城２６５-１０
松原クリニック,9041201,,国頭郡金武町,沖縄県字金武4231番地, 国頭郡金武町 沖縄県字金武4231番地
軽費老人ホームおなが園,901-0223,,豊見城市,翁長141, 豊見城市 翁長141
有料老人ホーム　美和 (住宅型),904-2225,,うるま市,字喜屋武672番地, うるま市 字喜屋武672番地
住宅型有料老人ホームうるま荘,9042200,,うるま市,字宇堅1322番地1, うるま市 字宇堅1322番地1
あっとほーむ　きむたかの丘,9042311,,うるま市,勝連南風原3601番地2, うるま市 勝連南風原3601番地2
有料老人ホーム「川田ホーム」　Ｂ棟,9042200,,うるま市,字川田431番地, うるま市 字川田431番地
住宅型有料老人ホーム　東恩納,9041111,,うるま市,石川東恩納663番地2, うるま市 石川東恩納663番地2
かりゆしホーム兼箇段,9042241,,うるま市,兼箇段912番地13　2階, うるま市 兼箇段912番地13　2階
ゆがふ宅老所,904-2202,,うるま市,天願1508番地1, うるま市 天願1508番地1
宅老所あかみち,9042200,,うるま市,字赤道12番地16　2階, うるま市 字赤道12番地16　2階
住宅型有料老人ホームよかつの家,904-2312,,うるま市,勝連平安名1655番地1, うるま市 勝連平安名1655番地1
有料老人ホームとぅもも,9042311,,うるま市,勝連南風原4022番地1, うるま市 勝連南風原4022番地1
住宅型有料老人ホーム家,904-2232,,うるま市,字川田481番地１　2階, うるま市 字川田481番地１　2階
住宅型有料老人ホーム　おきなわ長寿苑,904-2244,,うるま市,江洲1370番地1, うるま市 江洲1370番地1
有料老人ホーム　千家,9042311,,うるま市,勝連南風原4090番地　2階, うるま市 勝連南風原4090番地　2階
住宅型有料老人ホーム　へいあい,9042225,,うるま市,喜屋武626番地8, うるま市 喜屋武626番地8
有料老人ホームのぼたん苑,9042200,,うるま市,字栄野比1151番地1　2階、3階, うるま市 字栄野比1151番地1　2階、3階
有料老人ホームさくら館,9042201,,うるま市,昆布1835番地55, うるま市 昆布1835番地55
有料老人ホーム　大育の杜　結（むすび）,9041106,,うるま市,石川2284番地1, うるま市 石川2284番地1
有料老人ホームみのわ,904-2244,,うるま市,字江洲636番地, うるま市 字江洲636番地
住宅型有料老人ホーム　みつば,9042314,,うるま市,勝連平敷屋75番地1, うるま市 勝連平敷屋75番地1
イリーゼうるま,904-2225,,うるま市,字喜屋武546番地1, うるま市 字喜屋武546番地1
住宅型有料老人ホーム　しげちゃんの家,904-2203,,うるま市,字川崎67番地1, うるま市 字川崎67番地1
住宅型有料老人ホーム　琉美ハウス,9042231,,うるま市,塩屋75番地1　１階, うるま市 塩屋75番地1　１階
住宅型有料老人ホーム　おもろの郷,9042214,,うるま市,安慶名3丁目4番23, うるま市 安慶名3丁目4番23
有料老人ホーム　ＳＹＭシルバーハウス　縁（ゆかり）,904-2223,,うるま市,具志川2436番地, うるま市 具志川2436番地
シルバーハウスアイリー　赤道,904-2245,,うるま市,字赤道171番地6, うるま市 字赤道171番地6
あい・ゆう　ホーム,904-2307,,うるま市,与那城字饒辺239番地2, うるま市 与那城字饒辺239番地2
がんじゅう御庭,9041111,,うるま市,石川東恩納972番地1, うるま市 石川東恩納972番地1
宅老所さくら,9042215,,うるま市,みどり町1丁目3番23　1階, うるま市 みどり町1丁目3番23　1階
有料老人ホーム　プライムガーデンうるま,904-2235,,うるま市,字前原260番地5, うるま市 字前原260番地5
有料老人ホーム川田ホームＡ棟,9042200,,うるま市,字川田431番地, うるま市 字川田431番地
住宅型有料老人ホーム　つばさ苑,9042200,,うるま市,字上江洲156番地1, うるま市 字上江洲156番地1
生協美里ハウス,904ー2153,,沖縄市,字美里2丁目27番20, 沖縄市 字美里2丁目27番20
しーさー家,9040011,,沖縄市,照屋5丁目7番21, 沖縄市 照屋5丁目7番21
宅老所　ももの園,9042164,,沖縄市,桃原1丁目4番46, 沖縄市 桃原1丁目4番46
宅老所　美桃,9042164,,沖縄市,桃原1丁目16番6, 沖縄市 桃原1丁目16番6
風雅の舎・Ⅱ,9042162,,沖縄市,海邦2丁目27番1　1階, 沖縄市 海邦2丁目27番1　1階
有料老人ホーム福乃ホーム,9040000,,沖縄市,字登川742番地　2階, 沖縄市 字登川742番地　2階
シルバーハウス　ゆい花,904-0022,,沖縄市,園田2丁目32番17, 沖縄市 園田2丁目32番17
さくら荘,9040023,,沖縄市,久保田1丁目10番5　4階, 沖縄市 久保田1丁目10番5　4階
宅老所　エデンの園,9040014,,沖縄市,仲宗根町13番地18　２階、３階, 沖縄市 仲宗根町13番地18　２階、３階
有料老人ホーム海の家,904-2172,,沖縄市,泡瀬1丁目31番17, 沖縄市 泡瀬1丁目31番17
有料老人ホームあかり,9042153,,沖縄市,美里4丁目2番5　１階, 沖縄市 美里4丁目2番5　１階
シルバーホーム美浦の郷,904-2161,,沖縄市,古謝三丁目12番20号, 沖縄市 古謝三丁目12番20号
有料老人ホーム　くしばる,904-2141,,沖縄市,池原3丁目3番8, 沖縄市 池原3丁目3番8
住宅型有料老人ホーム　ハウス竹園,9040032,,沖縄市,諸見里3丁目41番36　２階, 沖縄市 諸見里3丁目41番36　２階
愛聖有料老人ホーム　シンフォニー,9042162,,沖縄市,海邦1丁目15番25　2階～4階, 沖縄市 海邦1丁目15番25　2階～4階
有料老人ホームにへでほーむ,9042163,,沖縄市,大里98番地1　2階～4階, 沖縄市 大里98番地1　2階～4階
有料老人ホーム　ハウス山里,9040033,,沖縄市,山里1丁目4番15　3階, 沖縄市 山里1丁目4番15　3階
高齢者共同住宅　「生活家うなり」,904-0004,,沖縄市,央2丁目17番26　宮秀店舗　１階, 沖縄市 央2丁目17番26　宮秀店舗　１階
住宅型有料老人ホーム　ティーダ,9040021,,沖縄市,胡屋1丁目5番6, 沖縄市 胡屋1丁目5番6
住宅型有料老人ホーム　アイホーム,904-2141,,沖縄市,池原5丁目3番29, 沖縄市 池原5丁目3番29
共同はうす　小梅,9042161,,沖縄市,古謝213番地3, 沖縄市 古謝213番地3
共同はうす　竹宅,9042161,,沖縄市,古謝214番地16, 沖縄市 古謝214番地16
シニアハウスめだかの杜　高原ハウス,904-2171,,沖縄市,高原4丁目12番3　1階, 沖縄市 高原4丁目12番3　1階
シニアハウスめだかの杜　泡瀬ハウス,9042172,,沖縄市,泡瀬4丁目9番19　長田ハウスA　3号室, 沖縄市 泡瀬4丁目9番19　長田ハウスA　3号室
有料老人ホームしあわせ街角,904-0031,,沖縄市,上地2丁目9番5　みやす商事ビル1階, 沖縄市 上地2丁目9番5　みやす商事ビル1階
有料老人ホーム　サンライズいさ,904-2174,,沖縄市,与儀1丁目29番19　２階、３階, 沖縄市 与儀1丁目29番19　２階、３階
住宅型有料老人ホームふれ愛・高原,9042171,,沖縄市,高原2丁目3番7　1階～3階, 沖縄市 高原2丁目3番7　1階～3階
住宅型有料老人ホームちむわざ,904-2172,,沖縄市,泡瀬3丁目26番5　2階, 沖縄市 泡瀬3丁目26番5　2階
わくわくホーム　沖縄,9040021,,沖縄市,胡屋6丁目11番7, 沖縄市 胡屋6丁目11番7
シルバーホーム　りんご,9042174,,沖縄市,与儀3丁目3番2　3階, 沖縄市 与儀3丁目3番2　3階
ナーシングホーム　沖縄美里,9042153,,沖縄市,美里2丁目28番5, 沖縄市 美里2丁目28番5
シニアハウスめだかの杜　オーシャンビュー与儀　,9042174,,沖縄市,与儀2丁目5番3　糸数ハウス, 沖縄市 与儀2丁目5番3　糸数ハウス
有料老人ホーム　結いの郷　ライカム,9042173,,沖縄市,比屋根7丁目28番30号, 沖縄市 比屋根7丁目28番30号
宅老所うさぎ,9042171,,沖縄市,高原4丁目28番1　２階, 沖縄市 高原4丁目28番1　２階
宅老所すみれ,9040013,,沖縄市,室川1丁目5番5, 沖縄市 室川1丁目5番5
宅老所チューリップ,9040013,,沖縄市,室川1丁目5番3, 沖縄市 室川1丁目5番3
宅老所ひまわり,9040013,,沖縄市,室川1丁目2番17, 沖縄市 室川1丁目2番17
宅老所さくら,9040013,,沖縄市,室川1丁目5番4, 沖縄市 室川1丁目5番4
宅老所でいご,9040013,,沖縄市,室川1丁目5番2, 沖縄市 室川1丁目5番2
有料老人ホーム　千夢心,9042151,,沖縄市,松本930番地, 沖縄市 松本930番地
有料老人ホーム　のぞみ,9042163,,沖縄市,大里2丁目28番35, 沖縄市 大里2丁目28番35
住宅型有料老人ホーム　シルバーハウス歩,904-2162,,沖縄市,海邦2丁目26番30, 沖縄市 海邦2丁目26番30
有料老人ホーム　コザ苑,9042143,,沖縄市,知花6丁目15番5, 沖縄市 知花6丁目15番5
ハウス　桃園,9040033,,沖縄市,山里1丁目9番3, 沖縄市 山里1丁目9番3
宅老所　さくら,9042161,,沖縄市,古謝214番地43, 沖縄市 古謝214番地43
シニアハウスエール,9042162,,沖縄市,海邦1丁目5番3, 沖縄市 海邦1丁目5番3
シニアハウスめだかの杜　胡屋テラス,9040021,,沖縄市,胡屋7丁目4番51, 沖縄市 胡屋7丁目4番51
シニアハウスめだかの杜　高原プルメリア,9042171,,沖縄市,高原1丁目3番11, 沖縄市 高原1丁目3番11
ケアハウス中央荘,,,"",沖縄市央1丁目34番17 1階,  沖縄市央1丁目34番17 1階
宅老所花の里,9042163,,沖縄市,大里108番地, 沖縄市 大里108番地
ケアハウスくくる,9040033,,沖縄市,山里3丁目12番18, 沖縄市 山里3丁目12番18
シルバーハウス縁(ゆかり),9042153,,沖縄市,美里3丁目17番8, 沖縄市 美里3丁目17番8
いちゃりばちょうでぃー池原,9042141,,沖縄市,池原2丁目20番４, 沖縄市 池原2丁目20番４
住宅型有料老人ホーム　エルスリー沖縄,9042171,,沖縄市,高原7丁目15番14, 沖縄市 高原7丁目15番14
有料老人ホーム　さつき,9040011,,沖縄市,照屋2丁目11番9, 沖縄市 照屋2丁目11番9
有料老人ホーム　北中荘 laule`a hale ～ﾗｳﾚｱ　ﾊﾚ～,9040035,,沖縄市,南桃原1-25-7　ナカモトハウス511, 沖縄市 南桃原1-25-7　ナカモトハウス511
有料老人ホーム　おはよう,9042165,,沖縄市,宮里一丁目3番11　１階, 沖縄市 宮里一丁目3番11　１階
有料老人ホームノリア館,9042171,,沖縄市,高原五丁目2番5, 沖縄市 高原五丁目2番5
ケアハウスくくる,904-0035,,沖縄市,南桃原2丁目17番地28, 沖縄市 南桃原2丁目17番地28
シニアライフサポート福ら舎,9040400,,国頭郡恩納村,字名嘉真2288番地24, 国頭郡恩納村 字名嘉真2288番地24
有料老人ホームたんぽぽ,9040411,,国頭郡恩納村,恩納6121番地, 国頭郡恩納村 恩納6121番地
恩納宅老所,,,"",恩納村恩納2447番地 1階、3階,  恩納村恩納2447番地 1階、3階
住宅型有料老人ホームサンハート,9040202,,中頭郡嘉手納町,屋良1丁目21番1, 中頭郡嘉手納町 屋良1丁目21番1
シルバーホーム福徳,901-2303,,中頭郡北中城村,字仲順375番地1, 中頭郡北中城村 字仲順375番地1
シルバーハウス美ら島　1号,9012301,,中頭郡北中城村,袋604番地6　1階, 中頭郡北中城村 袋604番地6　1階
有料老人ホーム　北中荘,9012301,,中頭郡北中城村,袋1944番地１　3階, 中頭郡北中城村 袋1944番地１　3階
ケアホームアガペ,9012311,,中頭郡北中城村,喜舎場360番地1, 中頭郡北中城村 喜舎場360番地1
シルバーハウス美ら島　２号館,9012300,,中頭郡北中城村,字袋604番地7　１階, 中頭郡北中城村 字袋604番地7　１階
有料老人ホームかけはし,９０４－１３０４,,国頭郡宜野座村,字漢那1953番地1　2階, 国頭郡宜野座村 字漢那1953番地1　2階
有料老人ホームおれんじ,9012226,,宜野湾市,嘉数2丁目2番１　3階、4階, 宜野湾市 嘉数2丁目2番１　3階、4階
有料老人ホーム　ふく福ホーム,901-2215,,宜野湾市,真栄原１丁目2番6, 宜野湾市 真栄原１丁目2番6
有料老人ホーム藍風（あいかじ）,9012212,,宜野湾市,長田3丁目13番10, 宜野湾市 長田3丁目13番10
共同住宅だいだいの実,9012200,,宜野湾市,字真栄原3丁目26番9, 宜野湾市 字真栄原3丁目26番9
有料老人ホームふくやま,9012225,,宜野湾市,大謝名5丁目21番5　2階, 宜野湾市 大謝名5丁目21番5　2階
住宅型有料老人ホームマナ,9012213,,宜野湾市,志真志1丁目13番19　2階、3階, 宜野湾市 志真志1丁目13番19　2階、3階
有料老人ホーム　てぃーち,9012200,,宜野湾市,字大謝名94番地, 宜野湾市 字大謝名94番地
住宅型有料老人ホーム　おれんじ嘉数,9012226,,宜野湾市,嘉数2丁目5番32, 宜野湾市 嘉数2丁目5番32
有料老人ホーム　よつ葉の里,,,"",宜野湾市宜野湾3丁目9番14　 2階、3階,  宜野湾市宜野湾3丁目9番14　 2階、3階
願寿苑（がじまる）,9012215,,宜野湾市,真栄原3丁目7番11　2階～5階, 宜野湾市 真栄原3丁目7番11　2階～5階
シルバーハウス志真志,901-2213,,宜野湾市,志真志3丁目2番5, 宜野湾市 志真志3丁目2番5
有料老人ホーム　はにんすの森,901-2203,,宜野湾市,野嵩1丁目11番14　2階、3階, 宜野湾市 野嵩1丁目11番14　2階、3階
有料ホーム　すみれ荘,901-2225,,宜野湾市,大謝名4丁目24番12　すみれ荘, 宜野湾市 大謝名4丁目24番12　すみれ荘
住宅型有料老人ホーム　いこいの森,9012211,,宜野湾市,宜野湾2丁目18番18　2階, 宜野湾市 宜野湾2丁目18番18　2階
住宅型有料老人ホーム　たぁーち,9012206,,宜野湾市,愛知2丁目7番6, 宜野湾市 愛知2丁目7番6
有料老人ホーム　かーさ,901-2203,,宜野湾市,野嵩3丁目33番15号, 宜野湾市 野嵩3丁目33番15号
有料老人ホーム　みるく花風,9012212,,宜野湾市,長田1丁目17番5, 宜野湾市 長田1丁目17番5
ふれあい老人ホーム愛知,901-2206,,宜野湾市,愛知3丁目17番20, 宜野湾市 愛知3丁目17番20
シルバーハウス蓬莱山,9041201,,国頭郡金武町,金武790番地, 国頭郡金武町 金武790番地
住宅型有料老人ホーム　サンライフ,9041200,,国頭郡金武町,字屋嘉2724番地2　2階, 国頭郡金武町 字屋嘉2724番地2　2階
有料老人ホームくばの里,9041200,,国頭郡金武町,字金武4307番地, 国頭郡金武町 字金武4307番地
有料老人ホーム風雅,904-1201,,国頭郡金武町,字金武4386番地7　２階、３階, 国頭郡金武町 字金武4386番地7　２階、３階
オリーブの家,904-1201,,国頭郡金武町,金武882番地, 国頭郡金武町 金武882番地
有料老人ホームシルバーハウス光が丘,9041202,,国頭郡金武町,伊芸1292番地１, 国頭郡金武町 伊芸1292番地１
有料老人ホームちゅうざん２,904-0103,,中頭郡北谷町,字桑江399番地1, 中頭郡北谷町 字桑江399番地1
有料老人ホーム　宅老所なごみの家,9040100,,中頭郡北谷町,字吉原1178番地　1階, 中頭郡北谷町 字吉原1178番地　1階
有料老人ホーム　ケルブ,9040100,,中頭郡北谷町,字吉原628番地11　２、３、５階, 中頭郡北谷町 字吉原628番地11　２、３、５階
グラットホーム　パステル,9040103,,中頭郡北谷町,字桑江287番地２, 中頭郡北谷町 字桑江287番地２
住宅型有料老人ホーム　北谷の杜,9040103,,中頭郡北谷町,桑江479番地8　1階　, 中頭郡北谷町 桑江479番地8　1階　
シェアハウスまごの手,9040101,,中頭郡北谷町,上勢626番地1　1階, 中頭郡北谷町 上勢626番地1　1階
シルバーハウス　わかば,9012400,,中頭郡中城村,字添石363番地　1階, 中頭郡中城村 字添石363番地　1階
有料老人ホームなかぐすく,9012400,,中頭郡中城村,字奥間911番地1　２階, 中頭郡中城村 字奥間911番地1　２階
住宅型有料老人ホームさくら荘,9012400,,中頭郡中城村,字南上原547番地, 中頭郡中城村 字南上原547番地
住宅型有料老人ホームみずほ,901-2424,,中頭郡中城村,字南上原651番地　2階、3階, 中頭郡中城村 字南上原651番地　2階、3階
たんぽぽの家,901-2404,,中頭郡中城村,字添石192番地1, 中頭郡中城村 字添石192番地1
有料老人ホームひふみ,901-2423,,中頭郡中城村,北上原693番地, 中頭郡中城村 北上原693番地
有料老人ホーム　シェアハウスあいりす,901-2422,,中頭郡中城村,字新垣265番1, 中頭郡中城村 字新垣265番1
宅老所　野の花,9012421,,中頭郡中城村,登又326番地, 中頭郡中城村 登又326番地
高齢者共同住宅みつば,9012424,,中頭郡中城村,南上原616番地1　1階, 中頭郡中城村 南上原616番地1　1階
有料老人ホーム　花風（かふ～）,901-2424,,中頭郡中城村,字南上原410番地4, 中頭郡中城村 字南上原410番地4
高齢者複合施設か～さ,9030126,,中頭郡西原町,字棚原1丁目11番3　2階, 中頭郡西原町 字棚原1丁目11番3　2階
住宅型有料老人ホーム　はーとらいふ,903-0103,,中頭郡西原町,字小那覇1606番地　2階～5階, 中頭郡西原町 字小那覇1606番地　2階～5階
住宅型有料老人ホーム　さとうきび,9030117,,中頭郡西原町,翁長393番地, 中頭郡西原町 翁長393番地
有料老人ホーム　スマイルあいわ,903-0115,,中頭郡西原町,字池田766番地2　西原町字池田767番地, 中頭郡西原町 字池田766番地2　西原町字池田767番地
有料老人ホーム　和合,904-0321,,中頭郡読谷村,字上地65番地　1階, 中頭郡読谷村 字上地65番地　1階
健やかホーム,9040300,,中頭郡読谷村,字長浜87番地, 中頭郡読谷村 字長浜87番地
宅老所　あさぎぐゎー,904-0313,,中頭郡読谷村,字大湾536番地2, 中頭郡読谷村 字大湾536番地2
有料老人ホームたんぽぽ,904-0314,,中頭郡読谷村,字古堅587番地, 中頭郡読谷村 字古堅587番地
住宅型有料老人ホームざきみ,904-0321,,中頭郡読谷村,字上地329番地, 中頭郡読谷村 字上地329番地
有料老人ホーム　ななふく,9040324,,中頭郡読谷村,長浜1194番地, 中頭郡読谷村 長浜1194番地
住宅型有料老人ホーム　読谷,904-0304,,中頭郡読谷村,字楚辺1300番地　2階、3階, 中頭郡読谷村 字楚辺1300番地　2階、3階
あったか家　ももたろう,9040324,,中頭郡読谷村,長浜1722番地4, 中頭郡読谷村 長浜1722番地4
宅老所たんぽぽ,904-0314,,中頭郡読谷村,字古堅587番地　ZION2階、3階, 中頭郡読谷村 字古堅587番地　ZION2階、3階
小規模多機能型居宅介護支援事業所　花日和,901-0213,,豊見城市,高嶺395-44, 豊見城市 高嶺395-44
東雲の丘指定小規模多機能型居宅介護事業所,901-1203,,南城市,大里大城1392番地, 南城市 大里大城1392番地
小規模多機能型ホーム　真心,901-1415,,南城市,佐敷新開1番地344, 南城市 佐敷新開1番地344
医療法人和の会　小規模多機能型ホームたづな,901-1303,,島尻郡与那原町,与那原１７９２ー１, 島尻郡与那原町 与那原１７９２ー１
小規模多機能型ホーム　はえばる,901-1117,,島尻郡南風原町,津嘉山６７５-３５, 島尻郡南風原町 津嘉山６７５-３５
ちゅら島小規模多機能型居宅介護支援事業所,901-0401,,島尻郡八重瀬町,東風平１３４８番地１, 島尻郡八重瀬町 東風平１３４８番地１
デイサービス琉新の風,901-1105,,島尻郡南風原町,字新川217番地4　5階, 島尻郡南風原町 字新川217番地4　5階
ヘルパーステーション　えがお,901-1204,,南城市,大里稲嶺1317番地１, 南城市 大里稲嶺1317番地１
ヘルパーステーションいずみ,901-0223,,豊見城市,沖縄県翁長87番地, 豊見城市 沖縄県翁長87番地
デイサービスはっぴー前川,901-0616,,南城市,沖縄県玉城593番地１, 南城市 沖縄県玉城593番地１
愛の郷居宅介護支援センター,901-0516,,島尻郡八重瀬町,沖縄県仲座1074番地の２, 島尻郡八重瀬町 沖縄県仲座1074番地の２
ヘルパーステーション琉新の風,901-1105,,島尻郡南風原町,沖縄県新川217番地４, 島尻郡南風原町 沖縄県新川217番地４
居宅介護支援事業所クローバーケア, 901-0331,,糸満市,沖縄県真栄平170番地, 糸満市 沖縄県真栄平170番地
ヘルパーステーション麦,901-1303,,島尻郡与那原町,沖縄県与那原616番地, 島尻郡与那原町 沖縄県与那原616番地
デイサービス楽舎,901-1206,,南城市,沖縄県大里467番地２, 南城市 沖縄県大里467番地２
デイサービス琉新の風糸満,901-0334,,糸満市,沖縄県大渡５１５－１, 糸満市 沖縄県大渡５１５－１
デイサービスセンターゆいまーるの丘,901-0504,,島尻郡八重瀬町,沖縄県後原1194番地, 島尻郡八重瀬町 沖縄県後原1194番地
通所介護事業所　はぁとあいらんど豊崎,901-0225,,豊見城市,沖縄県豊崎１－６７７, 豊見城市 沖縄県豊崎１－６７７
訪問看護ステーション　エール~応援~,901-0212,,豊見城市,沖縄県平良１３２番地８, 豊見城市 沖縄県平良１３２番地８
生協ケアセンター　訪問介護ステーションにじ,901-0294,,豊見城市,沖縄県真玉橋５９３番地の１　とよみ生協病院(別館３階）, 豊見城市 沖縄県真玉橋５９３番地の１　とよみ生協病院(別館３階）
生協ケアセンター　訪問看護ステーションにじ,901-0294,,豊見城市,沖縄県真玉橋５９３番地の１　とよみ生協病院(別館３階）, 豊見城市 沖縄県真玉橋５９３番地の１　とよみ生協病院(別館３階）
通所介護　あい,901-1103,,島尻郡南風原町,沖縄県字与那覇４４８番地１, 島尻郡南風原町 沖縄県字与那覇４４８番地１
ふれあい薬局,904-2245,,うるま市,赤道７５９－５, うるま市 赤道７５９－５
有限会社　天願薬局,904-2215,,うるま市,みどり町４－４－１６, うるま市 みどり町４－４－１６
あかみち薬局,904-2245,,うるま市,赤道１１－１３, うるま市 赤道１１－１３
ざきみ薬局,904-2242,,うるま市,高江洲１０８０－１, うるま市 高江洲１０８０－１
照屋薬局　あげな店,904-2214,,うるま市,安慶名３丁目２３番２６号オレンジハウス１階, うるま市 安慶名３丁目２３番２６号オレンジハウス１階
へしきや薬局,904-2302,,うるま市,与那城西原９８８－３, うるま市 与那城西原９８８－３
ひかり薬局　与那城店,904-2304,,うるま市,与那城屋慶名４６７－１, うるま市 与那城屋慶名４６７－１
タスク薬局,904-2215,,うるま市,みどり町５丁目２７番１号, うるま市 みどり町５丁目２７番１号
中部薬局,904-2243,,うるま市,宮里２６１番地１, うるま市 宮里２６１番地１
中部薬局,904-2243,,うるま市,宮里２６１番地１, うるま市 宮里２６１番地１
すこやか薬局　具志川店,904-2243,,うるま市,宮里２６１番１６号, うるま市 宮里２６１番１６号
照屋薬局,904-2221,,うるま市,平良川１２２, うるま市 平良川１２２
あおば薬局,904-2303,,うるま市,与那城２５－３, うるま市 与那城２５－３
にこにこ薬局,904-2243,,うるま市,宮里７６４番地１, うるま市 宮里７６４番地１
あかみち薬局　新赤道店,904-2245,,うるま市,赤道３３６－５, うるま市 赤道３３６－５
りんご調剤薬局　うるま店,904-2243,,うるま市,宮里２６４－９番地　１Ｆ, うるま市 宮里２６４－９番地　１Ｆ
メイト平良川薬局,904-2225,,うるま市,喜屋武１７９番地渡口ビル１Ｆ, うるま市 喜屋武１７９番地渡口ビル１Ｆ
すこやか薬局　みどり町店,904-2215,,うるま市,みどり町４－１９－１５, うるま市 みどり町４－１９－１５
あかみち薬局　あげな店,904-2214,,うるま市,安慶名一丁目６番１９号, うるま市 安慶名一丁目６番１９号
あかみち薬局　江洲店,904-2244,,うるま市,字江洲５９８－８, うるま市 字江洲５９８－８
ピーナツ薬局,904-1106,,うるま市,石川２丁目２２番１８号, うるま市 石川２丁目２２番１８号
ハート薬局　江洲店,904-2244,,うるま市,字江洲５４７番地１, うるま市 字江洲５４７番地１
すこやか薬局　喜屋武店,904-2225,,うるま市,喜屋武５４６－１, うるま市 喜屋武５４６－１
ハート薬局　あかみち店,904-2245,,うるま市,赤道１７４番地９, うるま市 赤道１７４番地９
ひまわり薬局　中部店,904-2165,,沖縄市,うるま市宮里２０１ー５, 沖縄市 うるま市宮里２０１ー５
アイン薬局　赤道店,904-2245,,うるま市,赤道２６０－５, うるま市 赤道２６０－５
いは薬局,904-1115,,うるま市,石川伊波４２８－５, うるま市 石川伊波４２８－５
すこやか薬局　与勝店,904-2311,,うるま市,勝連南風原３５７７－１, うるま市 勝連南風原３５７７－１
ゲンキ薬局,904-0021,,沖縄市,胡屋１－１３－１２, 沖縄市 胡屋１－１３－１２
すこやか薬局　泡瀬店,904-2172,,沖縄市,泡瀬４－３８－１９, 沖縄市 泡瀬４－３８－１９
はな薬局,904-2143,,沖縄市,沖繩市知花６－２３－２８, 沖縄市 沖繩市知花６－２３－２８
あい薬局,904-2171,,沖縄市,高原２－４－１８, 沖縄市 高原２－４－１８
仲真薬局,904-0031,,沖縄市,上地１丁目５－２, 沖縄市 上地１丁目５－２
きさらぎ薬局,904-2171,,沖縄市,高原７－２２－２８, 沖縄市 高原７－２２－２８
レモン薬局美里店,904-2154,,沖縄市,東二丁目５番１８号, 沖縄市 東二丁目５番１８号
ミドリ薬局美里店,904-2154,,沖縄市,東二丁目２６番１号, 沖縄市 東二丁目２６番１号
アリス薬局,904-2172,,沖縄市,泡瀬２－８－５, 沖縄市 泡瀬２－８－５
すこやか薬局　高原店,904-2171,,沖縄市,高原５－１７－１, 沖縄市 高原５－１７－１
島里薬局,904-2165,,沖縄市,宮里四丁目２番５号, 沖縄市 宮里四丁目２番５号
あいらんど薬局　コザ店,904-0014,,沖縄市,仲宗根町３－１１, 沖縄市 仲宗根町３－１１
琉球クオール薬局　登川店,904-2142,,沖縄市,登川１－９－７, 沖縄市 登川１－９－７
レモン薬局　みはら店,904-2155,,沖縄市,美原四丁目１０番１号, 沖縄市 美原四丁目１０番１号
すこやか薬局　ももやま店,904-0035,,沖縄市,南桃原３－３６－１１, 沖縄市 南桃原３－３６－１１
ひかり薬局　コザ店,904-0003,,沖縄市,住吉１－４－１９, 沖縄市 住吉１－４－１９
ハーモニー薬局　諸見里店,9040032,,沖縄市,諸見里１－２６－６, 沖縄市 諸見里１－２６－６
やまうち薬局,904-0034,,沖縄市,山内１－６－１１, 沖縄市 山内１－６－１１
サンアイ薬局みさと,904-2155,,沖縄市,美原三丁目２１番１号, 沖縄市 美原三丁目２１番１号
すこやか薬局　中頭店,904-2143,,沖縄市,知花６－２５－１１, 沖縄市 知花６－２５－１１
ハート薬局,904-2155,,沖縄市,美原二丁目２６番２１号, 沖縄市 美原二丁目２６番２１号
さんり薬局,904-0033,,沖縄市,山里１－３－３, 沖縄市 山里１－３－３
くすの木薬局,904-0012,,沖縄市,安慶田４－６－６, 沖縄市 安慶田４－６－６
ワタキュー薬局　与儀店,904-2174,,沖縄市,与儀３丁目１０番１号, 沖縄市 与儀３丁目１０番１号
ピー・ケイ・シー薬局,904-2143,,沖縄市,知花５－１３－２８, 沖縄市 知花５－１３－２８
すこやか薬局　知花店,904-2143,,沖縄市,知花６－３８－５, 沖縄市 知花６－３８－５
すこやか薬局　美里店,904-2155,,沖縄市,美原四丁目１番２８号, 沖縄市 美原四丁目１番２８号
ひが薬局　美里店,904-2155,,沖縄市,美原二丁目２５番１号, 沖縄市 美原二丁目２５番１号
古謝薬局,904-2161,,沖縄市,古謝２丁目２１番２８号, 沖縄市 古謝２丁目２１番２８号
メイト美里薬局,904-2154,,沖縄市,東二丁目２５番３号, 沖縄市 東二丁目２５番３号
まごころ薬局　山内店,904-0034,,沖縄市,山内三丁目１４番３０号, 沖縄市 山内三丁目１４番３０号
ひまわり薬局　上地店,904-0031,,沖縄市,上地二丁目１２番１６号, 沖縄市 上地二丁目１２番１６号
すこやか薬局　泡瀬東店,904-2172,,沖縄市,泡瀬２丁目５４番４号, 沖縄市 泡瀬２丁目５４番４号
つみきの薬局,904-2153,,沖縄市,美里４丁目１７番６号, 沖縄市 美里４丁目１７番６号
ゆい薬局知花店,904-2143,,沖縄市,知花６－２６－１６, 沖縄市 知花６－２６－１６
和ごころ薬局　あわせ店,904-2161,,沖縄市,古謝２丁目１９番５号, 沖縄市 古謝２丁目１９番５号
アイン薬局　知花店,904-2143,,沖縄市,知花６－２５－１８, 沖縄市 知花６－２５－１８
アイン薬局　登川店,904-2142,,沖縄市,登川５９７－１, 沖縄市 登川５９７－１
すこやか薬局　登川店,904-2142,,沖縄市,字登川４９５－１, 沖縄市 字登川４９５－１
おきなわ薬局店,904-2142,,沖縄市,字登川６０２番地, 沖縄市 字登川６０２番地
みさと虹薬局,904-2143,,沖縄市,知花６丁目２５－３, 沖縄市 知花６丁目２５－３
登川薬局,904-2142,,沖縄市,登川２丁目２７番地１, 沖縄市 登川２丁目２７番地１
みさき薬局,904-2153,,沖縄市,美里５－２４－１０, 沖縄市 美里５－２４－１０
普天間薬局,901-2202,,宜野湾市,普天間２－４９－１２, 宜野湾市 普天間２－４９－１２
すこやか薬局　野嵩店,９０１－２２０３,,宜野湾市,野嵩１－１０－１１, 宜野湾市 野嵩１－１０－１１
新川薬局,901-2206,,宜野湾市,愛知３丁目１番６１号, 宜野湾市 愛知３丁目１番６１号
宜野湾薬局,901-2211,,宜野湾市,宜野湾３－３－１０, 宜野湾市 宜野湾３－３－１０
ひまわり薬局,901-2214,,宜野湾市,我如古４４９－６, 宜野湾市 我如古４４９－６
ひかり薬局　宜野湾店,901-2212,,宜野湾市,長田１－１－２, 宜野湾市 長田１－１－２
がねこ薬局,901-2214,,宜野湾市,我如古３－８－８, 宜野湾市 我如古３－８－８
ゆい薬局　長田店,901-2212,,宜野湾市,長田１－２６－１７, 宜野湾市 長田１－２６－１７
すこやか薬局　宇地泊店,901-2227,,宜野湾市,宇地泊７００番地, 宜野湾市 宇地泊７００番地
いろは薬局,901-2205,,宜野湾市,赤道２丁目２番５号, 宜野湾市 赤道２丁目２番５号
アセロラ薬局,901-2215,,宜野湾市,真栄原３丁目２３番２号, 宜野湾市 真栄原３丁目２３番２号
すずらん薬局,901-2226,,宜野湾市,嘉数２－２－７, 宜野湾市 嘉数２－２－７
あいらんど薬局　うちどまり店,901-2227,,宜野湾市,字宇地泊７７６番地, 宜野湾市 字宇地泊７７６番地
たいよう薬局,901-2221,,宜野湾市,伊佐２丁目１４番７号, 宜野湾市 伊佐２丁目１４番７号
あいらんど薬局　宜野湾あいち店,901-2206,,宜野湾市,愛知三丁目９番９号, 宜野湾市 愛知三丁目９番９号
うちどまり薬局,901-2227,,宜野湾市,字宇地泊８１８, 宜野湾市 字宇地泊８１８
さわやか薬局,901-2212,,宜野湾市,長田一丁目２９番１号, 宜野湾市 長田一丁目２９番１号
つつじ薬局,901-2225,,宜野湾市,大謝名１－１７－３１, 宜野湾市 大謝名１－１７－３１
恩納薬局,904-0411,,国頭郡恩納村,恩納６３０２, 国頭郡恩納村 恩納６３０２
みなみ薬局,904-0411,,国頭郡恩納村,恩納６３０３番地の２, 国頭郡恩納村 恩納６３０３番地の２
こぐま薬局,904-1201,,国頭郡金武町,字金武４７９０－２, 国頭郡金武町 字金武４７９０－２
ゆい屋嘉薬局,904-1203,,国頭郡金武町,字屋嘉２７２５－１, 国頭郡金武町 字屋嘉２７２５－１
かんな薬局,904-1304,,国頭郡宜野座村,字漢那４６９番地３, 国頭郡宜野座村 字漢那４６９番地３
いるか薬局,903-0126,,中頭郡西原町,棚原１丁目２０番地の１４, 中頭郡西原町 棚原１丁目２０番地の１４
会営薬局うえはら,9030125,,中頭郡西原町,上原１丁目２６番地の１, 中頭郡西原町 上原１丁目２６番地の１
すこやか薬局　北谷店,904-0101,,中頭郡北谷町,上勢６２９－２, 中頭郡北谷町 上勢６２９－２
大北薬局,904-0101,,中頭郡北谷町,上勢８１１－３, 中頭郡北谷町 上勢８１１－３
ゆい薬局,904-0203,,中頭郡嘉手納町,嘉手納２６１, 中頭郡嘉手納町 嘉手納２６１
ひかり薬局　北谷店,904-0117,,中頭郡北谷町,北前１－２２－３, 中頭郡北谷町 北前１－２２－３
あさひの薬局,904-0305,,中頭郡読谷村,都屋２３２－３, 中頭郡読谷村 都屋２３２－３
うさぎ薬局,903-0124,,中頭郡西原町,呉屋１０２－２, 中頭郡西原町 呉屋１０２－２
さわやか薬局　西原店,903-0118,,中頭郡西原町,小波津３－７, 中頭郡西原町 小波津３－７
がじまる薬局,903-0103,,中頭郡西原町,小那覇１６０２－１, 中頭郡西原町 小那覇１６０２－１
レキオ薬局,903-0125,,中頭郡西原町,上原１丁目２５番地の８, 中頭郡西原町 上原１丁目２５番地の８
ヘルシー：デポ　よみたん薬局,904-0305,,中頭郡読谷村,都屋２５６－１, 中頭郡読谷村 都屋２５６－１
長浜調剤薬局,904-0324,,中頭郡読谷村,長浜１５３２－５, 中頭郡読谷村 長浜１５３２－５
よつば薬局,901-2424,,中頭郡中城村,南上原７５０番　カサグランデ２１　１０２号, 中頭郡中城村 南上原７５０番　カサグランデ２１　１０２号
すこやか薬局　よみたん店,904-0305,,中頭郡読谷村,都屋１６７－２－１, 中頭郡読谷村 都屋１６７－２－１
すこやか薬局　西原店,903-0125,,中頭郡西原町,上原１丁目２５番地の１２, 中頭郡西原町 上原１丁目２５番地の１２
にしはら薬局,903-0117,,中頭郡西原町,翁長２４０番地の９, 中頭郡西原町 翁長２４０番地の９
かでな調剤薬局,904-0202,,中頭郡嘉手納町,屋良１０６２番地の１, 中頭郡嘉手納町 屋良１０６２番地の１
ハート薬局　ずけらん店,901-2317,,中頭郡北中城村,瑞慶覧６４５－４, 中頭郡北中城村 瑞慶覧６４５－４
にしばる薬局,903-0121,,中頭郡西原町,内間５０８－１番地, 中頭郡西原町 内間５０８－１番地
きじゅ薬局,903-0125,,中頭郡西原町,上原１丁目２５番地の７, 中頭郡西原町 上原１丁目２５番地の７
すこやか薬局　かけぼく店,903-0101,,中頭郡西原町,字掛保久２８７番地, 中頭郡西原町 字掛保久２８７番地
あさひ薬局,901-2311,,中頭郡北中城村,喜舎場３６０番地４, 中頭郡北中城村 喜舎場３６０番地４
すこやか薬局　伊平店,9040100,,中頭郡北谷町,字伊平２５０番地, 中頭郡北谷町 字伊平２５０番地
りんご調剤薬局　西原東店,903-0121,,中頭郡西原町,字内間３９１番地, 中頭郡西原町 字内間３９１番地
すこやか薬局　ライカム店,901-2305,,中頭郡北中城村,字比嘉４９４番地１, 中頭郡北中城村 字比嘉４９４番地１
日本調剤中部薬局,901-2305,,中頭郡北中城村,字比嘉５９５－３丸清アパート１階１０２, 中頭郡北中城村 字比嘉５９５－３丸清アパート１階１０２
おひさま薬局　長浜店,904-0324,,中頭郡読谷村,長浜１７４３番地２, 中頭郡読谷村 長浜１７４３番地２
かもめ薬局,904-2215,,うるま市,みどり町３－１８－１０, うるま市 みどり町３－１８－１０
すこやか薬局　みどり町店,904-2215,,うるま市,みどり町４－１９－１５, うるま市 みどり町４－１９－１５
有限会社　天願薬局,904-2215,,うるま市,みどり町４－４－１６, うるま市 みどり町４－４－１６
ふく薬局　みどり町店,904-2215,,うるま市,みどり町５－３－１３, うるま市 みどり町５－３－１３
タスク薬局,904-2215,,うるま市,みどり町５丁目２７番１号, うるま市 みどり町５丁目２７番１号
照屋薬局　あげな店,904-2214,,うるま市,安慶名３丁目２３番２６号オレンジハウス１階, うるま市 安慶名３丁目２３番２６号オレンジハウス１階
あかみち薬局　あげな店,904-2214,,うるま市,安慶名一丁目６番１９号, うるま市 安慶名一丁目６番１９号
メイト平良川薬局,904-2225,,うるま市,喜屋武１７９番地渡口ビル１Ｆ, うるま市 喜屋武１７９番地渡口ビル１Ｆ
すこやか薬局　喜屋武店,904-2225,,うるま市,喜屋武５４６－１, うるま市 喜屋武５４６－１
ひまわり薬局　中部店,904-2243,,うるま市,宮里２０１ー５, うるま市 宮里２０１ー５
すこやか薬局　具志川店,904-2243,,うるま市,宮里２６１番１６号, うるま市 宮里２６１番１６号
中部薬局,904-2243,,うるま市,宮里２６１番地１, うるま市 宮里２６１番地１
りんご調剤薬局　うるま店,904-2243,,うるま市,宮里２６４－９番地　１Ｆ, うるま市 宮里２６４－９番地　１Ｆ
にこにこ薬局,904-2243,,うるま市,宮里７６４番地１, うるま市 宮里７６４番地１
ざきみ薬局,904-2242,,うるま市,高江洲１０８０－１, うるま市 高江洲１０８０－１
ハート薬局　江洲店,904-2244,,うるま市,字江洲５４７番地１, うるま市 字江洲５４７番地１
あかみち薬局　江洲店,904-2244,,うるま市,字江洲５９８－８, うるま市 字江洲５９８－８
なでしこ薬局,904-2244,,うるま市,字江洲６００番地７, うるま市 字江洲６００番地７
すこやか薬局　与勝店,904-2311,,うるま市,勝連南風原３５７７－１, うるま市 勝連南風原３５７７－１
石川インター前薬局,904-1106,,うるま市,石川２４１０－１, うるま市 石川２４１０－１
ピーナツ薬局,904-1106,,うるま市,石川２丁目２２番１８号, うるま市 石川２丁目２２番１８号
いは薬局,904-1115,,うるま市,石川伊波４２８－５, うるま市 石川伊波４２８－５
さしだ薬局曙店,904-1107,,うるま市,石川曙三丁目２番２８号, うるま市 石川曙三丁目２番２８号
東山調剤薬局,904-1102,,うるま市,石川東山２丁目３０番地２１号, うるま市 石川東山２丁目３０番地２１号
さしだ薬局　ニュー東山店,904-1102,,うるま市,石川東山一丁目２２番６号, うるま市 石川東山一丁目２２番６号
さしだ薬局　しらはま店,904-1105,,うるま市,石川白浜２丁目３番１号, うるま市 石川白浜２丁目３番１号
あかみち薬局,904-2245,,うるま市,赤道１１－１３, うるま市 赤道１１－１３
ハート薬局　あかみち店,904-2245,,うるま市,赤道１７４番地９, うるま市 赤道１７４番地９
アイン薬局　赤道店,904-2245,,うるま市,赤道２６０－５, うるま市 赤道２６０－５
あかみち薬局　新赤道店,904-2245,,うるま市,赤道３３６－５, うるま市 赤道３３６－５
ふれあい薬局,904-2245,,うるま市,赤道７５９－５, うるま市 赤道７５９－５
ゆうな薬局,904-2213,,うるま市,田場１４１５番地１０, うるま市 田場１４１５番地１０
照屋薬局,904-2221,,うるま市,平良川１２２, うるま市 平良川１２２
あおば薬局,904-2303,,うるま市,与那城２５－３, うるま市 与那城２５－３
ひかり薬局　与那城店,904-2304,,うるま市,与那城屋慶名４６７－１, うるま市 与那城屋慶名４６７－１
へしきや薬局,904-2302,,うるま市,与那城西原９８８－３, うるま市 与那城西原９８８－３
かみざと薬局,904-0012,,沖縄市,安慶田１－１３－１５, 沖縄市 安慶田１－１３－１５
くすの木薬局,904-0012,,沖縄市,安慶田４－６－６, 沖縄市 安慶田４－６－６
島里薬局,904-2165,,沖縄市,宮里四丁目２番５号, 沖縄市 宮里四丁目２番５号
和ごころ薬局　あわせ店,904-2161,,沖縄市,古謝２丁目１９番５号, 沖縄市 古謝２丁目１９番５号
古謝薬局,904-2161,,沖縄市,古謝２丁目２１番２８号, 沖縄市 古謝２丁目２１番２８号
ゲンキ薬局,904-0021,,沖縄市,胡屋１－１３－１２, 沖縄市 胡屋１－１３－１２
なかがみ薬局,904-0021,,沖縄市,胡屋１－１６－１, 沖縄市 胡屋１－１６－１
あい薬局,904-2171,,沖縄市,高原２－４－１８, 沖縄市 高原２－４－１８
すこやか薬局　高原店,904-2171,,沖縄市,高原５－１７－１, 沖縄市 高原５－１７－１
きさらぎ薬局,904-2171,,沖縄市,高原７－２２－２８, 沖縄市 高原７－２２－２８
吉原東洋堂薬局,904-2171,,沖縄市,高原７－３０－２５, 沖縄市 高原７－３０－２５
やまうち薬局,904-0034,,沖縄市,山内１－６－１１, 沖縄市 山内１－６－１１
オレンジ薬局,904-0034,,沖縄市,山内２－２６－２２, 沖縄市 山内２－２６－２２
みらい薬局,904-0034,,沖縄市,山内３丁目１１番１号, 沖縄市 山内３丁目１１番１号
まごころ薬局　山内店,904-0034,,沖縄市,山内三丁目１４番３０号, 沖縄市 山内三丁目１４番３０号
さんり薬局,904-0033,,沖縄市,山里１－３－３, 沖縄市 山里１－３－３
すこやか薬局　登川店,904-2142,,沖縄市,字登川４９５－１, 沖縄市 字登川４９５－１
おきなわ薬局店,904-2142,,沖縄市,字登川６０２番地, 沖縄市 字登川６０２番地
ひかり薬局　コザ店,904-0003,,沖縄市,住吉１－４－１９, 沖縄市 住吉１－４－１９
ハーモニー薬局　諸見里店,904-0032,,沖縄市,諸見里１－２６－６, 沖縄市 諸見里１－２６－６
メイト松本薬局,904-2151,,沖縄市,松本４－１７－１４, 沖縄市 松本４－１７－１４
コザ中の町薬局,904-0031,,沖縄市,上地１－１３－１６, 沖縄市 上地１－１３－１６
仲真薬局,904-0031,,沖縄市,上地１丁目５－２, 沖縄市 上地１丁目５－２
ひまわり薬局　上地店,904-0031,,沖縄市,上地二丁目１２番１６号, 沖縄市 上地二丁目１２番１６号
平田薬局,904-2143,,沖縄市,知花１－４－１２, 沖縄市 知花１－４－１２
ピー・ケイ・シー薬局,904-2143,,沖縄市,知花５－１３－２８, 沖縄市 知花５－１３－２８
すこやか薬局　中頭店,904-2143,,沖縄市,知花６－２５－１１, 沖縄市 知花６－２５－１１
アイン薬局　知花店,904-2143,,沖縄市,知花６－２５－１８, 沖縄市 知花６－２５－１８
ゆい薬局知花店,904-2143,,沖縄市,知花６－２６－１６, 沖縄市 知花６－２６－１６
すこやか薬局　知花店,904-2143,,沖縄市,知花６－３８－５, 沖縄市 知花６－３８－５
たんぽぽ薬局,904-2143,,沖縄市,知花６－７６４－３, 沖縄市 知花６－７６４－３
みさと虹薬局,904-2143,,沖縄市,知花６丁目２５－３, 沖縄市 知花６丁目２５－３
あいらんど薬局　コザ店,904-0014,,沖縄市,仲宗根町３－１１, 沖縄市 仲宗根町３－１１
ゆかり薬局,904-2142,,沖縄市,登川１－１－５, 沖縄市 登川１－１－５
琉球クオール薬局　登川店,904-2142,,沖縄市,登川１－９－７, 沖縄市 登川１－９－７
登川薬局,904-2142,,沖縄市,登川２丁目２７番地１, 沖縄市 登川２丁目２７番地１
アイン薬局　登川店,904-2142,,沖縄市,登川５９７－１, 沖縄市 登川５９７－１
すずらん薬局,904-2154,,沖縄市,東二丁目１６番３号, 沖縄市 東二丁目１６番３号
ミドリ薬局美里店,904-2154,,沖縄市,東二丁目２６番１号, 沖縄市 東二丁目２６番１号
レモン薬局美里店,904-2154,,沖縄市,東二丁目５番１８号, 沖縄市 東二丁目５番１８号
こだち薬局,904-0035,,沖縄市,南桃原３－１－２, 沖縄市 南桃原３－１－２
すこやか薬局　ももやま店,904-0035,,沖縄市,南桃原３－３６－１１, 沖縄市 南桃原３－３６－１１
みなみ薬局,904-0035,,沖縄市,南桃原４－２８－１, 沖縄市 南桃原４－２８－１
南高原薬局,904-2173,,沖縄市,比屋根２－３－１５, 沖縄市 比屋根２－３－１５
とくりん薬局　比屋根店,904-2173,,沖縄市,比屋根六丁目２７番２０号プロスパリティⅡ１Ｆ, 沖縄市 比屋根六丁目２７番２０号プロスパリティⅡ１Ｆ
みはら薬局,904-2155,,沖縄市,美原４丁目１番１５号　１階, 沖縄市 美原４丁目１番１５号　１階
サンアイ薬局みさと,904-2155,,沖縄市,美原三丁目２１番１号, 沖縄市 美原三丁目２１番１号
レモン薬局　みはら店,904-2155,,沖縄市,美原四丁目１０番１号, 沖縄市 美原四丁目１０番１号
すこやか薬局　美里店,904-2155,,沖縄市,美原四丁目１番２８号, 沖縄市 美原四丁目１番２８号
サウスウエスト美里薬局,904-2155,,沖縄市,美原四丁目１番７号, 沖縄市 美原四丁目１番７号
ひが薬局　美里店,904-2155,,沖縄市,美原二丁目２５番１号, 沖縄市 美原二丁目２５番１号
ハート薬局,904-2155,,沖縄市,美原二丁目２６番２１号, 沖縄市 美原二丁目２６番２１号
サンセイ薬局,904-2153,,沖縄市,美里１丁目２７番１４号, 沖縄市 美里１丁目２７番１４号
オアシス美里薬局,904-2153,,沖縄市,美里２丁目１０番２２号, 沖縄市 美里２丁目１０番２２号
つみきの薬局,904-2153,,沖縄市,美里４丁目１７番６号, 沖縄市 美里４丁目１７番６号
みさき薬局,904-2153,,沖縄市,美里５－２４－１０, 沖縄市 美里５－２４－１０
アリス薬局,904-2172,,沖縄市,泡瀬２－８－５, 沖縄市 泡瀬２－８－５
すこやか薬局　泡瀬東店,904-2172,,沖縄市,泡瀬２丁目５４番４号, 沖縄市 泡瀬２丁目５４番４号
すこやか薬局　泡瀬店,904-2172,,沖縄市,泡瀬４－３８－１９, 沖縄市 泡瀬４－３８－１９
サラダ薬局,904-2172,,沖縄市,泡瀬四丁目１番３７号, 沖縄市 泡瀬四丁目１番３７号
ワタキュー薬局　与儀店,904-2174,,沖縄市,与儀３丁目１０番１号, 沖縄市 与儀３丁目１０番１号
はな薬局,904-2143,,沖縄市,沖繩市知花６－２３－２８, 沖縄市 沖繩市知花６－２３－２８
新川薬局,901-2206,,宜野湾市,愛知３丁目１番６１号, 宜野湾市 愛知３丁目１番６１号
あいらんど薬局　宜野湾あいち店,901-2206,,宜野湾市,愛知三丁目９番９号, 宜野湾市 愛知三丁目９番９号
たいよう薬局,901-2221,,宜野湾市,伊佐２丁目１４番７号, 宜野湾市 伊佐２丁目１４番７号
いさ調剤薬局,901-2221,,宜野湾市,伊佐一丁目９番１７号, 宜野湾市 伊佐一丁目９番１７号
すこやか薬局　宇地泊店,901-2227,,宜野湾市,宇地泊７００番地, 宜野湾市 宇地泊７００番地
すずらん薬局,901-2226,,宜野湾市,嘉数２－２－７, 宜野湾市 嘉数２－２－７
ことり薬局,901-2226,,宜野湾市,嘉数４丁目２５番１４号, 宜野湾市 嘉数４丁目２５番１４号
がねこ薬局,901-2214,,宜野湾市,我如古３－８－８, 宜野湾市 我如古３－８－８
ひまわり薬局,901-2214,,宜野湾市,我如古４４９－６, 宜野湾市 我如古４４９－６
宜野湾薬局,901-2211,,宜野湾市,宜野湾３－３－１０, 宜野湾市 宜野湾３－３－１０
あいらんど薬局　うちどまり店,901-2227,,宜野湾市,字宇地泊７７６番地, 宜野湾市 字宇地泊７７６番地
うちどまり薬局,901-2227,,宜野湾市,字宇地泊８１８, 宜野湾市 字宇地泊８１８
あかみち薬局,901-2204,,宜野湾市,上原１－１－６, 宜野湾市 上原１－１－６
つる薬局,901-2215,,宜野湾市,真栄原３－７－８, 宜野湾市 真栄原３－７－８
アセロラ薬局,901-2215,,宜野湾市,真栄原３丁目２３番２号, 宜野湾市 真栄原３丁目２３番２号
いろは薬局,901-2205,,宜野湾市,赤道２丁目２番５号, 宜野湾市 赤道２丁目２番５号
つつじ薬局,901-2225,,宜野湾市,大謝名１－１７－３１, 宜野湾市 大謝名１－１７－３１
ひかり薬局　宜野湾店,901-2212,,宜野湾市,長田１－１－２, 宜野湾市 長田１－１－２
ゆい薬局　長田店,901-2212,,宜野湾市,長田１－２６－１７, 宜野湾市 長田１－２６－１７
さわやか薬局,901-2212,,宜野湾市,長田一丁目２９番１号, 宜野湾市 長田一丁目２９番１号
普天間薬局,901-2202,,宜野湾市,普天間２－４９－１２, 宜野湾市 普天間２－４９－１２
すこやか薬局　野嵩店,901-2203,,宜野湾市,野嵩１－１０－１１, 宜野湾市 野嵩１－１０－１１
回生堂薬局ユニオン店,901-2203,,宜野湾市,野嵩３－８－６, 宜野湾市 野嵩３－８－６
恩納薬局,904-0411,,国頭郡恩納村,恩納６３０２, 国頭郡恩納村 恩納６３０２
みなみ薬局,904-0411,,国頭郡恩納村,恩納６３０３番地の２, 国頭郡恩納村 恩納６３０３番地の２
かんな薬局,904-1304,,国頭郡宜野座村,字漢那４６９番地３, 国頭郡宜野座村 字漢那４６９番地３
ほし薬局,904-1201,,国頭郡金武町,金武７９０６－７, 国頭郡金武町 金武７９０６－７
金武薬局,904-1201,,国頭郡金武町,金武８８, 国頭郡金武町 金武８８
ゆい屋嘉薬局,904-1203,,国頭郡金武町,字屋嘉２７２５－１, 国頭郡金武町 字屋嘉２７２５－１
セブンス薬局　金武店,904-1201,,国頭郡金武町,字金武１０９０６番地, 国頭郡金武町 字金武１０９０６番地
こぐま薬局,904-1201,,国頭郡金武町,字金武４７９０－２, 国頭郡金武町 字金武４７９０－２
にしはら薬局,903-0117,,中頭郡西原町,翁長２４０番地の９, 中頭郡西原町 翁長２４０番地の９
ハイジア薬局,903-0112,,中頭郡西原町,我謝７８６－１１, 中頭郡西原町 我謝７８６－１１
カナン薬局,903-0116,,中頭郡西原町,幸地７２４－１, 中頭郡西原町 幸地７２４－１
すこやか薬局　かけぼく店,903-0101,,中頭郡西原町,字掛保久２８７番地, 中頭郡西原町 字掛保久２８７番地
りんご調剤薬局　西原東店,903-0121,,中頭郡西原町,字内間３９１番地, 中頭郡西原町 字内間３９１番地
うみ薬局,903-0122,,中頭郡西原町,小橋川１５４－４, 中頭郡西原町 小橋川１５４－４
役場前薬局,903-0122,,中頭郡西原町,小橋川１６４－４, 中頭郡西原町 小橋川１６４－４
がじまる薬局,903-0103,,中頭郡西原町,小那覇１６０２－１, 中頭郡西原町 小那覇１６０２－１
さわやか薬局　西原店,903-0118,,中頭郡西原町,小波津３－７, 中頭郡西原町 小波津３－７
すこやか薬局　西原店,903-0125,,中頭郡西原町,上原１丁目２５番地の１２, 中頭郡西原町 上原１丁目２５番地の１２
きじゅ薬局,903-0125,,中頭郡西原町,上原１丁目２５番地の７, 中頭郡西原町 上原１丁目２５番地の７
レキオ薬局,903-0125,,中頭郡西原町,上原１丁目２５番地の８, 中頭郡西原町 上原１丁目２５番地の８
会営薬局うえはら,903-0125,,中頭郡西原町,上原１丁目２６番地の１, 中頭郡西原町 上原１丁目２６番地の１
いるか薬局,903-0126,,中頭郡西原町,棚原１丁目２０番地の１４, 中頭郡西原町 棚原１丁目２０番地の１４
にしばる薬局,903-0121,,中頭郡西原町,内間５０８－１番地, 中頭郡西原町 内間５０８－１番地
すばる薬局,903-0121,,中頭郡西原町,内間５１８－１, 中頭郡西原町 内間５１８－１
てる薬局,901-2405,,中頭郡中城村,屋宜５９５番地３, 中頭郡中城村 屋宜５９５番地３
よつば薬局,901-2424,,中頭郡中城村,南上原７５０番　カサグランデ２１　１０２号, 中頭郡中城村 南上原７５０番　カサグランデ２１　１０２号
ひよこ薬局,904-0303,,中頭郡読谷村,伊良皆３４１－２, 中頭郡読谷村 伊良皆３４１－２
ひなた薬局,904-0314,,中頭郡読谷村,古堅６７４番地１, 中頭郡読谷村 古堅６７４番地１
ＪＲ九州ドラッグイレブン薬局　読谷店,904-0314,,中頭郡読谷村,古堅７４０, 中頭郡読谷村 古堅７４０
かりゆし薬局,904-0325,,中頭郡読谷村,瀬名波４６８－１, 中頭郡読谷村 瀬名波４６８－１
宮盛薬局,904-0311,,中頭郡読谷村,比謝４００番地の４, 中頭郡読谷村 比謝４００番地の４
クローバー薬局,904-0111,,中頭郡北谷町,砂辺３１６－３, 中頭郡北谷町 砂辺３１６－３
きずな薬局　桑江店,904-0103,,中頭郡北谷町,字桑江１２８番２, 中頭郡北谷町 字桑江１２８番２
イオン薬局　ライカム店,901-2305,,中頭郡北中城村,アワセ土地区画整理事業区域内４街区, 中頭郡北中城村 アワセ土地区画整理事業区域内４街区
あさひ薬局,901-2311,,中頭郡北中城村,喜舎場３６０番地４, 中頭郡北中城村 喜舎場３６０番地４
あい薬局　ライカム店,901-2301,,中頭郡北中城村,字袋１８８番地, 中頭郡北中城村 字袋１８８番地
すこやか薬局　ライカム店,901-2305,,中頭郡北中城村,字比嘉４９４番地１, 中頭郡北中城村 字比嘉４９４番地１
日本調剤中部薬局,901-2305,,中頭郡北中城村,字比嘉５９５－３丸清アパート１階１０２, 中頭郡北中城村 字比嘉５９５－３丸清アパート１階１０２
ハート薬局　ずけらん店,901-2317,,中頭郡北中城村,瑞慶覧６４５－４, 中頭郡北中城村 瑞慶覧６４５－４
グループハウス　あさじ,905-0011,,名護市,宮里1-11-10, 名護市 宮里1-11-10
カクエルの杜　ナイトハウス・ホットハート,905-1145,,名護市,川上831, 名護市 川上831
高齢者共同住宅シルバーテラスハウス,905-1146,,名護市,親川463-3, 名護市 親川463-3
有料老人ホーム　琉新の風　糸満,901-0334,,糸満市,大渡５１５番地1, 糸満市 大渡５１５番地1
住宅型有料老人ホーム　順風苑,901-0224,,豊見城市,沖縄県字与根８番地６, 豊見城市 沖縄県字与根８番地６
高齢者協同住宅　ちばり家,901-1502,,南城市,沖縄県知念字安座間１４３番地, 南城市 沖縄県知念字安座間１４３番地
トータル介護沖縄,901-0242,,豊見城市,沖縄県字高安８８２番地１２, 豊見城市 沖縄県字高安８８２番地１２
サトウ株式会社　八重瀬営業所,901-0401,,島尻郡八重瀬町,東風平７９６番地, 島尻郡八重瀬町 東風平７９６番地
福祉用具貸与サービスステーションすみれ,901-0215,,豊見城市,沖縄県渡嘉敷１５０番地, 豊見城市 沖縄県渡嘉敷１５０番地
株式会社シルバーサービス沖縄,901-0223,,豊見城市,沖縄県翁長８６９番地, 豊見城市 沖縄県翁長８６９番地
株式会社がんじゅうサポート南城,901-0608,,南城市,沖縄県玉城親慶原２０番地１３, 南城市 沖縄県玉城親慶原２０番地１３
アペックスプラン沖縄　南部営業所,901-1117,,島尻郡南風原町,沖縄県津嘉山１７６５番地セレクション津嘉山２０１号室, 島尻郡南風原町 沖縄県津嘉山１７６５番地セレクション津嘉山２０１号室
ヘルス＆ケアジャパン株式会社,901-1105,,島尻郡南風原町,沖縄県新川５０１番地, 島尻郡南風原町 沖縄県新川５０１番地
有限会社　いやしの郷,905-0017,,名護市,大4-4-27, 名護市 大4-4-27
福祉用具　桃源の郷,905-0018,,名護市,大西3-19-25, 名護市 大西3-19-25
（有）沖縄介護サービス　名護支店,905-0005,,名護市,為又786-1　102号, 名護市 為又786-1　102号
住宅型有料老人ホーム　琉新の風　糸満,901-0304,,糸満市,沖縄県大渡515-1, 糸満市 沖縄県大渡515-1
ヘルパーステーション　Cee Port,905-0023,,名護市,数久田295-5, 名護市 数久田295-5
サトウ株式会社　名護営業所,905-0016,,名護市,大東3-22-19, 名護市 大東3-22-19
デイサービス　りくゆ,905-0016,,名護市,大東1-6-16, 名護市 大東1-6-16
介護ショップ　ふくしま,905-1144,,名護市,仲尾次556, 名護市 仲尾次556
介護福祉用具貸与販売事業所　”匠”,905-1152,,名護市,伊差川19-1, 名護市 伊差川19-1
有限会社　ちゅらいふ,905-0011,,名護市,宮里450, 名護市 宮里450
トータル介護沖縄　名護営業所,905-0009,,名護市,宇茂佐の森4-13-6　103号, 名護市 宇茂佐の森4-13-6　103号
ふく薬局　名桜通り店,905-0006,,名護市,宇茂佐1703-101, 名護市 宇茂佐1703-101
北部形成・外科クリニック,905-0015,,名護市,大南2-13-8, 名護市 大南2-13-8
ヘルパーステーション山川,905-1318,,国頭郡大宜味村,津波1971-487, 国頭郡大宜味村 津波1971-487
デイサービス美和の里,905-1635,,名護市,済井出125, 名護市 済井出125
デイサービスセンターゆうゆう,905-0021,,名護市,東江4-4-3, 名護市 東江4-4-3
デイサービスわらいの里,905-0016,,名護市,大東2-14-16　101号, 名護市 大東2-14-16　101号
デイサービスセンターわらいの丘,905-0016,,名護市,大東2-15-19, 名護市 大東2-15-19
デイサービスセンターみやび,905-0019,,名護市,大北3-9-1, 名護市 大北3-9-1
訪問介護ステーション　美ら里,905-0426,,国頭郡今帰仁村,諸志101, 国頭郡今帰仁村 諸志101
医療法人　健歯会　わかばの森歯科医院※会員施設,901-2205,,宜野湾市,赤道１－１－１, 宜野湾市 赤道１－１－１
のぞみ歯科クリニック　※会員施設,904-0021,,沖縄市,胡屋４丁目１４番２８号, 沖縄市 胡屋４丁目１４番２８号
はごろもファミリー歯科　※会員施設,901-2224 ,,宜野湾市,真志喜２－１３－１３，１Ｆ, 宜野湾市 真志喜２－１３－１３，１Ｆ
訪問看護ステーションはえばる　北部出張所,905-0006,,名護市,宇茂佐1765　名護療育センター内地域交流ホーム2F, 名護市 宇茂佐1765　名護療育センター内地域交流ホーム2F
デイサービス　あさひが丘,901-0241,,豊見城市,沖縄県豊見城558-1, 豊見城市 沖縄県豊見城558-1
有料老人ホーム　デイサービスあさひが丘,901-0241,,豊見城市,沖縄県豊見城558-1, 豊見城市 沖縄県豊見城558-1
くすみ薬局,901-1208,,南城市,沖縄県大里字平良2545-1, 南城市 沖縄県大里字平良2545-1
メルシー薬局かねぐすく,901-1111,,島尻郡南風原町,沖縄県兼城656-3, 島尻郡南風原町 沖縄県兼城656-3
株式会社筑後　南薬局,901-1111,,島尻郡南風原町,沖縄県字兼城724, 島尻郡南風原町 沖縄県字兼城724
薬局えぱーわーな～,901-0314,,糸満市,沖縄県字座波1822-8, 糸満市 沖縄県字座波1822-8
小禄東薬局,901-0241,,豊見城市,沖縄県豊見城, 豊見城市 沖縄県豊見城
にしざき薬局,901-0305,,糸満市,沖縄県西崎2丁目26番11号, 糸満市 沖縄県西崎2丁目26番11号
ゆうな薬局,901-1206,,南城市,沖縄県大里字仲間1133-4, 南城市 沖縄県大里字仲間1133-4
